{
"type": "FeatureCollection",
"name": "503_SULFATO",
"crs": { "type": "name", "properties": { "name": "urn:ogc:def:crs:OGC:1.3:CRS84" } },
"features": [
{ "type": "Feature", "properties": { "RX": 275.169, "DOSE": 275.169, "zone": 4.0, "fert_kg_ha": 275.169 }, "geometry": { "type": "MultiPolygon", "coordinates": [ [ [ [ -54.846964229, -10.236950576 ], [ -54.846964229, -10.23676729 ], [ -54.846779129, -10.23676729 ], [ -54.846779129, -10.236584003 ], [ -54.846779129, -10.236400717 ], [ -54.846779129, -10.236217431 ], [ -54.846779129, -10.236034145 ], [ -54.846779129, -10.235850859 ], [ -54.846779129, -10.235667573 ], [ -54.846964229, -10.235667573 ], [ -54.846964229, -10.235484287 ], [ -54.846964229, -10.235301001 ], [ -54.84714933, -10.235301001 ], [ -54.84714933, -10.235117715 ], [ -54.84733443, -10.235117715 ], [ -54.84733443, -10.234934428 ], [ -54.84751953, -10.234934428 ], [ -54.847591553, -10.234934428 ], [ -54.84751953, -10.23480875 ], [ -54.847486516, -10.234751142 ], [ -54.847381479, -10.234567856 ], [ -54.847362867, -10.234535379 ], [ -54.84733443, -10.234486292 ], [ -54.8472755, -10.23438457 ], [ -54.84714933, -10.234443863 ], [ -54.846964229, -10.23453085 ], [ -54.846885484, -10.234567856 ], [ -54.846779129, -10.234617837 ], [ -54.846594029, -10.234704824 ], [ -54.846495468, -10.234751142 ], [ -54.846408929, -10.234791811 ], [ -54.846223829, -10.234878798 ], [ -54.846105452, -10.234934428 ], [ -54.846038729, -10.234965785 ], [ -54.846038729, -10.235117715 ], [ -54.846038729, -10.235301001 ], [ -54.846038729, -10.235484287 ], [ -54.846038729, -10.235667573 ], [ -54.846038729, -10.235850859 ], [ -54.846038729, -10.236034145 ], [ -54.846038729, -10.236217431 ], [ -54.846038729, -10.236400717 ], [ -54.846038729, -10.236584003 ], [ -54.846038729, -10.23676729 ], [ -54.846038729, -10.236950576 ], [ -54.846038729, -10.237133862 ], [ -54.846223829, -10.237133862 ], [ -54.846223829, -10.237317148 ], [ -54.846223829, -10.237500434 ], [ -54.846223829, -10.237511621 ], [ -54.846248611, -10.237500434 ], [ -54.846408929, -10.237428066 ], [ -54.846594029, -10.237344511 ], [ -54.846654647, -10.237317148 ], [ -54.846779129, -10.237260956 ], [ -54.846964229, -10.237177401 ], [ -54.847060683, -10.237133862 ], [ -54.846964229, -10.237133862 ], [ -54.846964229, -10.236950576 ] ] ], [ [ [ -54.843342835, -10.239974719 ], [ -54.843413461, -10.239883153 ], [ -54.843447326, -10.239839248 ], [ -54.843535214, -10.239725303 ], [ -54.843552748, -10.239699867 ], [ -54.843570262, -10.23967446 ], [ -54.843604481, -10.239602581 ], [ -54.843632264, -10.239516581 ], [ -54.843632426, -10.239516078 ], [ -54.843667017, -10.239409003 ], [ -54.843686724, -10.239333295 ], [ -54.843632426, -10.239333295 ], [ -54.843632426, -10.239150009 ], [ -54.843447326, -10.239150009 ], [ -54.843262226, -10.239150009 ], [ -54.843262226, -10.238966723 ], [ -54.843077126, -10.238966723 ], [ -54.843077126, -10.238783437 ], [ -54.842892026, -10.238783437 ], [ -54.842892026, -10.238600151 ], [ -54.842706925, -10.238600151 ], [ -54.842706925, -10.238416865 ], [ -54.842521825, -10.238416865 ], [ -54.842521825, -10.238233578 ], [ -54.842336725, -10.238233578 ], [ -54.842336725, -10.238050292 ], [ -54.842151625, -10.238050292 ], [ -54.842151625, -10.237867006 ], [ -54.841966525, -10.237867006 ], [ -54.841966525, -10.23768372 ], [ -54.841781424, -10.23768372 ], [ -54.841781424, -10.237500434 ], [ -54.841596324, -10.237500434 ], [ -54.841411224, -10.237500434 ], [ -54.841411224, -10.237317148 ], [ -54.841226124, -10.237317148 ], [ -54.841041024, -10.237317148 ], [ -54.841041024, -10.237314432 ], [ -54.841035244, -10.237317148 ], [ -54.840855924, -10.237401419 ], [ -54.840670823, -10.237488406 ], [ -54.840645228, -10.237500434 ], [ -54.840485723, -10.237575392 ], [ -54.840300623, -10.237662379 ], [ -54.840255212, -10.23768372 ], [ -54.840115523, -10.237749366 ], [ -54.839930423, -10.237836353 ], [ -54.839865196, -10.237867006 ], [ -54.839745323, -10.23792334 ], [ -54.839560222, -10.238010327 ], [ -54.83947518, -10.238050292 ], [ -54.839375122, -10.238097314 ], [ -54.839190022, -10.238184301 ], [ -54.839085164, -10.238233578 ], [ -54.839004922, -10.238271288 ], [ -54.838819822, -10.238358275 ], [ -54.838695148, -10.238416865 ], [ -54.838634721, -10.238445262 ], [ -54.838634721, -10.238600151 ], [ -54.838819822, -10.238600151 ], [ -54.839004922, -10.238600151 ], [ -54.839190022, -10.238600151 ], [ -54.839375122, -10.238600151 ], [ -54.839560222, -10.238600151 ], [ -54.839745323, -10.238600151 ], [ -54.839745323, -10.238416865 ], [ -54.839930423, -10.238416865 ], [ -54.840115523, -10.238416865 ], [ -54.840115523, -10.238233578 ], [ -54.840300623, -10.238233578 ], [ -54.840485723, -10.238233578 ], [ -54.840670823, -10.238233578 ], [ -54.840855924, -10.238233578 ], [ -54.841041024, -10.238233578 ], [ -54.841226124, -10.238233578 ], [ -54.841411224, -10.238233578 ], [ -54.841596324, -10.238233578 ], [ -54.841596324, -10.238416865 ], [ -54.841781424, -10.238416865 ], [ -54.841781424, -10.238600151 ], [ -54.841966525, -10.238600151 ], [ -54.841966525, -10.238783437 ], [ -54.842151625, -10.238783437 ], [ -54.842151625, -10.238966723 ], [ -54.842151625, -10.239150009 ], [ -54.842336725, -10.239150009 ], [ -54.842336725, -10.239333295 ], [ -54.842336725, -10.239516581 ], [ -54.842521825, -10.239516581 ], [ -54.842521825, -10.239699867 ], [ -54.842521825, -10.239883153 ], [ -54.842706925, -10.239883153 ], [ -54.842706925, -10.24006644 ], [ -54.842706925, -10.240249726 ], [ -54.842706925, -10.240433012 ], [ -54.842892026, -10.240433012 ], [ -54.842892026, -10.240433892 ], [ -54.842894916, -10.240433012 ], [ -54.842953307, -10.240415225 ], [ -54.842981197, -10.240392604 ], [ -54.843077126, -10.240290018 ], [ -54.843103815, -10.240261476 ], [ -54.84311361, -10.240249726 ], [ -54.843262226, -10.240071427 ], [ -54.843266383, -10.24006644 ], [ -54.843342835, -10.239974719 ] ] ] ] } },
{ "type": "Feature", "properties": { "RX": 245.792, "DOSE": 245.792, "zone": 2.0, "fert_kg_ha": 245.792 }, "geometry": { "type": "MultiPolygon", "coordinates": [ [ [ [ -54.840328888, -10.241532728 ], [ -54.840300623, -10.241532728 ], [ -54.840300623, -10.241349442 ], [ -54.840115523, -10.241349442 ], [ -54.840115523, -10.241166156 ], [ -54.840115523, -10.24098287 ], [ -54.839930423, -10.24098287 ], [ -54.839930423, -10.240799584 ], [ -54.839745323, -10.240799584 ], [ -54.839745323, -10.240616298 ], [ -54.839745323, -10.240433012 ], [ -54.839560222, -10.240433012 ], [ -54.839560222, -10.240249726 ], [ -54.839560222, -10.24006644 ], [ -54.839560222, -10.239883153 ], [ -54.839375122, -10.239883153 ], [ -54.839375122, -10.239699867 ], [ -54.839190022, -10.239699867 ], [ -54.839190022, -10.239516581 ], [ -54.839004922, -10.239516581 ], [ -54.838819822, -10.239516581 ], [ -54.838634721, -10.239516581 ], [ -54.838634721, -10.239333295 ], [ -54.838449621, -10.239333295 ], [ -54.838264521, -10.239333295 ], [ -54.838079421, -10.239333295 ], [ -54.838079421, -10.239150009 ], [ -54.837894321, -10.239150009 ], [ -54.837894321, -10.238966723 ], [ -54.837709221, -10.238966723 ], [ -54.837709221, -10.238880196 ], [ -54.8375251, -10.238966723 ], [ -54.83752412, -10.238967183 ], [ -54.83733902, -10.23905417 ], [ -54.83715392, -10.239141157 ], [ -54.837135084, -10.239150009 ], [ -54.83696882, -10.239228144 ], [ -54.83696882, -10.239333295 ], [ -54.83715392, -10.239333295 ], [ -54.83715392, -10.239516581 ], [ -54.83733902, -10.239516581 ], [ -54.83733902, -10.239699867 ], [ -54.83752412, -10.239699867 ], [ -54.83752412, -10.239883153 ], [ -54.837709221, -10.239883153 ], [ -54.837709221, -10.24006644 ], [ -54.837894321, -10.24006644 ], [ -54.837894321, -10.240249726 ], [ -54.838079421, -10.240249726 ], [ -54.838264521, -10.240249726 ], [ -54.838264521, -10.240433012 ], [ -54.838449621, -10.240433012 ], [ -54.838449621, -10.240616298 ], [ -54.838634721, -10.240616298 ], [ -54.838634721, -10.240799584 ], [ -54.838819822, -10.240799584 ], [ -54.838819822, -10.24098287 ], [ -54.839004922, -10.24098287 ], [ -54.839004922, -10.241166156 ], [ -54.839004922, -10.241349442 ], [ -54.839190022, -10.241349442 ], [ -54.839190022, -10.241532728 ], [ -54.839375122, -10.241532728 ], [ -54.839375122, -10.241716015 ], [ -54.839560222, -10.241716015 ], [ -54.839560222, -10.241899301 ], [ -54.839560222, -10.242082587 ], [ -54.839745323, -10.242082587 ], [ -54.839745323, -10.242265873 ], [ -54.839909058, -10.242265873 ], [ -54.839930423, -10.242239482 ], [ -54.83993584, -10.24223279 ], [ -54.840039426, -10.242082587 ], [ -54.840115523, -10.241972245 ], [ -54.840165828, -10.241899301 ], [ -54.84029223, -10.241716015 ], [ -54.840300623, -10.241703844 ], [ -54.84031655, -10.24168075 ], [ -54.840328888, -10.241532728 ] ] ] ] } },
{ "type": "Feature", "properties": { "RX": 261.207, "DOSE": 261.207, "zone": 3.0, "fert_kg_ha": 261.207 }, "geometry": { "type": "MultiPolygon", "coordinates": [ [ [ [ -54.848445031, -10.236453661 ], [ -54.848433269, -10.236411216 ], [ -54.848427406, -10.236400717 ], [ -54.84832505, -10.236217431 ], [ -54.848259931, -10.236100825 ], [ -54.84825769, -10.236096813 ], [ -54.848221777, -10.236034145 ], [ -54.848116739, -10.235850859 ], [ -54.84807483, -10.235777729 ], [ -54.848011702, -10.235667573 ], [ -54.847906665, -10.235484287 ], [ -54.84788973, -10.235454736 ], [ -54.847801628, -10.235301001 ], [ -54.84770463, -10.235131743 ], [ -54.847696591, -10.235117715 ], [ -54.847591553, -10.234934428 ], [ -54.84751953, -10.234934428 ], [ -54.84733443, -10.234934428 ], [ -54.84733443, -10.235117715 ], [ -54.84714933, -10.235117715 ], [ -54.84714933, -10.235301001 ], [ -54.846964229, -10.235301001 ], [ -54.846964229, -10.235484287 ], [ -54.846964229, -10.235667573 ], [ -54.846779129, -10.235667573 ], [ -54.846779129, -10.235850859 ], [ -54.846779129, -10.236034145 ], [ -54.846779129, -10.236217431 ], [ -54.846779129, -10.236400717 ], [ -54.846779129, -10.236584003 ], [ -54.846779129, -10.23676729 ], [ -54.846964229, -10.23676729 ], [ -54.846964229, -10.236950576 ], [ -54.846964229, -10.237133862 ], [ -54.847060683, -10.237133862 ], [ -54.84714933, -10.237093846 ], [ -54.84733443, -10.237010291 ], [ -54.847466719, -10.236950576 ], [ -54.84751953, -10.236926737 ], [ -54.84770463, -10.236843182 ], [ -54.847872755, -10.23676729 ], [ -54.84788973, -10.236759627 ], [ -54.84807483, -10.236676072 ], [ -54.84816163, -10.23663689 ], [ -54.848259931, -10.236600483 ], [ -54.848304427, -10.236584003 ], [ -54.84841862, -10.23654171 ], [ -54.848445031, -10.236453661 ] ] ], [ [ [ -54.84235665, -10.24059697 ], [ -54.842521825, -10.240546657 ], [ -54.842706925, -10.240490275 ], [ -54.842892026, -10.240433892 ], [ -54.842892026, -10.240433012 ], [ -54.842706925, -10.240433012 ], [ -54.842706925, -10.240249726 ], [ -54.842706925, -10.24006644 ], [ -54.842706925, -10.239883153 ], [ -54.842521825, -10.239883153 ], [ -54.842521825, -10.239699867 ], [ -54.842521825, -10.239516581 ], [ -54.842336725, -10.239516581 ], [ -54.842336725, -10.239333295 ], [ -54.842336725, -10.239150009 ], [ -54.842151625, -10.239150009 ], [ -54.842151625, -10.238966723 ], [ -54.842151625, -10.238783437 ], [ -54.841966525, -10.238783437 ], [ -54.841966525, -10.238600151 ], [ -54.841781424, -10.238600151 ], [ -54.841781424, -10.238416865 ], [ -54.841596324, -10.238416865 ], [ -54.841596324, -10.238233578 ], [ -54.841411224, -10.238233578 ], [ -54.841226124, -10.238233578 ], [ -54.841041024, -10.238233578 ], [ -54.840855924, -10.238233578 ], [ -54.840670823, -10.238233578 ], [ -54.840485723, -10.238233578 ], [ -54.840300623, -10.238233578 ], [ -54.840115523, -10.238233578 ], [ -54.840115523, -10.238416865 ], [ -54.839930423, -10.238416865 ], [ -54.839745323, -10.238416865 ], [ -54.839745323, -10.238600151 ], [ -54.839560222, -10.238600151 ], [ -54.839375122, -10.238600151 ], [ -54.839190022, -10.238600151 ], [ -54.839004922, -10.238600151 ], [ -54.838819822, -10.238600151 ], [ -54.838634721, -10.238600151 ], [ -54.838634721, -10.238445262 ], [ -54.838449621, -10.238532249 ], [ -54.838305132, -10.238600151 ], [ -54.838264521, -10.238619235 ], [ -54.838079421, -10.238706222 ], [ -54.837915116, -10.238783437 ], [ -54.837894321, -10.238793209 ], [ -54.837709221, -10.238880196 ], [ -54.837709221, -10.238966723 ], [ -54.837894321, -10.238966723 ], [ -54.837894321, -10.239150009 ], [ -54.838079421, -10.239150009 ], [ -54.838079421, -10.239333295 ], [ -54.838264521, -10.239333295 ], [ -54.838449621, -10.239333295 ], [ -54.838634721, -10.239333295 ], [ -54.838634721, -10.239516581 ], [ -54.838819822, -10.239516581 ], [ -54.839004922, -10.239516581 ], [ -54.839190022, -10.239516581 ], [ -54.839190022, -10.239699867 ], [ -54.839375122, -10.239699867 ], [ -54.839375122, -10.239883153 ], [ -54.839560222, -10.239883153 ], [ -54.839560222, -10.24006644 ], [ -54.839560222, -10.240249726 ], [ -54.839560222, -10.240433012 ], [ -54.839745323, -10.240433012 ], [ -54.839745323, -10.240616298 ], [ -54.839745323, -10.240799584 ], [ -54.839930423, -10.240799584 ], [ -54.839930423, -10.24098287 ], [ -54.840115523, -10.24098287 ], [ -54.840115523, -10.241166156 ], [ -54.840115523, -10.241349442 ], [ -54.840300623, -10.241349442 ], [ -54.840300623, -10.241532728 ], [ -54.840328888, -10.241532728 ], [ -54.840344165, -10.241349442 ], [ -54.84034511, -10.24133811 ], [ -54.840485723, -10.241250557 ], [ -54.840621273, -10.241166156 ], [ -54.840670823, -10.241135304 ], [ -54.84084955, -10.24102402 ], [ -54.840855924, -10.241023473 ], [ -54.841041024, -10.24100761 ], [ -54.84118268, -10.24099547 ], [ -54.841206438, -10.24098287 ], [ -54.841226124, -10.240972431 ], [ -54.841411224, -10.240874269 ], [ -54.841552054, -10.240799584 ], [ -54.841596324, -10.240776107 ], [ -54.841781424, -10.240677945 ], [ -54.84181085, -10.24066234 ], [ -54.841966525, -10.240643695 ], [ -54.842151625, -10.240621526 ], [ -54.842195276, -10.240616298 ], [ -54.842336725, -10.240599357 ], [ -54.84235665, -10.24059697 ] ] ] ] } },
{ "type": "Feature", "properties": { "RX": 233.177, "DOSE": 233.177, "zone": 1.0, "fert_kg_ha": 233.177 }, "geometry": { "type": "MultiPolygon", "coordinates": [ [ [ [ -54.839720328, -10.243548876 ], [ -54.839721237, -10.243509967 ], [ -54.839712886, -10.243451812 ], [ -54.839675531, -10.24336559 ], [ -54.839672404, -10.243358372 ], [ -54.839567213, -10.24318834 ], [ -54.839562829, -10.243182303 ], [ -54.839560222, -10.243178715 ], [ -54.839539749, -10.243150527 ], [ -54.839448584, -10.242999017 ], [ -54.839387894, -10.242898155 ], [ -54.839375122, -10.242868888 ], [ -54.839372856, -10.242863695 ], [ -54.839370717, -10.242833944 ], [ -54.839374912, -10.242815731 ], [ -54.839375122, -10.24281482 ], [ -54.839377744, -10.242803439 ], [ -54.839401118, -10.242764208 ], [ -54.839468246, -10.242737357 ], [ -54.839514116, -10.242753739 ], [ -54.839560222, -10.242696785 ], [ -54.839612307, -10.242632445 ], [ -54.839745323, -10.242468133 ], [ -54.839760683, -10.242449159 ], [ -54.839909058, -10.242265873 ], [ -54.839745323, -10.242265873 ], [ -54.839745323, -10.242082587 ], [ -54.839560222, -10.242082587 ], [ -54.839560222, -10.241899301 ], [ -54.839560222, -10.241716015 ], [ -54.839375122, -10.241716015 ], [ -54.839375122, -10.241532728 ], [ -54.839190022, -10.241532728 ], [ -54.839190022, -10.241349442 ], [ -54.839004922, -10.241349442 ], [ -54.839004922, -10.241166156 ], [ -54.839004922, -10.24098287 ], [ -54.838819822, -10.24098287 ], [ -54.838819822, -10.240799584 ], [ -54.838634721, -10.240799584 ], [ -54.838634721, -10.240616298 ], [ -54.838449621, -10.240616298 ], [ -54.838449621, -10.240433012 ], [ -54.838264521, -10.240433012 ], [ -54.838264521, -10.240249726 ], [ -54.838079421, -10.240249726 ], [ -54.837894321, -10.240249726 ], [ -54.837894321, -10.24006644 ], [ -54.837709221, -10.24006644 ], [ -54.837709221, -10.239883153 ], [ -54.83752412, -10.239883153 ], [ -54.83752412, -10.239699867 ], [ -54.83733902, -10.239699867 ], [ -54.83733902, -10.239516581 ], [ -54.83715392, -10.239516581 ], [ -54.83715392, -10.239333295 ], [ -54.83696882, -10.239333295 ], [ -54.83696882, -10.239228144 ], [ -54.83678372, -10.239315131 ], [ -54.836745068, -10.239333295 ], [ -54.83659862, -10.239402118 ], [ -54.836413519, -10.239489105 ], [ -54.836355052, -10.239516581 ], [ -54.836228419, -10.239576092 ], [ -54.836043319, -10.239663079 ], [ -54.835965036, -10.239699867 ], [ -54.835858219, -10.239750065 ], [ -54.835673119, -10.239837052 ], [ -54.83557502, -10.239883153 ], [ -54.835488018, -10.239924039 ], [ -54.835302918, -10.240011026 ], [ -54.835185004, -10.24006644 ], [ -54.835117818, -10.240098013 ], [ -54.834932718, -10.240185 ], [ -54.834794988, -10.240249726 ], [ -54.834747618, -10.240271987 ], [ -54.834562518, -10.240358974 ], [ -54.834404972, -10.240433012 ], [ -54.834377417, -10.240445961 ], [ -54.834537775, -10.240562641 ], [ -54.834562518, -10.240580206 ], [ -54.834613358, -10.240616298 ], [ -54.834747618, -10.240711608 ], [ -54.834871545, -10.240799584 ], [ -54.834932718, -10.24084301 ], [ -54.835117818, -10.240974412 ], [ -54.835129733, -10.24098287 ], [ -54.835302918, -10.241105814 ], [ -54.83538792, -10.241166156 ], [ -54.835488018, -10.241237216 ], [ -54.835646107, -10.241349442 ], [ -54.835673119, -10.241368617 ], [ -54.835858219, -10.241500019 ], [ -54.835904295, -10.241532728 ], [ -54.836043319, -10.241631421 ], [ -54.836162482, -10.241716015 ], [ -54.836228419, -10.241762823 ], [ -54.836413519, -10.241894225 ], [ -54.83642067, -10.241899301 ], [ -54.83659862, -10.242025627 ], [ -54.836678857, -10.242082587 ], [ -54.83678372, -10.242157028 ], [ -54.836937044, -10.242265873 ], [ -54.83696882, -10.24228843 ], [ -54.83715392, -10.242419832 ], [ -54.837195232, -10.242449159 ], [ -54.83733902, -10.242551234 ], [ -54.837453419, -10.242632445 ], [ -54.83752412, -10.242682636 ], [ -54.837709221, -10.242814038 ], [ -54.837711606, -10.242815731 ], [ -54.837894321, -10.242945439 ], [ -54.837969794, -10.242999017 ], [ -54.838079421, -10.243076841 ], [ -54.838227981, -10.243182303 ], [ -54.838264521, -10.243208243 ], [ -54.838449621, -10.243339645 ], [ -54.838486168, -10.24336559 ], [ -54.838634721, -10.243471047 ], [ -54.838744356, -10.243548876 ], [ -54.838819822, -10.243602449 ], [ -54.839002543, -10.243732162 ], [ -54.839004922, -10.24373385 ], [ -54.839166171, -10.243848321 ], [ -54.839190022, -10.243857861 ], [ -54.839300427, -10.243902023 ], [ -54.839375122, -10.243908518 ], [ -54.83945482, -10.243915448 ], [ -54.839560222, -10.243869141 ], [ -54.839594633, -10.243854023 ], [ -54.839676841, -10.243769149 ], [ -54.83968579, -10.243732162 ], [ -54.839703781, -10.243657802 ], [ -54.839719719, -10.243574949 ], [ -54.839720328, -10.243548876 ] ] ] ] } },
{ "type": "Feature", "properties": { "RX": 291.142, "DOSE": 291.142, "zone": 5.0, "fert_kg_ha": 291.142 }, "geometry": { "type": "MultiPolygon", "coordinates": [ [ [ [ -54.846223829, -10.237317148 ], [ -54.846223829, -10.237133862 ], [ -54.846038729, -10.237133862 ], [ -54.846038729, -10.236950576 ], [ -54.846038729, -10.23676729 ], [ -54.846038729, -10.236584003 ], [ -54.846038729, -10.236400717 ], [ -54.846038729, -10.236217431 ], [ -54.846038729, -10.236034145 ], [ -54.846038729, -10.235850859 ], [ -54.846038729, -10.235667573 ], [ -54.846038729, -10.235484287 ], [ -54.846038729, -10.235301001 ], [ -54.846038729, -10.235117715 ], [ -54.846038729, -10.234965785 ], [ -54.845853628, -10.235052772 ], [ -54.845715436, -10.235117715 ], [ -54.845668528, -10.235139759 ], [ -54.845483428, -10.235226746 ], [ -54.84532542, -10.235301001 ], [ -54.845298328, -10.235313733 ], [ -54.845113228, -10.235400719 ], [ -54.844935404, -10.235484287 ], [ -54.844928127, -10.235487706 ], [ -54.844743027, -10.235574693 ], [ -54.844557927, -10.23566168 ], [ -54.844545388, -10.235667573 ], [ -54.844372827, -10.235748667 ], [ -54.844187727, -10.235835654 ], [ -54.844155372, -10.235850859 ], [ -54.844002627, -10.235922641 ], [ -54.843817526, -10.236009628 ], [ -54.843765356, -10.236034145 ], [ -54.843632426, -10.236096615 ], [ -54.843447326, -10.236183602 ], [ -54.84337534, -10.236217431 ], [ -54.843262226, -10.236270589 ], [ -54.843077126, -10.236357576 ], [ -54.842985324, -10.236400717 ], [ -54.842892026, -10.236444563 ], [ -54.842706925, -10.236531549 ], [ -54.842595308, -10.236584003 ], [ -54.842521825, -10.236618536 ], [ -54.842336725, -10.236705523 ], [ -54.842205292, -10.23676729 ], [ -54.842151625, -10.23679251 ], [ -54.841966525, -10.236879497 ], [ -54.841815276, -10.236950576 ], [ -54.841781424, -10.236966484 ], [ -54.841596324, -10.237053471 ], [ -54.84142526, -10.237133862 ], [ -54.841411224, -10.237140458 ], [ -54.841226124, -10.237227445 ], [ -54.841041024, -10.237314432 ], [ -54.841041024, -10.237317148 ], [ -54.841226124, -10.237317148 ], [ -54.841411224, -10.237317148 ], [ -54.841411224, -10.237500434 ], [ -54.841596324, -10.237500434 ], [ -54.841781424, -10.237500434 ], [ -54.841781424, -10.23768372 ], [ -54.841966525, -10.23768372 ], [ -54.841966525, -10.237867006 ], [ -54.842151625, -10.237867006 ], [ -54.842151625, -10.238050292 ], [ -54.842336725, -10.238050292 ], [ -54.842336725, -10.238233578 ], [ -54.842521825, -10.238233578 ], [ -54.842521825, -10.238416865 ], [ -54.842706925, -10.238416865 ], [ -54.842706925, -10.238600151 ], [ -54.842892026, -10.238600151 ], [ -54.842892026, -10.238783437 ], [ -54.843077126, -10.238783437 ], [ -54.843077126, -10.238966723 ], [ -54.843262226, -10.238966723 ], [ -54.843262226, -10.239150009 ], [ -54.843447326, -10.239150009 ], [ -54.843632426, -10.239150009 ], [ -54.843632426, -10.239333295 ], [ -54.843686724, -10.239333295 ], [ -54.84369854, -10.239287899 ], [ -54.843728313, -10.239150009 ], [ -54.843742174, -10.239085814 ], [ -54.84375048, -10.238966723 ], [ -54.843751004, -10.238959206 ], [ -54.843748955, -10.238921738 ], [ -54.843741469, -10.238872804 ], [ -54.843726363, -10.238824103 ], [ -54.843705596, -10.238783437 ], [ -54.843632426, -10.238640151 ], [ -54.843612, -10.238600151 ], [ -54.843605666, -10.238587748 ], [ -54.843583364, -10.238537177 ], [ -54.843578607, -10.238505347 ], [ -54.843580785, -10.238484453 ], [ -54.843596885, -10.23844191 ], [ -54.843627563, -10.238416865 ], [ -54.843632426, -10.238412895 ], [ -54.843664481, -10.238386725 ], [ -54.843720987, -10.238352421 ], [ -54.843817526, -10.238304203 ], [ -54.84387381, -10.238276091 ], [ -54.843974405, -10.238233578 ], [ -54.843991236, -10.238226465 ], [ -54.844002627, -10.238219925 ], [ -54.844117173, -10.238154149 ], [ -54.844187727, -10.238108034 ], [ -54.844208478, -10.238094471 ], [ -54.844261422, -10.238050292 ], [ -54.844283896, -10.238031539 ], [ -54.844314016, -10.237998312 ], [ -54.844319694, -10.237988574 ], [ -54.84426884, -10.23793132 ], [ -54.844357268, -10.237867006 ], [ -54.844372827, -10.23785569 ], [ -54.84447823, -10.23777903 ], [ -54.844557927, -10.237750339 ], [ -54.844742981, -10.23768372 ], [ -54.844743027, -10.237683703 ], [ -54.844928127, -10.237617067 ], [ -54.84495412, -10.23760771 ], [ -54.845113228, -10.237612215 ], [ -54.845290208, -10.237617227 ], [ -54.845298328, -10.237616193 ], [ -54.845389914, -10.237604529 ], [ -54.845483428, -10.23760414 ], [ -54.845668528, -10.23760337 ], [ -54.845849705, -10.237602615 ], [ -54.845853628, -10.237602353 ], [ -54.845963129, -10.237595032 ], [ -54.846038729, -10.237586478 ], [ -54.846064444, -10.237583568 ], [ -54.846223829, -10.237511621 ], [ -54.846223829, -10.237500434 ], [ -54.846223829, -10.237317148 ] ] ] ] } },
{ "type": "Feature", "properties": { "RX": 300.0, "DOSE": 300.0, "zone": 6.0, "fert_kg_ha": 300.0 }, "geometry": { "type": "MultiPolygon", "coordinates": [ [ [ [ -54.847275499717902, -10.234384569967128 ], [ -54.847232422902771, -10.234314929367159 ], [ -54.847143640049389, -10.23419871448777 ], [ -54.847027503323922, -10.234033497100389 ], [ -54.846853063773956, -10.233677115224111 ], [ -54.846828054519484, -10.233597710841151 ], [ -54.846821176974501, -10.233555820339905 ], [ -54.846822427437225, -10.233498924285973 ], [ -54.846854314236673, -10.233381380789936 ], [ -54.846876822565697, -10.233294161014953 ], [ -54.846951225097783, -10.232953409922724 ], [ -54.846952788176203, -10.232788974074547 ], [ -54.846921213992424, -10.232650485327886 ], [ -54.84691214813769, -10.23258233510944 ], [ -54.846912773369048, -10.232461040225234 ], [ -54.846924027533561, -10.232193441202345 ], [ -54.846900268741805, -10.231989615778369 ], [ -54.846903707514286, -10.23196054252004 ], [ -54.846909021980885, -10.231946474814398 ], [ -54.846902769667267, -10.231859567655096 ], [ -54.847256650618121, -10.231496308233837 ], [ -54.847384197815948, -10.231430033709476 ], [ -54.847457975116654, -10.231366260110562 ], [ -54.847595526016271, -10.231292482809859 ], [ -54.84773057599044, -10.231229959673671 ], [ -54.847789972969807, -10.231189944866509 ], [ -54.847853121337351, -10.231098035856311 ], [ -54.848012555334648, -10.230842316229298 ], [ -54.848150731465637, -10.230622234789914 ], [ -54.84816010993606, -10.230596600304077 ], [ -54.848170113637856, -10.230507817450688 ], [ -54.848172614563303, -10.230475930651233 ], [ -54.848161360398784, -10.230446544777223 ], [ -54.848141352995206, -10.230422785985471 ], [ -54.848102588650768, -10.230392149648736 ], [ -54.84806507476906, -10.230360888080643 ], [ -54.847958160206176, -10.230301491101264 ], [ -54.847882507211388, -10.230290236936749 ], [ -54.847844993329673, -10.230289611705388 ], [ -54.847796225283446, -10.230298364944455 ], [ -54.847729950759089, -10.230324624661653 ], [ -54.847556761671846, -10.230389648723289 ], [ -54.847329802687476, -10.230482808196211 ], [ -54.847260402006306, -10.230510943607495 ], [ -54.847192877019225, -10.230530325779714 ], [ -54.847051574731431, -10.230552208877379 ], [ -54.846805858806199, -10.23070476532968 ], [ -54.846627667868063, -10.230802301422136 ], [ -54.846311926030296, -10.231030510869225 ], [ -54.84626815983497, -10.23106177243732 ], [ -54.846145614488051, -10.231188694403782 ], [ -54.845943039526801, -10.231317492064331 ], [ -54.845777978447266, -10.231433785097643 ], [ -54.845680129739137, -10.231540074429162 ], [ -54.845624796763637, -10.231641361909787 ], [ -54.845542266223859, -10.231743274621776 ], [ -54.845526322824135, -10.231920996636394 ], [ -54.845542578839563, -10.231965231755249 ], [ -54.845613073675608, -10.232067769698599 ], [ -54.845649649710282, -10.232151081777571 ], [ -54.845654338945494, -10.232201100286522 ], [ -54.845649962325957, -10.232241427709367 ], [ -54.84564089647121, -10.23226581173248 ], [ -54.845586501342744, -10.23235271889178 ], [ -54.845565243476443, -10.232424933114078 ], [ -54.845566493939181, -10.232486205787543 ], [ -54.845581499491864, -10.232532472908323 ], [ -54.845604633052254, -10.232570612021398 ], [ -54.845686850976342, -10.232657831796383 ], [ -54.845725302705098, -10.232687530286073 ], [ -54.845760628277048, -10.232733328483331 ], [ -54.845776806138545, -10.232787723611816 ], [ -54.845776493522862, -10.232811716865328 ], [ -54.845768639053858, -10.232852122442088 ], [ -54.845747068571868, -10.232907885264176 ], [ -54.845614832138835, -10.233144535334651 ], [ -54.845579506566892, -10.233196116922008 ], [ -54.845537616065648, -10.233232692956676 ], [ -54.845476343392178, -10.233271457301115 ], [ -54.844903318849028, -10.233547809563071 ], [ -54.844626966587072, -10.23368661092541 ], [ -54.844336859235156, -10.233784147017865 ], [ -54.844068009749549, -10.233822286130939 ], [ -54.844057068200712, -10.233820996591255 ], [ -54.843657701668327, -10.233834087372895 ], [ -54.843320701964274, -10.233859409243053 ], [ -54.843127192857771, -10.233859721858733 ], [ -54.843063419258861, -10.233853469545116 ], [ -54.843029344149642, -10.233843465843325 ], [ -54.842780502067612, -10.233690596775343 ], [ -54.842692344445581, -10.233642141344797 ], [ -54.842641388089589, -10.233623071788259 ], [ -54.842468511618044, -10.233591810220165 ], [ -54.842380353996013, -10.233559298189348 ], [ -54.842133387608072, -10.233414244513391 ], [ -54.841879543675141, -10.233217921865757 ], [ -54.841847031644321, -10.233192912611281 ], [ -54.841690723803865, -10.233123511930113 ], [ -54.841608818495452, -10.233099753138362 ], [ -54.84146251435677, -10.233068491570268 ], [ -54.841383735205177, -10.233070367264354 ], [ -54.841329965308056, -10.233085372817039 ], [ -54.840846036233948, -10.233254185284748 ], [ -54.840730993663364, -10.233289198241014 ], [ -54.840552177493862, -10.233327962585452 ], [ -54.840460893715026, -10.233329213048176 ], [ -54.840314589576344, -10.233282320696032 ], [ -54.840203923625289, -10.233257311441557 ], [ -54.840128270630501, -10.233254185284748 ], [ -54.840067623188396, -10.233265439449262 ], [ -54.839945703072829, -10.233306079487784 ], [ -54.839721245013912, -10.233401114654793 ], [ -54.839627460309629, -10.233436752842421 ], [ -54.839546805463947, -10.233476142418221 ], [ -54.839466150618264, -10.233511780605848 ], [ -54.83942300965429, -10.23352928708398 ], [ -54.839357985592649, -10.23355929818935 ], [ -54.83931672032277, -10.233579305592931 ], [ -54.839279206441056, -10.233606815772854 ], [ -54.839249195335682, -10.233644329654568 ], [ -54.839226687006658, -10.233687470618538 ], [ -54.839187297430868, -10.233785006710994 ], [ -54.839139779847365, -10.233824396286792 ], [ -54.839097264114756, -10.233856908317611 ], [ -54.838999728022316, -10.23394006408874 ], [ -54.838937204886122, -10.23400258722493 ], [ -54.838889687302618, -10.234053856196605 ], [ -54.838800904449236, -10.234193908021668 ], [ -54.838739631775766, -10.234291444114122 ], [ -54.838687112341368, -10.234388980206576 ], [ -54.838652099385101, -10.234532783419811 ], [ -54.83861958735428, -10.234710349126587 ], [ -54.838582073472566, -10.234776623650948 ], [ -54.83830572121061, -10.235001706941228 ], [ -54.83824569899987, -10.235044222673837 ], [ -54.837966845812467, -10.235169268946214 ], [ -54.837815539822884, -10.235263053650499 ], [ -54.837595458383497, -10.235420611953694 ], [ -54.837135288101138, -10.235565665629652 ], [ -54.836661362728833, -10.235740730410981 ], [ -54.836418772960421, -10.235887034549664 ], [ -54.836266216508115, -10.236012080822043 ], [ -54.836183685968351, -10.23610711598905 ], [ -54.835866068436523, -10.236169639125238 ], [ -54.835640985146242, -10.236219657634189 ], [ -54.835545949979235, -10.236227160410531 ], [ -54.835379638436976, -10.236213405320569 ], [ -54.835297107897205, -10.236224659485083 ], [ -54.835209575506539, -10.236240915500494 ], [ -54.834671876535303, -10.236290934009443 ], [ -54.833651498952719, -10.236318444189365 ], [ -54.833311373091853, -10.236188396066092 ], [ -54.833137021465085, -10.236006522124468 ], [ -54.833043861992181, -10.23591523834563 ], [ -54.833027293361084, -10.235907579261447 ], [ -54.832496071395944, -10.235968314626708 ], [ -54.831915856692113, -10.235998325732078 ], [ -54.831596920312919, -10.236016682134098 ], [ -54.831548152266691, -10.236016056902736 ], [ -54.830974189876486, -10.236056071709895 ], [ -54.830498076194409, -10.236075453882112 ], [ -54.830424924125069, -10.236088583740711 ], [ -54.830418114964708, -10.236130874780802 ], [ -54.829854400507337, -10.237232444517288 ], [ -54.834376454716839, -10.240445987178802 ], [ -54.847275499717902, -10.234384569967128 ] ] ] ] } }
]
}
