{
"type": "FeatureCollection",
"name": "503_UREIA",
"crs": { "type": "name", "properties": { "name": "urn:ogc:def:crs:OGC:1.3:CRS84" } },
"features": [
{ "type": "Feature", "properties": { "RX": 58.678, "DOSE": 58.678, "zone": 4.0, "fert_kg_ha": 58.678, "DOSAGEM": 58, "area ha": 10.46 }, "geometry": { "type": "MultiPolygon", "coordinates": [ [ [ [ -54.846964229, -10.236034145 ], [ -54.84714933, -10.236034145 ], [ -54.84714933, -10.235850859 ], [ -54.84733443, -10.235850859 ], [ -54.84751953, -10.235850859 ], [ -54.84751953, -10.235667573 ], [ -54.84770463, -10.235667573 ], [ -54.84788973, -10.235667573 ], [ -54.848011702, -10.235667573 ], [ -54.847906665, -10.235484287 ], [ -54.84788973, -10.235454736 ], [ -54.847801628, -10.235301001 ], [ -54.84770463, -10.235301001 ], [ -54.84751953, -10.235301001 ], [ -54.84751953, -10.235484287 ], [ -54.84733443, -10.235484287 ], [ -54.84714933, -10.235484287 ], [ -54.84714933, -10.235667573 ], [ -54.846964229, -10.235667573 ], [ -54.846779129, -10.235667573 ], [ -54.846779129, -10.235850859 ], [ -54.846594029, -10.235850859 ], [ -54.846594029, -10.236034145 ], [ -54.846408929, -10.236034145 ], [ -54.846408929, -10.236217431 ], [ -54.846223829, -10.236217431 ], [ -54.846038729, -10.236217431 ], [ -54.846038729, -10.236400717 ], [ -54.845853628, -10.236400717 ], [ -54.845668528, -10.236400717 ], [ -54.845483428, -10.236400717 ], [ -54.845298328, -10.236400717 ], [ -54.845298328, -10.236584003 ], [ -54.845113228, -10.236584003 ], [ -54.844928127, -10.236584003 ], [ -54.844743027, -10.236584003 ], [ -54.844557927, -10.236584003 ], [ -54.844372827, -10.236584003 ], [ -54.844187727, -10.236584003 ], [ -54.844187727, -10.23676729 ], [ -54.844002627, -10.23676729 ], [ -54.844002627, -10.236950576 ], [ -54.844002627, -10.237133862 ], [ -54.844002627, -10.237317148 ], [ -54.844002627, -10.237500434 ], [ -54.844002627, -10.23768372 ], [ -54.844187727, -10.23768372 ], [ -54.844187727, -10.237867006 ], [ -54.844187727, -10.238050292 ], [ -54.844187727, -10.238108034 ], [ -54.844208478, -10.238094471 ], [ -54.844261422, -10.238050292 ], [ -54.844283896, -10.238031539 ], [ -54.844314016, -10.237998312 ], [ -54.844319694, -10.237988574 ], [ -54.84426884, -10.23793132 ], [ -54.844357268, -10.237867006 ], [ -54.844372827, -10.23785569 ], [ -54.84447823, -10.23777903 ], [ -54.844557927, -10.237750339 ], [ -54.844557927, -10.23768372 ], [ -54.844557927, -10.237500434 ], [ -54.844557927, -10.237317148 ], [ -54.844557927, -10.237133862 ], [ -54.844557927, -10.236950576 ], [ -54.844743027, -10.236950576 ], [ -54.844928127, -10.236950576 ], [ -54.844928127, -10.23676729 ], [ -54.845113228, -10.23676729 ], [ -54.845298328, -10.23676729 ], [ -54.845483428, -10.23676729 ], [ -54.845668528, -10.23676729 ], [ -54.845853628, -10.23676729 ], [ -54.845853628, -10.236584003 ], [ -54.846038729, -10.236584003 ], [ -54.846223829, -10.236584003 ], [ -54.846408929, -10.236584003 ], [ -54.846408929, -10.236400717 ], [ -54.846594029, -10.236400717 ], [ -54.846594029, -10.236217431 ], [ -54.846779129, -10.236217431 ], [ -54.846779129, -10.236034145 ], [ -54.846964229, -10.236034145 ] ] ], [ [ [ -54.841596324, -10.239150009 ], [ -54.841596324, -10.238966723 ], [ -54.841596324, -10.238783437 ], [ -54.841596324, -10.238600151 ], [ -54.841596324, -10.238416865 ], [ -54.841596324, -10.238233578 ], [ -54.841411224, -10.238233578 ], [ -54.841411224, -10.238050292 ], [ -54.841226124, -10.238050292 ], [ -54.841041024, -10.238050292 ], [ -54.840855924, -10.238050292 ], [ -54.840670823, -10.238050292 ], [ -54.840485723, -10.238050292 ], [ -54.840485723, -10.238233578 ], [ -54.840300623, -10.238233578 ], [ -54.840300623, -10.238416865 ], [ -54.840115523, -10.238416865 ], [ -54.839930423, -10.238416865 ], [ -54.839745323, -10.238416865 ], [ -54.839560222, -10.238416865 ], [ -54.839375122, -10.238416865 ], [ -54.839375122, -10.238233578 ], [ -54.839375122, -10.238097314 ], [ -54.839190022, -10.238184301 ], [ -54.839085164, -10.238233578 ], [ -54.839004922, -10.238271288 ], [ -54.838819822, -10.238358275 ], [ -54.838695148, -10.238416865 ], [ -54.838634721, -10.238445262 ], [ -54.838634721, -10.238600151 ], [ -54.838819822, -10.238600151 ], [ -54.838819822, -10.238783437 ], [ -54.839004922, -10.238783437 ], [ -54.839004922, -10.238966723 ], [ -54.839190022, -10.238966723 ], [ -54.839190022, -10.239150009 ], [ -54.839375122, -10.239150009 ], [ -54.839375122, -10.239333295 ], [ -54.839560222, -10.239333295 ], [ -54.839745323, -10.239333295 ], [ -54.839745323, -10.239516581 ], [ -54.839930423, -10.239516581 ], [ -54.840115523, -10.239516581 ], [ -54.840115523, -10.239699867 ], [ -54.840115523, -10.239883153 ], [ -54.839930423, -10.239883153 ], [ -54.839745323, -10.239883153 ], [ -54.839745323, -10.24006644 ], [ -54.839560222, -10.24006644 ], [ -54.839375122, -10.24006644 ], [ -54.839375122, -10.240249726 ], [ -54.839190022, -10.240249726 ], [ -54.839004922, -10.240249726 ], [ -54.839004922, -10.240433012 ], [ -54.838819822, -10.240433012 ], [ -54.838819822, -10.240616298 ], [ -54.838634721, -10.240616298 ], [ -54.838634721, -10.240799584 ], [ -54.838449621, -10.240799584 ], [ -54.838449621, -10.24098287 ], [ -54.838449621, -10.241166156 ], [ -54.838264521, -10.241166156 ], [ -54.838264521, -10.241349442 ], [ -54.838264521, -10.241532728 ], [ -54.838079421, -10.241532728 ], [ -54.838079421, -10.241716015 ], [ -54.838079421, -10.241899301 ], [ -54.837894321, -10.241899301 ], [ -54.837894321, -10.242082587 ], [ -54.837894321, -10.242265873 ], [ -54.837709221, -10.242265873 ], [ -54.837709221, -10.242449159 ], [ -54.837709221, -10.242632445 ], [ -54.83752412, -10.242632445 ], [ -54.83752412, -10.242682636 ], [ -54.837709221, -10.242814038 ], [ -54.837711606, -10.242815731 ], [ -54.837894321, -10.242945439 ], [ -54.837894321, -10.242815731 ], [ -54.838079421, -10.242815731 ], [ -54.838079421, -10.242632445 ], [ -54.838079421, -10.242449159 ], [ -54.838264521, -10.242449159 ], [ -54.838264521, -10.242265873 ], [ -54.838264521, -10.242082587 ], [ -54.838449621, -10.242082587 ], [ -54.838449621, -10.241899301 ], [ -54.838449621, -10.241716015 ], [ -54.838634721, -10.241716015 ], [ -54.838634721, -10.241532728 ], [ -54.838819822, -10.241532728 ], [ -54.838819822, -10.241349442 ], [ -54.838819822, -10.241166156 ], [ -54.839004922, -10.241166156 ], [ -54.839004922, -10.24098287 ], [ -54.839190022, -10.24098287 ], [ -54.839190022, -10.240799584 ], [ -54.839375122, -10.240799584 ], [ -54.839560222, -10.240799584 ], [ -54.839745323, -10.240799584 ], [ -54.839930423, -10.240799584 ], [ -54.840115523, -10.240799584 ], [ -54.840115523, -10.240616298 ], [ -54.840300623, -10.240616298 ], [ -54.840485723, -10.240616298 ], [ -54.840670823, -10.240616298 ], [ -54.840670823, -10.240433012 ], [ -54.840855924, -10.240433012 ], [ -54.840855924, -10.240249726 ], [ -54.841041024, -10.240249726 ], [ -54.841041024, -10.24006644 ], [ -54.841041024, -10.239883153 ], [ -54.841226124, -10.239883153 ], [ -54.841226124, -10.239699867 ], [ -54.841226124, -10.239516581 ], [ -54.841411224, -10.239516581 ], [ -54.841411224, -10.239333295 ], [ -54.841411224, -10.239150009 ], [ -54.841596324, -10.239150009 ] ] ], [ [ [ -54.835673119, -10.240249726 ], [ -54.835673119, -10.24006644 ], [ -54.835858219, -10.24006644 ], [ -54.835858219, -10.239883153 ], [ -54.835858219, -10.239750065 ], [ -54.835673119, -10.239837052 ], [ -54.83557502, -10.239883153 ], [ -54.835488018, -10.239924039 ], [ -54.835302918, -10.240011026 ], [ -54.835185004, -10.24006644 ], [ -54.835117818, -10.240098013 ], [ -54.834932718, -10.240185 ], [ -54.834794988, -10.240249726 ], [ -54.834747618, -10.240271987 ], [ -54.834562518, -10.240358974 ], [ -54.834404972, -10.240433012 ], [ -54.834377417, -10.240445961 ], [ -54.834537775, -10.240562641 ], [ -54.834562518, -10.240580206 ], [ -54.834613358, -10.240616298 ], [ -54.834747618, -10.240711608 ], [ -54.834871545, -10.240799584 ], [ -54.834932718, -10.24084301 ], [ -54.835117818, -10.240974412 ], [ -54.835117818, -10.240799584 ], [ -54.835302918, -10.240799584 ], [ -54.835302918, -10.240616298 ], [ -54.835488018, -10.240616298 ], [ -54.835488018, -10.240433012 ], [ -54.835673119, -10.240433012 ], [ -54.835673119, -10.240249726 ] ] ] ] } },
{ "type": "Feature", "properties": { "RX": 78.925, "DOSE": 78.925, "zone": 6.0, "fert_kg_ha": 78.925, "DOSAGEM": 78, "area ha": 8.48 }, "geometry": { "type": "MultiPolygon", "coordinates": [ [ [ [ -54.848259931, -10.236600483 ], [ -54.848304427, -10.236584003 ], [ -54.84841862, -10.23654171 ], [ -54.848445031, -10.236453661 ], [ -54.848433269, -10.236411216 ], [ -54.848427406, -10.236400717 ], [ -54.84832505, -10.236217431 ], [ -54.848259931, -10.236217431 ], [ -54.84807483, -10.236217431 ], [ -54.84788973, -10.236217431 ], [ -54.84770463, -10.236217431 ], [ -54.84751953, -10.236217431 ], [ -54.84733443, -10.236217431 ], [ -54.84714933, -10.236217431 ], [ -54.84714933, -10.236400717 ], [ -54.846964229, -10.236400717 ], [ -54.846964229, -10.236584003 ], [ -54.846779129, -10.236584003 ], [ -54.846779129, -10.23676729 ], [ -54.846594029, -10.23676729 ], [ -54.846408929, -10.23676729 ], [ -54.846408929, -10.236950576 ], [ -54.846223829, -10.236950576 ], [ -54.846038729, -10.236950576 ], [ -54.846038729, -10.237133862 ], [ -54.845853628, -10.237133862 ], [ -54.845668528, -10.237133862 ], [ -54.845668528, -10.237317148 ], [ -54.845483428, -10.237317148 ], [ -54.845483428, -10.237500434 ], [ -54.845298328, -10.237500434 ], [ -54.845298328, -10.237616193 ], [ -54.845389914, -10.237604529 ], [ -54.845483428, -10.23760414 ], [ -54.845668528, -10.23760337 ], [ -54.845849705, -10.237602615 ], [ -54.845853628, -10.237602353 ], [ -54.845963129, -10.237595032 ], [ -54.846038729, -10.237586478 ], [ -54.846064444, -10.237583568 ], [ -54.846223829, -10.237511621 ], [ -54.846248611, -10.237500434 ], [ -54.846408929, -10.237428066 ], [ -54.846594029, -10.237344511 ], [ -54.846654647, -10.237317148 ], [ -54.846779129, -10.237260956 ], [ -54.846964229, -10.237177401 ], [ -54.847060683, -10.237133862 ], [ -54.84714933, -10.237093846 ], [ -54.84733443, -10.237010291 ], [ -54.847466719, -10.236950576 ], [ -54.84751953, -10.236926737 ], [ -54.84770463, -10.236843182 ], [ -54.847872755, -10.23676729 ], [ -54.84788973, -10.236759627 ], [ -54.84807483, -10.236676072 ], [ -54.84816163, -10.23663689 ], [ -54.848259931, -10.236600483 ] ] ], [ [ [ -54.838449621, -10.239516581 ], [ -54.838449621, -10.239333295 ], [ -54.838449621, -10.239150009 ], [ -54.838264521, -10.239150009 ], [ -54.838264521, -10.238966723 ], [ -54.838264521, -10.238783437 ], [ -54.838079421, -10.238783437 ], [ -54.838079421, -10.238706222 ], [ -54.837915116, -10.238783437 ], [ -54.837894321, -10.238793209 ], [ -54.837709221, -10.238880196 ], [ -54.8375251, -10.238966723 ], [ -54.83752412, -10.238967183 ], [ -54.83733902, -10.23905417 ], [ -54.83715392, -10.239141157 ], [ -54.837135084, -10.239150009 ], [ -54.83696882, -10.239228144 ], [ -54.83678372, -10.239315131 ], [ -54.83678372, -10.239333295 ], [ -54.83678372, -10.239516581 ], [ -54.83678372, -10.239699867 ], [ -54.83678372, -10.239883153 ], [ -54.83678372, -10.24006644 ], [ -54.83659862, -10.24006644 ], [ -54.83659862, -10.240249726 ], [ -54.836413519, -10.240249726 ], [ -54.836413519, -10.240433012 ], [ -54.836228419, -10.240433012 ], [ -54.836228419, -10.240616298 ], [ -54.836043319, -10.240616298 ], [ -54.836043319, -10.240799584 ], [ -54.835858219, -10.240799584 ], [ -54.835858219, -10.24098287 ], [ -54.835673119, -10.24098287 ], [ -54.835673119, -10.241166156 ], [ -54.835673119, -10.241349442 ], [ -54.835646107, -10.241349442 ], [ -54.835673119, -10.241368617 ], [ -54.835858219, -10.241500019 ], [ -54.835904295, -10.241532728 ], [ -54.836043319, -10.241631421 ], [ -54.836162482, -10.241716015 ], [ -54.836228419, -10.241762823 ], [ -54.836413519, -10.241894225 ], [ -54.83642067, -10.241899301 ], [ -54.83659862, -10.242025627 ], [ -54.836678857, -10.242082587 ], [ -54.83678372, -10.242157028 ], [ -54.836937044, -10.242265873 ], [ -54.83696882, -10.24228843 ], [ -54.83715392, -10.242419832 ], [ -54.837195232, -10.242449159 ], [ -54.83733902, -10.242449159 ], [ -54.83733902, -10.242265873 ], [ -54.83733902, -10.242082587 ], [ -54.83752412, -10.242082587 ], [ -54.83752412, -10.241899301 ], [ -54.837709221, -10.241899301 ], [ -54.837709221, -10.241716015 ], [ -54.837709221, -10.241532728 ], [ -54.837894321, -10.241532728 ], [ -54.837894321, -10.241349442 ], [ -54.837894321, -10.241166156 ], [ -54.837894321, -10.24098287 ], [ -54.837894321, -10.240799584 ], [ -54.837894321, -10.240616298 ], [ -54.837894321, -10.240433012 ], [ -54.837894321, -10.240249726 ], [ -54.838079421, -10.240249726 ], [ -54.838079421, -10.24006644 ], [ -54.838079421, -10.239883153 ], [ -54.838264521, -10.239883153 ], [ -54.838264521, -10.239699867 ], [ -54.838449621, -10.239699867 ], [ -54.838449621, -10.239516581 ] ] ] ] } },
{ "type": "Feature", "properties": { "RX": 37.873, "DOSE": 37.873, "zone": 2.0, "fert_kg_ha": 37.873, "DOSAGEM": 37, "area ha": 12.72 }, "geometry": { "type": "MultiPolygon", "coordinates": [ [ [ [ -54.846779129, -10.235484287 ], [ -54.846964229, -10.235484287 ], [ -54.846964229, -10.235301001 ], [ -54.84714933, -10.235301001 ], [ -54.84714933, -10.235117715 ], [ -54.84733443, -10.235117715 ], [ -54.84751953, -10.235117715 ], [ -54.84751953, -10.234934428 ], [ -54.847591553, -10.234934428 ], [ -54.84751953, -10.23480875 ], [ -54.847486516, -10.234751142 ], [ -54.847381479, -10.234567856 ], [ -54.847362867, -10.234535379 ], [ -54.84733443, -10.234486292 ], [ -54.8472755, -10.23438457 ], [ -54.84714933, -10.234443863 ], [ -54.84714933, -10.234567856 ], [ -54.84714933, -10.234751142 ], [ -54.846964229, -10.234751142 ], [ -54.846964229, -10.234934428 ], [ -54.846779129, -10.234934428 ], [ -54.846779129, -10.235117715 ], [ -54.846594029, -10.235117715 ], [ -54.846594029, -10.235301001 ], [ -54.846408929, -10.235301001 ], [ -54.846408929, -10.235484287 ], [ -54.846223829, -10.235484287 ], [ -54.846223829, -10.235667573 ], [ -54.846038729, -10.235667573 ], [ -54.845853628, -10.235667573 ], [ -54.845853628, -10.235850859 ], [ -54.845668528, -10.235850859 ], [ -54.845483428, -10.235850859 ], [ -54.845298328, -10.235850859 ], [ -54.845113228, -10.235850859 ], [ -54.844928127, -10.235850859 ], [ -54.844743027, -10.235850859 ], [ -54.844743027, -10.235667573 ], [ -54.844557927, -10.235667573 ], [ -54.844545388, -10.235667573 ], [ -54.844372827, -10.235748667 ], [ -54.844187727, -10.235835654 ], [ -54.844155372, -10.235850859 ], [ -54.844002627, -10.235922641 ], [ -54.843817526, -10.236009628 ], [ -54.843765356, -10.236034145 ], [ -54.843632426, -10.236096615 ], [ -54.843447326, -10.236183602 ], [ -54.84337534, -10.236217431 ], [ -54.843262226, -10.236270589 ], [ -54.843077126, -10.236357576 ], [ -54.842985324, -10.236400717 ], [ -54.842892026, -10.236444563 ], [ -54.842706925, -10.236531549 ], [ -54.842595308, -10.236584003 ], [ -54.842521825, -10.236618536 ], [ -54.842336725, -10.236705523 ], [ -54.842205292, -10.23676729 ], [ -54.842151625, -10.23679251 ], [ -54.841966525, -10.236879497 ], [ -54.841815276, -10.236950576 ], [ -54.841781424, -10.236966484 ], [ -54.841596324, -10.237053471 ], [ -54.84142526, -10.237133862 ], [ -54.841411224, -10.237140458 ], [ -54.841226124, -10.237227445 ], [ -54.841226124, -10.237317148 ], [ -54.841411224, -10.237317148 ], [ -54.841596324, -10.237317148 ], [ -54.841596324, -10.237500434 ], [ -54.841781424, -10.237500434 ], [ -54.841781424, -10.23768372 ], [ -54.841966525, -10.23768372 ], [ -54.841966525, -10.237867006 ], [ -54.842151625, -10.237867006 ], [ -54.842151625, -10.238050292 ], [ -54.842151625, -10.238233578 ], [ -54.842151625, -10.238416865 ], [ -54.842336725, -10.238416865 ], [ -54.842336725, -10.238600151 ], [ -54.842336725, -10.238783437 ], [ -54.842151625, -10.238783437 ], [ -54.842151625, -10.238966723 ], [ -54.842151625, -10.239150009 ], [ -54.842151625, -10.239333295 ], [ -54.841966525, -10.239333295 ], [ -54.841966525, -10.239516581 ], [ -54.841966525, -10.239699867 ], [ -54.841781424, -10.239699867 ], [ -54.841781424, -10.239883153 ], [ -54.841781424, -10.24006644 ], [ -54.841596324, -10.24006644 ], [ -54.841596324, -10.240249726 ], [ -54.841596324, -10.240433012 ], [ -54.841596324, -10.240616298 ], [ -54.841596324, -10.240776107 ], [ -54.841781424, -10.240677945 ], [ -54.84181085, -10.24066234 ], [ -54.841966525, -10.240643695 ], [ -54.842151625, -10.240621526 ], [ -54.842195276, -10.240616298 ], [ -54.842336725, -10.240599357 ], [ -54.84235665, -10.24059697 ], [ -54.842521825, -10.240546657 ], [ -54.842706925, -10.240490275 ], [ -54.842892026, -10.240433892 ], [ -54.842894916, -10.240433012 ], [ -54.842953307, -10.240415225 ], [ -54.842981197, -10.240392604 ], [ -54.843077126, -10.240290018 ], [ -54.843103815, -10.240261476 ], [ -54.84311361, -10.240249726 ], [ -54.843262226, -10.240071427 ], [ -54.843266383, -10.24006644 ], [ -54.843342835, -10.239974719 ], [ -54.843413461, -10.239883153 ], [ -54.843447326, -10.239839248 ], [ -54.843535214, -10.239725303 ], [ -54.843552748, -10.239699867 ], [ -54.843570262, -10.23967446 ], [ -54.843604481, -10.239602581 ], [ -54.843632264, -10.239516581 ], [ -54.843632426, -10.239516078 ], [ -54.843667017, -10.239409003 ], [ -54.843686724, -10.239333295 ], [ -54.84369854, -10.239287899 ], [ -54.843728313, -10.239150009 ], [ -54.843742174, -10.239085814 ], [ -54.84375048, -10.238966723 ], [ -54.843751004, -10.238959206 ], [ -54.843748955, -10.238921738 ], [ -54.843741469, -10.238872804 ], [ -54.843726363, -10.238824103 ], [ -54.843705596, -10.238783437 ], [ -54.843632426, -10.238640151 ], [ -54.843612, -10.238600151 ], [ -54.843605666, -10.238587748 ], [ -54.843583364, -10.238537177 ], [ -54.843578607, -10.238505347 ], [ -54.843580785, -10.238484453 ], [ -54.843596885, -10.23844191 ], [ -54.843627563, -10.238416865 ], [ -54.843632426, -10.238412895 ], [ -54.843664481, -10.238386725 ], [ -54.843720987, -10.238352421 ], [ -54.843817526, -10.238304203 ], [ -54.843817526, -10.238233578 ], [ -54.843632426, -10.238233578 ], [ -54.843632426, -10.238050292 ], [ -54.843632426, -10.237867006 ], [ -54.843632426, -10.23768372 ], [ -54.843447326, -10.23768372 ], [ -54.843447326, -10.237500434 ], [ -54.843447326, -10.237317148 ], [ -54.843447326, -10.237133862 ], [ -54.843447326, -10.236950576 ], [ -54.843447326, -10.23676729 ], [ -54.843447326, -10.236584003 ], [ -54.843632426, -10.236584003 ], [ -54.843632426, -10.236400717 ], [ -54.843817526, -10.236400717 ], [ -54.843817526, -10.236217431 ], [ -54.844002627, -10.236217431 ], [ -54.844187727, -10.236217431 ], [ -54.844372827, -10.236217431 ], [ -54.844557927, -10.236217431 ], [ -54.844743027, -10.236217431 ], [ -54.844928127, -10.236217431 ], [ -54.845113228, -10.236217431 ], [ -54.845298328, -10.236217431 ], [ -54.845483428, -10.236217431 ], [ -54.845668528, -10.236217431 ], [ -54.845853628, -10.236217431 ], [ -54.845853628, -10.236034145 ], [ -54.846038729, -10.236034145 ], [ -54.846223829, -10.236034145 ], [ -54.846223829, -10.235850859 ], [ -54.846408929, -10.235850859 ], [ -54.846408929, -10.235667573 ], [ -54.846594029, -10.235667573 ], [ -54.846779129, -10.235667573 ], [ -54.846779129, -10.235484287 ] ] ], [ [ [ -54.84031655, -10.24168075 ], [ -54.840328888, -10.241532728 ], [ -54.840300623, -10.241532728 ], [ -54.840115523, -10.241532728 ], [ -54.839930423, -10.241532728 ], [ -54.839930423, -10.241349442 ], [ -54.839745323, -10.241349442 ], [ -54.839745323, -10.241532728 ], [ -54.839560222, -10.241532728 ], [ -54.839375122, -10.241532728 ], [ -54.839375122, -10.241716015 ], [ -54.839190022, -10.241716015 ], [ -54.839190022, -10.241899301 ], [ -54.839004922, -10.241899301 ], [ -54.839004922, -10.242082587 ], [ -54.838819822, -10.242082587 ], [ -54.838819822, -10.242265873 ], [ -54.838819822, -10.242449159 ], [ -54.838634721, -10.242449159 ], [ -54.838634721, -10.242632445 ], [ -54.838634721, -10.242815731 ], [ -54.838634721, -10.242999017 ], [ -54.838634721, -10.243182303 ], [ -54.838449621, -10.243182303 ], [ -54.838449621, -10.243339645 ], [ -54.838486168, -10.24336559 ], [ -54.838634721, -10.243471047 ], [ -54.838744356, -10.243548876 ], [ -54.838819822, -10.243602449 ], [ -54.839002543, -10.243732162 ], [ -54.839004922, -10.24373385 ], [ -54.839166171, -10.243848321 ], [ -54.839190022, -10.243857861 ], [ -54.839300427, -10.243902023 ], [ -54.839375122, -10.243908518 ], [ -54.83945482, -10.243915448 ], [ -54.839560222, -10.243869141 ], [ -54.839594633, -10.243854023 ], [ -54.839676841, -10.243769149 ], [ -54.83968579, -10.243732162 ], [ -54.839703781, -10.243657802 ], [ -54.839719719, -10.243574949 ], [ -54.839720328, -10.243548876 ], [ -54.839721237, -10.243509967 ], [ -54.839712886, -10.243451812 ], [ -54.839675531, -10.24336559 ], [ -54.839672404, -10.243358372 ], [ -54.839567213, -10.24318834 ], [ -54.839562829, -10.243182303 ], [ -54.839560222, -10.243178715 ], [ -54.839539749, -10.243150527 ], [ -54.839448584, -10.242999017 ], [ -54.839387894, -10.242898155 ], [ -54.839375122, -10.242868888 ], [ -54.839372856, -10.242863695 ], [ -54.839370717, -10.242833944 ], [ -54.839374912, -10.242815731 ], [ -54.839375122, -10.24281482 ], [ -54.839377744, -10.242803439 ], [ -54.839401118, -10.242764208 ], [ -54.839468246, -10.242737357 ], [ -54.839514116, -10.242753739 ], [ -54.839560222, -10.242696785 ], [ -54.839612307, -10.242632445 ], [ -54.839745323, -10.242468133 ], [ -54.839760683, -10.242449159 ], [ -54.839909058, -10.242265873 ], [ -54.839930423, -10.242239482 ], [ -54.83993584, -10.24223279 ], [ -54.840039426, -10.242082587 ], [ -54.840115523, -10.241972245 ], [ -54.840165828, -10.241899301 ], [ -54.84029223, -10.241716015 ], [ -54.840300623, -10.241703844 ], [ -54.84031655, -10.24168075 ] ] ], [ [ [ -54.841552054, -10.240799584 ], [ -54.841411224, -10.240799584 ], [ -54.841411224, -10.240874269 ], [ -54.841552054, -10.240799584 ] ] ] ] } },
{ "type": "Feature", "properties": { "RX": 47.919, "DOSE": 47.919, "zone": 3.0, "fert_kg_ha": 47.919, "DOSAGEM": 47, "area ha": 9.77 }, "geometry": { "type": "MultiPolygon", "coordinates": [ [ [ [ -54.845668528, -10.236400717 ], [ -54.845853628, -10.236400717 ], [ -54.846038729, -10.236400717 ], [ -54.846038729, -10.236217431 ], [ -54.846223829, -10.236217431 ], [ -54.846408929, -10.236217431 ], [ -54.846408929, -10.236034145 ], [ -54.846594029, -10.236034145 ], [ -54.846594029, -10.235850859 ], [ -54.846779129, -10.235850859 ], [ -54.846779129, -10.235667573 ], [ -54.846594029, -10.235667573 ], [ -54.846408929, -10.235667573 ], [ -54.846408929, -10.235850859 ], [ -54.846223829, -10.235850859 ], [ -54.846223829, -10.236034145 ], [ -54.846038729, -10.236034145 ], [ -54.845853628, -10.236034145 ], [ -54.845853628, -10.236217431 ], [ -54.845668528, -10.236217431 ], [ -54.845483428, -10.236217431 ], [ -54.845298328, -10.236217431 ], [ -54.845113228, -10.236217431 ], [ -54.844928127, -10.236217431 ], [ -54.844743027, -10.236217431 ], [ -54.844557927, -10.236217431 ], [ -54.844372827, -10.236217431 ], [ -54.844187727, -10.236217431 ], [ -54.844002627, -10.236217431 ], [ -54.843817526, -10.236217431 ], [ -54.843817526, -10.236400717 ], [ -54.843632426, -10.236400717 ], [ -54.843632426, -10.236584003 ], [ -54.843447326, -10.236584003 ], [ -54.843447326, -10.23676729 ], [ -54.843447326, -10.236950576 ], [ -54.843447326, -10.237133862 ], [ -54.843447326, -10.237317148 ], [ -54.843447326, -10.237500434 ], [ -54.843447326, -10.23768372 ], [ -54.843632426, -10.23768372 ], [ -54.843632426, -10.237867006 ], [ -54.843632426, -10.238050292 ], [ -54.843632426, -10.238233578 ], [ -54.843817526, -10.238233578 ], [ -54.843817526, -10.238304203 ], [ -54.84387381, -10.238276091 ], [ -54.843974405, -10.238233578 ], [ -54.843991236, -10.238226465 ], [ -54.844002627, -10.238219925 ], [ -54.844117173, -10.238154149 ], [ -54.844187727, -10.238108034 ], [ -54.844187727, -10.238050292 ], [ -54.844187727, -10.237867006 ], [ -54.844187727, -10.23768372 ], [ -54.844002627, -10.23768372 ], [ -54.844002627, -10.237500434 ], [ -54.844002627, -10.237317148 ], [ -54.844002627, -10.237133862 ], [ -54.844002627, -10.236950576 ], [ -54.844002627, -10.23676729 ], [ -54.844187727, -10.23676729 ], [ -54.844187727, -10.236584003 ], [ -54.844372827, -10.236584003 ], [ -54.844557927, -10.236584003 ], [ -54.844743027, -10.236584003 ], [ -54.844928127, -10.236584003 ], [ -54.845113228, -10.236584003 ], [ -54.845298328, -10.236584003 ], [ -54.845298328, -10.236400717 ], [ -54.845483428, -10.236400717 ], [ -54.845668528, -10.236400717 ] ] ], [ [ [ -54.84770463, -10.235301001 ], [ -54.847801628, -10.235301001 ], [ -54.84770463, -10.235131743 ], [ -54.847696591, -10.235117715 ], [ -54.847591553, -10.234934428 ], [ -54.84751953, -10.234934428 ], [ -54.84751953, -10.235117715 ], [ -54.84733443, -10.235117715 ], [ -54.84714933, -10.235117715 ], [ -54.84714933, -10.235301001 ], [ -54.846964229, -10.235301001 ], [ -54.846964229, -10.235484287 ], [ -54.846779129, -10.235484287 ], [ -54.846779129, -10.235667573 ], [ -54.846964229, -10.235667573 ], [ -54.84714933, -10.235667573 ], [ -54.84714933, -10.235484287 ], [ -54.84733443, -10.235484287 ], [ -54.84751953, -10.235484287 ], [ -54.84751953, -10.235301001 ], [ -54.84770463, -10.235301001 ] ] ], [ [ [ -54.842336725, -10.238783437 ], [ -54.842336725, -10.238600151 ], [ -54.842336725, -10.238416865 ], [ -54.842151625, -10.238416865 ], [ -54.842151625, -10.238233578 ], [ -54.842151625, -10.238050292 ], [ -54.842151625, -10.237867006 ], [ -54.841966525, -10.237867006 ], [ -54.841966525, -10.23768372 ], [ -54.841781424, -10.23768372 ], [ -54.841781424, -10.237500434 ], [ -54.841596324, -10.237500434 ], [ -54.841596324, -10.237317148 ], [ -54.841411224, -10.237317148 ], [ -54.841226124, -10.237317148 ], [ -54.841226124, -10.237227445 ], [ -54.841041024, -10.237314432 ], [ -54.841035244, -10.237317148 ], [ -54.840855924, -10.237401419 ], [ -54.840670823, -10.237488406 ], [ -54.840645228, -10.237500434 ], [ -54.840485723, -10.237575392 ], [ -54.840300623, -10.237662379 ], [ -54.840255212, -10.23768372 ], [ -54.840115523, -10.237749366 ], [ -54.839930423, -10.237836353 ], [ -54.839865196, -10.237867006 ], [ -54.839745323, -10.23792334 ], [ -54.839560222, -10.238010327 ], [ -54.83947518, -10.238050292 ], [ -54.839375122, -10.238097314 ], [ -54.839375122, -10.238233578 ], [ -54.839375122, -10.238416865 ], [ -54.839560222, -10.238416865 ], [ -54.839745323, -10.238416865 ], [ -54.839930423, -10.238416865 ], [ -54.840115523, -10.238416865 ], [ -54.840300623, -10.238416865 ], [ -54.840300623, -10.238233578 ], [ -54.840485723, -10.238233578 ], [ -54.840485723, -10.238050292 ], [ -54.840670823, -10.238050292 ], [ -54.840855924, -10.238050292 ], [ -54.841041024, -10.238050292 ], [ -54.841226124, -10.238050292 ], [ -54.841411224, -10.238050292 ], [ -54.841411224, -10.238233578 ], [ -54.841596324, -10.238233578 ], [ -54.841596324, -10.238416865 ], [ -54.841596324, -10.238600151 ], [ -54.841596324, -10.238783437 ], [ -54.841596324, -10.238966723 ], [ -54.841596324, -10.239150009 ], [ -54.841411224, -10.239150009 ], [ -54.841411224, -10.239333295 ], [ -54.841411224, -10.239516581 ], [ -54.841226124, -10.239516581 ], [ -54.841226124, -10.239699867 ], [ -54.841226124, -10.239883153 ], [ -54.841041024, -10.239883153 ], [ -54.841041024, -10.24006644 ], [ -54.841041024, -10.240249726 ], [ -54.840855924, -10.240249726 ], [ -54.840855924, -10.240433012 ], [ -54.840670823, -10.240433012 ], [ -54.840670823, -10.240616298 ], [ -54.840485723, -10.240616298 ], [ -54.840300623, -10.240616298 ], [ -54.840115523, -10.240616298 ], [ -54.840115523, -10.240799584 ], [ -54.839930423, -10.240799584 ], [ -54.839745323, -10.240799584 ], [ -54.839560222, -10.240799584 ], [ -54.839375122, -10.240799584 ], [ -54.839190022, -10.240799584 ], [ -54.839190022, -10.24098287 ], [ -54.839004922, -10.24098287 ], [ -54.839004922, -10.241166156 ], [ -54.838819822, -10.241166156 ], [ -54.838819822, -10.241349442 ], [ -54.838819822, -10.241532728 ], [ -54.838634721, -10.241532728 ], [ -54.838634721, -10.241716015 ], [ -54.838449621, -10.241716015 ], [ -54.838449621, -10.241899301 ], [ -54.838449621, -10.242082587 ], [ -54.838264521, -10.242082587 ], [ -54.838264521, -10.242265873 ], [ -54.838264521, -10.242449159 ], [ -54.838079421, -10.242449159 ], [ -54.838079421, -10.242632445 ], [ -54.838079421, -10.242815731 ], [ -54.837894321, -10.242815731 ], [ -54.837894321, -10.242945439 ], [ -54.837969794, -10.242999017 ], [ -54.838079421, -10.243076841 ], [ -54.838227981, -10.243182303 ], [ -54.838264521, -10.243208243 ], [ -54.838449621, -10.243339645 ], [ -54.838449621, -10.243182303 ], [ -54.838634721, -10.243182303 ], [ -54.838634721, -10.242999017 ], [ -54.838634721, -10.242815731 ], [ -54.838634721, -10.242632445 ], [ -54.838634721, -10.242449159 ], [ -54.838819822, -10.242449159 ], [ -54.838819822, -10.242265873 ], [ -54.838819822, -10.242082587 ], [ -54.839004922, -10.242082587 ], [ -54.839004922, -10.241899301 ], [ -54.839190022, -10.241899301 ], [ -54.839190022, -10.241716015 ], [ -54.839375122, -10.241716015 ], [ -54.839375122, -10.241532728 ], [ -54.839560222, -10.241532728 ], [ -54.839745323, -10.241532728 ], [ -54.839745323, -10.241349442 ], [ -54.839930423, -10.241349442 ], [ -54.839930423, -10.241532728 ], [ -54.840115523, -10.241532728 ], [ -54.840300623, -10.241532728 ], [ -54.840328888, -10.241532728 ], [ -54.840344165, -10.241349442 ], [ -54.84034511, -10.24133811 ], [ -54.840485723, -10.241250557 ], [ -54.840621273, -10.241166156 ], [ -54.840670823, -10.241135304 ], [ -54.84084955, -10.24102402 ], [ -54.840855924, -10.241023473 ], [ -54.841041024, -10.24100761 ], [ -54.84118268, -10.24099547 ], [ -54.841206438, -10.24098287 ], [ -54.841226124, -10.240972431 ], [ -54.841411224, -10.240874269 ], [ -54.841411224, -10.240799584 ], [ -54.841552054, -10.240799584 ], [ -54.841596324, -10.240776107 ], [ -54.841596324, -10.240616298 ], [ -54.841596324, -10.240433012 ], [ -54.841596324, -10.240249726 ], [ -54.841596324, -10.24006644 ], [ -54.841781424, -10.24006644 ], [ -54.841781424, -10.239883153 ], [ -54.841781424, -10.239699867 ], [ -54.841966525, -10.239699867 ], [ -54.841966525, -10.239516581 ], [ -54.841966525, -10.239333295 ], [ -54.842151625, -10.239333295 ], [ -54.842151625, -10.239150009 ], [ -54.842151625, -10.238966723 ], [ -54.842151625, -10.238783437 ], [ -54.842336725, -10.238783437 ] ] ] ] } },
{ "type": "Feature", "properties": { "RX": 18.902, "DOSE": 18.902, "zone": 1.0, "fert_kg_ha": 18.902, "DOSAGEM": 18, "area ha": 1.56 }, "geometry": { "type": "MultiPolygon", "coordinates": [ [ [ [ -54.846223829, -10.235484287 ], [ -54.846408929, -10.235484287 ], [ -54.846408929, -10.235301001 ], [ -54.846594029, -10.235301001 ], [ -54.846594029, -10.235117715 ], [ -54.846779129, -10.235117715 ], [ -54.846779129, -10.234934428 ], [ -54.846964229, -10.234934428 ], [ -54.846964229, -10.234751142 ], [ -54.84714933, -10.234751142 ], [ -54.84714933, -10.234567856 ], [ -54.84714933, -10.234443863 ], [ -54.846964229, -10.23453085 ], [ -54.846885484, -10.234567856 ], [ -54.846779129, -10.234617837 ], [ -54.846594029, -10.234704824 ], [ -54.846495468, -10.234751142 ], [ -54.846408929, -10.234791811 ], [ -54.846223829, -10.234878798 ], [ -54.846105452, -10.234934428 ], [ -54.846038729, -10.234965785 ], [ -54.845853628, -10.235052772 ], [ -54.845715436, -10.235117715 ], [ -54.845668528, -10.235139759 ], [ -54.845483428, -10.235226746 ], [ -54.84532542, -10.235301001 ], [ -54.845298328, -10.235313733 ], [ -54.845113228, -10.235400719 ], [ -54.844935404, -10.235484287 ], [ -54.844928127, -10.235487706 ], [ -54.844743027, -10.235574693 ], [ -54.844557927, -10.23566168 ], [ -54.844545388, -10.235667573 ], [ -54.844557927, -10.235667573 ], [ -54.844743027, -10.235667573 ], [ -54.844743027, -10.235850859 ], [ -54.844928127, -10.235850859 ], [ -54.845113228, -10.235850859 ], [ -54.845298328, -10.235850859 ], [ -54.845483428, -10.235850859 ], [ -54.845668528, -10.235850859 ], [ -54.845853628, -10.235850859 ], [ -54.845853628, -10.235667573 ], [ -54.846038729, -10.235667573 ], [ -54.846223829, -10.235667573 ], [ -54.846223829, -10.235484287 ] ] ] ] } },
{ "type": "Feature", "properties": { "RX": 69.02, "DOSE": 69.02, "zone": 5.0, "fert_kg_ha": 69.02, "DOSAGEM": 69, "area ha": 8.01 }, "geometry": { "type": "MultiPolygon", "coordinates": [ [ [ [ -54.84770463, -10.236217431 ], [ -54.84788973, -10.236217431 ], [ -54.84807483, -10.236217431 ], [ -54.848259931, -10.236217431 ], [ -54.84832505, -10.236217431 ], [ -54.848259931, -10.236100825 ], [ -54.84825769, -10.236096813 ], [ -54.848221777, -10.236034145 ], [ -54.848116739, -10.235850859 ], [ -54.84807483, -10.235777729 ], [ -54.848011702, -10.235667573 ], [ -54.84788973, -10.235667573 ], [ -54.84770463, -10.235667573 ], [ -54.84751953, -10.235667573 ], [ -54.84751953, -10.235850859 ], [ -54.84733443, -10.235850859 ], [ -54.84714933, -10.235850859 ], [ -54.84714933, -10.236034145 ], [ -54.846964229, -10.236034145 ], [ -54.846779129, -10.236034145 ], [ -54.846779129, -10.236217431 ], [ -54.846594029, -10.236217431 ], [ -54.846594029, -10.236400717 ], [ -54.846408929, -10.236400717 ], [ -54.846408929, -10.236584003 ], [ -54.846223829, -10.236584003 ], [ -54.846038729, -10.236584003 ], [ -54.845853628, -10.236584003 ], [ -54.845853628, -10.23676729 ], [ -54.845668528, -10.23676729 ], [ -54.845483428, -10.23676729 ], [ -54.845298328, -10.23676729 ], [ -54.845113228, -10.23676729 ], [ -54.844928127, -10.23676729 ], [ -54.844928127, -10.236950576 ], [ -54.844743027, -10.236950576 ], [ -54.844557927, -10.236950576 ], [ -54.844557927, -10.237133862 ], [ -54.844557927, -10.237317148 ], [ -54.844557927, -10.237500434 ], [ -54.844557927, -10.23768372 ], [ -54.844557927, -10.237750339 ], [ -54.844742981, -10.23768372 ], [ -54.844743027, -10.237683703 ], [ -54.844928127, -10.237617067 ], [ -54.84495412, -10.23760771 ], [ -54.845113228, -10.237612215 ], [ -54.845290208, -10.237617227 ], [ -54.845298328, -10.237616193 ], [ -54.845298328, -10.237500434 ], [ -54.845483428, -10.237500434 ], [ -54.845483428, -10.237317148 ], [ -54.845668528, -10.237317148 ], [ -54.845668528, -10.237133862 ], [ -54.845853628, -10.237133862 ], [ -54.846038729, -10.237133862 ], [ -54.846038729, -10.236950576 ], [ -54.846223829, -10.236950576 ], [ -54.846408929, -10.236950576 ], [ -54.846408929, -10.23676729 ], [ -54.846594029, -10.23676729 ], [ -54.846779129, -10.23676729 ], [ -54.846779129, -10.236584003 ], [ -54.846964229, -10.236584003 ], [ -54.846964229, -10.236400717 ], [ -54.84714933, -10.236400717 ], [ -54.84714933, -10.236217431 ], [ -54.84733443, -10.236217431 ], [ -54.84751953, -10.236217431 ], [ -54.84770463, -10.236217431 ] ] ], [ [ [ -54.839745323, -10.24006644 ], [ -54.839745323, -10.239883153 ], [ -54.839930423, -10.239883153 ], [ -54.840115523, -10.239883153 ], [ -54.840115523, -10.239699867 ], [ -54.840115523, -10.239516581 ], [ -54.839930423, -10.239516581 ], [ -54.839745323, -10.239516581 ], [ -54.839745323, -10.239333295 ], [ -54.839560222, -10.239333295 ], [ -54.839375122, -10.239333295 ], [ -54.839375122, -10.239150009 ], [ -54.839190022, -10.239150009 ], [ -54.839190022, -10.238966723 ], [ -54.839004922, -10.238966723 ], [ -54.839004922, -10.238783437 ], [ -54.838819822, -10.238783437 ], [ -54.838819822, -10.238600151 ], [ -54.838634721, -10.238600151 ], [ -54.838634721, -10.238445262 ], [ -54.838449621, -10.238532249 ], [ -54.838305132, -10.238600151 ], [ -54.838264521, -10.238619235 ], [ -54.838079421, -10.238706222 ], [ -54.838079421, -10.238783437 ], [ -54.838264521, -10.238783437 ], [ -54.838264521, -10.238966723 ], [ -54.838264521, -10.239150009 ], [ -54.838449621, -10.239150009 ], [ -54.838449621, -10.239333295 ], [ -54.838449621, -10.239516581 ], [ -54.838449621, -10.239699867 ], [ -54.838264521, -10.239699867 ], [ -54.838264521, -10.239883153 ], [ -54.838079421, -10.239883153 ], [ -54.838079421, -10.24006644 ], [ -54.838079421, -10.240249726 ], [ -54.837894321, -10.240249726 ], [ -54.837894321, -10.240433012 ], [ -54.837894321, -10.240616298 ], [ -54.837894321, -10.240799584 ], [ -54.837894321, -10.24098287 ], [ -54.837894321, -10.241166156 ], [ -54.837894321, -10.241349442 ], [ -54.837894321, -10.241532728 ], [ -54.837709221, -10.241532728 ], [ -54.837709221, -10.241716015 ], [ -54.837709221, -10.241899301 ], [ -54.83752412, -10.241899301 ], [ -54.83752412, -10.242082587 ], [ -54.83733902, -10.242082587 ], [ -54.83733902, -10.242265873 ], [ -54.83733902, -10.242449159 ], [ -54.837195232, -10.242449159 ], [ -54.83733902, -10.242551234 ], [ -54.837453419, -10.242632445 ], [ -54.83752412, -10.242682636 ], [ -54.83752412, -10.242632445 ], [ -54.837709221, -10.242632445 ], [ -54.837709221, -10.242449159 ], [ -54.837709221, -10.242265873 ], [ -54.837894321, -10.242265873 ], [ -54.837894321, -10.242082587 ], [ -54.837894321, -10.241899301 ], [ -54.838079421, -10.241899301 ], [ -54.838079421, -10.241716015 ], [ -54.838079421, -10.241532728 ], [ -54.838264521, -10.241532728 ], [ -54.838264521, -10.241349442 ], [ -54.838264521, -10.241166156 ], [ -54.838449621, -10.241166156 ], [ -54.838449621, -10.24098287 ], [ -54.838449621, -10.240799584 ], [ -54.838634721, -10.240799584 ], [ -54.838634721, -10.240616298 ], [ -54.838819822, -10.240616298 ], [ -54.838819822, -10.240433012 ], [ -54.839004922, -10.240433012 ], [ -54.839004922, -10.240249726 ], [ -54.839190022, -10.240249726 ], [ -54.839375122, -10.240249726 ], [ -54.839375122, -10.24006644 ], [ -54.839560222, -10.24006644 ], [ -54.839745323, -10.24006644 ] ] ], [ [ [ -54.83678372, -10.239883153 ], [ -54.83678372, -10.239699867 ], [ -54.83678372, -10.239516581 ], [ -54.83678372, -10.239333295 ], [ -54.83678372, -10.239315131 ], [ -54.836745068, -10.239333295 ], [ -54.83659862, -10.239402118 ], [ -54.836413519, -10.239489105 ], [ -54.836355052, -10.239516581 ], [ -54.836228419, -10.239576092 ], [ -54.836043319, -10.239663079 ], [ -54.835965036, -10.239699867 ], [ -54.835858219, -10.239750065 ], [ -54.835858219, -10.239883153 ], [ -54.835858219, -10.24006644 ], [ -54.835673119, -10.24006644 ], [ -54.835673119, -10.240249726 ], [ -54.835673119, -10.240433012 ], [ -54.835488018, -10.240433012 ], [ -54.835488018, -10.240616298 ], [ -54.835302918, -10.240616298 ], [ -54.835302918, -10.240799584 ], [ -54.835117818, -10.240799584 ], [ -54.835117818, -10.240974412 ], [ -54.835129733, -10.24098287 ], [ -54.835302918, -10.241105814 ], [ -54.83538792, -10.241166156 ], [ -54.835488018, -10.241237216 ], [ -54.835646107, -10.241349442 ], [ -54.835673119, -10.241349442 ], [ -54.835673119, -10.241166156 ], [ -54.835673119, -10.24098287 ], [ -54.835858219, -10.24098287 ], [ -54.835858219, -10.240799584 ], [ -54.836043319, -10.240799584 ], [ -54.836043319, -10.240616298 ], [ -54.836228419, -10.240616298 ], [ -54.836228419, -10.240433012 ], [ -54.836413519, -10.240433012 ], [ -54.836413519, -10.240249726 ], [ -54.83659862, -10.240249726 ], [ -54.83659862, -10.24006644 ], [ -54.83678372, -10.24006644 ], [ -54.83678372, -10.239883153 ] ] ] ] } },
{ "type": "Feature", "properties": { "RX": 75.0, "DOSE": 75.0, "zone": 7.0, "fert_kg_ha": 75.0, "DOSAGEM": 75, "area ha": 68.59 }, "geometry": { "type": "MultiPolygon", "coordinates": [ [ [ [ -54.847275499689374, -10.234384569972031 ], [ -54.847243064266536, -10.234342287338389 ], [ -54.847031806415586, -10.234047051211292 ], [ -54.846919616687281, -10.233837761601194 ], [ -54.846823828966038, -10.23361075782347 ], [ -54.846813331681524, -10.233579265969913 ], [ -54.846813331681524, -10.233495287693762 ], [ -54.846826453287171, -10.233453298555684 ], [ -54.84685007217734, -10.233356198673883 ], [ -54.846897309957676, -10.233203988048356 ], [ -54.846899934278809, -10.232959926183288 ], [ -54.846910431563309, -10.23258989690399 ], [ -54.846919616687245, -10.232188375771134 ], [ -54.846856632980135, -10.232053223232951 ], [ -54.846885500512563, -10.231945626066631 ], [ -54.846979976073236, -10.231806537046753 ], [ -54.847327698622927, -10.231465375299884 ], [ -54.84744185659207, -10.231395830789944 ], [ -54.847558638882347, -10.231334159243394 ], [ -54.847807949389676, -10.231145208122054 ], [ -54.848158952340796, -10.230596068925648 ], [ -54.848166169223902, -10.230528492656557 ], [ -54.848171417866162, -10.230477974474809 ], [ -54.848168793545028, -10.230458948146618 ], [ -54.848151735457684, -10.230439265738145 ], [ -54.848134677370346, -10.230418927249389 ], [ -54.848092688232271, -10.23039005971696 ], [ -54.848065788940687, -10.230362504345099 ], [ -54.848004117394126, -10.230328388170413 ], [ -54.847976562022261, -10.230310674002787 ], [ -54.847957535694071, -10.230300176718268 ], [ -54.847875525658765, -10.230290991594314 ], [ -54.847816478433344, -10.23029492807601 ], [ -54.847764648091037, -10.230311330083071 ], [ -54.84768788669799, -10.230340853695781 ], [ -54.847529771349926, -10.230406461724023 ], [ -54.847458914679429, -10.23043532925645 ], [ -54.847389370169488, -10.230457635986053 ], [ -54.847275212200344, -10.230499625124128 ], [ -54.847206979850966, -10.230529804817122 ], [ -54.847077732035331, -10.230544238583336 ], [ -54.847050176663465, -10.230549487225595 ], [ -54.847031150335276, -10.230564577072091 ], [ -54.846401313264096, -10.230966098204949 ], [ -54.846323895790768, -10.231021208948674 ], [ -54.846270097207608, -10.23106582240788 ], [ -54.846161187880725, -10.231179980377025 ], [ -54.845997823890386, -10.231277736339109 ], [ -54.845909253052255, -10.231341376126505 ], [ -54.845785253878873, -10.231429290884353 ], [ -54.845685201635781, -10.231532951568976 ], [ -54.845679296913239, -10.231539840411942 ], [ -54.845653709782219, -10.231592982914821 ], [ -54.845624186169516, -10.231640876775439 ], [ -54.84554873693704, -10.23173830469738 ], [ -54.845542176134217, -10.231760611426983 ], [ -54.845532334929977, -10.231835404579181 ], [ -54.845526102167305, -10.231916758534204 ], [ -54.845527742368006, -10.231927583858866 ], [ -54.845537255532108, -10.231955139230728 ], [ -54.845544472415213, -10.231966620635671 ], [ -54.845565795024392, -10.231996144248381 ], [ -54.84559695883781, -10.232040757707587 ], [ -54.845613032804728, -10.23206568875832 ], [ -54.845638291895604, -10.232123751863316 ], [ -54.845647148979417, -10.232149995074613 ], [ -54.84565206958154, -10.232176566326052 ], [ -54.845655021942811, -10.232203793657774 ], [ -54.845648789180125, -10.232238893952884 ], [ -54.845642556417452, -10.232257920281079 ], [ -54.845638619935762, -10.232270713846587 ], [ -54.845616969286439, -10.232304173940991 ], [ -54.845595646677261, -10.232346819159352 ], [ -54.845581212911043, -10.232384871815734 ], [ -54.845569403465966, -10.232425548793245 ], [ -54.845569403465966, -10.232457040646802 ], [ -54.845565466984269, -10.232496405463749 ], [ -54.845593022356127, -10.232556764849734 ], [ -54.845636323654773, -10.232610563432894 ], [ -54.845722926252051, -10.232687980906222 ], [ -54.845736047857706, -10.232697166030176 ], [ -54.845766227550698, -10.232748340292208 ], [ -54.845781973477472, -10.232794265911979 ], [ -54.845771476192958, -10.232850688816269 ], [ -54.845746545142219, -10.232913672523383 ], [ -54.845612704764605, -10.233145924943367 ], [ -54.845584493312451, -10.233189882322289 ], [ -54.845541848094093, -10.233230559299802 ], [ -54.845479520467265, -10.233271892357594 ], [ -54.844851815657044, -10.233573525267445 ], [ -54.844627272180382, -10.233686535096098 ], [ -54.844335644494841, -10.233784209048146 ], [ -54.844068025247111, -10.233822261704526 ], [ -54.844057015399883, -10.233820559996294 ], [ -54.843878561563059, -10.23382712079912 ], [ -54.843658118588159, -10.233834993762509 ], [ -54.843320237242708, -10.233861236973807 ], [ -54.843131286121363, -10.233861236973807 ], [ -54.843059773370577, -10.233852051849853 ], [ -54.843028609557145, -10.233844178886464 ], [ -54.842694664693383, -10.23364374636018 ], [ -54.842638897869378, -10.23362275179114 ], [ -54.842467988955804, -10.233591916017865 ], [ -54.842378433997247, -10.233558783963602 ], [ -54.842132403891327, -10.233414118261322 ], [ -54.84184635288819, -10.233193675286424 ], [ -54.841698078744358, -10.233126099017332 ], [ -54.841463858083522, -10.233069020032758 ], [ -54.841383160208778, -10.233069676113042 ], [ -54.84130049409319, -10.233095919324338 ], [ -54.841027564695686, -10.233191707045576 ], [ -54.840817619005307, -10.233265188037208 ], [ -54.840552562571204, -10.233329483904889 ], [ -54.840461531432013, -10.233328991844678 ], [ -54.840203773891048, -10.233257233063785 ], [ -54.840128488678644, -10.233254116682442 ], [ -54.84006681713209, -10.23326600813756 ], [ -54.840020235432043, -10.233282246124551 ], [ -54.839950690922102, -10.233304224814011 ], [ -54.839401551725686, -10.233537133314282 ], [ -54.839271647829769, -10.233612582546764 ], [ -54.839187013473328, -10.233784475580764 ], [ -54.83889308950679, -10.234052156336 ], [ -54.838685768137516, -10.234390693761741 ], [ -54.838620816189561, -10.234708236618442 ], [ -54.83858341961345, -10.234777125048099 ], [ -54.838217326815837, -10.235057271328699 ], [ -54.837957519023995, -10.235172085378126 ], [ -54.837767255742087, -10.235299364952919 ], [ -54.837586177584136, -10.235424676286865 ], [ -54.836655855743658, -10.235744843464696 ], [ -54.836417042520843, -10.235889181126833 ], [ -54.836265487975602, -10.236011868139652 ], [ -54.836184790100866, -10.236106999780606 ], [ -54.835641555627006, -10.236220501669468 ], [ -54.835544455745215, -10.236227718552573 ], [ -54.83536075326613, -10.236217221268054 ], [ -54.835145558933483, -10.236251337442742 ], [ -54.834778153975321, -10.236282829296298 ], [ -54.834534092110246, -10.236301199544206 ], [ -54.834195554684506, -10.236303823865336 ], [ -54.83366019317404, -10.236319569792114 ], [ -54.833305909821519, -10.236190978056754 ], [ -54.833044625849055, -10.235916080418411 ], [ -54.833026911681429, -10.235907551374741 ], [ -54.832494994592423, -10.235970043021641 ], [ -54.830497230132423, -10.236075343906975 ], [ -54.830424077180929, -10.236089449633047 ], [ -54.830417516378105, -10.236132422891547 ], [ -54.829854400557352, -10.237232444638309 ], [ -54.834377412258199, -10.240445957790103 ], [ -54.847275499689374, -10.234384569972031 ] ] ] ] } }
]
}
