{
"type": "FeatureCollection",
"name": "505_UREIA",
"crs": { "type": "name", "properties": { "name": "urn:ogc:def:crs:OGC:1.3:CRS84" } },
"features": [
{ "type": "Feature", "properties": { "RX": 84.464, "DOSE": 84.464, "zone": 4.0, "fert_kg_ha": 84.464 }, "geometry": { "type": "MultiPolygon", "coordinates": [ [ [ [ -54.828122195, -10.237933059 ], [ -54.828122195, -10.237750711 ], [ -54.828122195, -10.237568362 ], [ -54.828122195, -10.237386013 ], [ -54.828122195, -10.237203664 ], [ -54.828122195, -10.237021315 ], [ -54.828122195, -10.236838966 ], [ -54.828122195, -10.236656617 ], [ -54.828122195, -10.236474269 ], [ -54.828306026, -10.236474269 ], [ -54.828306026, -10.23629192 ], [ -54.828306026, -10.23620364 ], [ -54.828174679, -10.236109571 ], [ -54.828122195, -10.236071983 ], [ -54.82804623, -10.236017577 ], [ -54.827938364, -10.235941168 ], [ -54.827918677, -10.235927222 ], [ -54.827754533, -10.235810947 ], [ -54.827661258, -10.235744873 ], [ -54.827570702, -10.235680726 ], [ -54.827403839, -10.235562524 ], [ -54.827386871, -10.235550505 ], [ -54.82720304, -10.235420284 ], [ -54.82714642, -10.235380176 ], [ -54.827019209, -10.235290062 ], [ -54.826889001, -10.235197827 ], [ -54.826835378, -10.235159841 ], [ -54.826651547, -10.23502962 ], [ -54.826631583, -10.235015478 ], [ -54.826467716, -10.234899399 ], [ -54.826374164, -10.234833129 ], [ -54.826283885, -10.234769178 ], [ -54.826116745, -10.23465078 ], [ -54.826100054, -10.234638957 ], [ -54.825916223, -10.234508736 ], [ -54.825859326, -10.234468431 ], [ -54.825795811, -10.234488328 ], [ -54.825732392, -10.234521236 ], [ -54.825548561, -10.234616626 ], [ -54.825531868, -10.234625288 ], [ -54.825489223, -10.23465078 ], [ -54.82536473, -10.2347252 ], [ -54.82518418, -10.234833129 ], [ -54.825180899, -10.23483509 ], [ -54.824997068, -10.234944981 ], [ -54.824879137, -10.235015478 ], [ -54.824859702, -10.235027096 ], [ -54.824813237, -10.235055667 ], [ -54.824629406, -10.235168706 ], [ -54.824582047, -10.235197827 ], [ -54.824445575, -10.235281744 ], [ -54.824285499, -10.235380176 ], [ -54.824261744, -10.235394783 ], [ -54.824077913, -10.235507821 ], [ -54.824063781, -10.235516511 ], [ -54.823976857, -10.235562524 ], [ -54.823935304, -10.235584521 ], [ -54.823894082, -10.235600517 ], [ -54.823830443, -10.23562521 ], [ -54.823710251, -10.235660075 ], [ -54.82365489, -10.235676133 ], [ -54.82352642, -10.235704639 ], [ -54.823462015, -10.23571893 ], [ -54.82337019, -10.235744873 ], [ -54.823342589, -10.235752672 ], [ -54.823210708, -10.235789932 ], [ -54.823185046, -10.235798287 ], [ -54.823164755, -10.235853191 ], [ -54.823175502, -10.235927222 ], [ -54.82318624, -10.236001194 ], [ -54.823199245, -10.236109571 ], [ -54.823200562, -10.23612055 ], [ -54.823210111, -10.236159938 ], [ -54.823223595, -10.236204505 ], [ -54.823228638, -10.236268764 ], [ -54.82322494, -10.23629192 ], [ -54.823215221, -10.236352775 ], [ -54.823183245, -10.23644861 ], [ -54.823169205, -10.236474269 ], [ -54.823158757, -10.236493362 ], [ -54.823139829, -10.236527955 ], [ -54.823078384, -10.236626294 ], [ -54.823063597, -10.236656617 ], [ -54.823058422, -10.23666723 ], [ -54.822996461, -10.236811564 ], [ -54.822991155, -10.236838966 ], [ -54.822984165, -10.236875071 ], [ -54.822975053, -10.237021315 ], [ -54.822974926, -10.237023354 ], [ -54.822989971, -10.237102132 ], [ -54.823016454, -10.237157177 ], [ -54.823041109, -10.237185856 ], [ -54.823056129, -10.237198476 ], [ -54.82310107, -10.23717082 ], [ -54.823158757, -10.237195544 ], [ -54.823177705, -10.237203664 ], [ -54.823342589, -10.237274328 ], [ -54.82341082, -10.23730357 ], [ -54.823447918, -10.237386013 ], [ -54.82352642, -10.237560468 ], [ -54.823529972, -10.237568362 ], [ -54.82354357, -10.23759858 ], [ -54.823710251, -10.237649088 ], [ -54.823894082, -10.237704793 ], [ -54.82403033, -10.23774608 ], [ -54.824034552, -10.237750711 ], [ -54.824077913, -10.237798267 ], [ -54.824200812, -10.237933059 ], [ -54.824261744, -10.237999888 ], [ -54.824261744, -10.237933059 ], [ -54.824445575, -10.237933059 ], [ -54.824445575, -10.237750711 ], [ -54.824445575, -10.237568362 ], [ -54.824629406, -10.237568362 ], [ -54.824629406, -10.237386013 ], [ -54.824629406, -10.237203664 ], [ -54.824813237, -10.237203664 ], [ -54.824813237, -10.237021315 ], [ -54.824813237, -10.236838966 ], [ -54.824997068, -10.236838966 ], [ -54.824997068, -10.236656617 ], [ -54.825180899, -10.236656617 ], [ -54.825180899, -10.236474269 ], [ -54.825180899, -10.23629192 ], [ -54.82536473, -10.23629192 ], [ -54.82536473, -10.236109571 ], [ -54.825548561, -10.236109571 ], [ -54.825732392, -10.236109571 ], [ -54.825732392, -10.235927222 ], [ -54.825916223, -10.235927222 ], [ -54.826100054, -10.235927222 ], [ -54.826283885, -10.235927222 ], [ -54.826467716, -10.235927222 ], [ -54.826651547, -10.235927222 ], [ -54.826651547, -10.236109571 ], [ -54.826835378, -10.236109571 ], [ -54.826835378, -10.23629192 ], [ -54.827019209, -10.23629192 ], [ -54.827019209, -10.236474269 ], [ -54.827019209, -10.236656617 ], [ -54.82720304, -10.236656617 ], [ -54.82720304, -10.236838966 ], [ -54.82720304, -10.237021315 ], [ -54.82720304, -10.237203664 ], [ -54.82720304, -10.237386013 ], [ -54.82720304, -10.237568362 ], [ -54.82720304, -10.237750711 ], [ -54.82720304, -10.237933059 ], [ -54.82720304, -10.238115408 ], [ -54.82720304, -10.238297757 ], [ -54.82720304, -10.238480106 ], [ -54.82720304, -10.238662455 ], [ -54.827019209, -10.238662455 ], [ -54.827019209, -10.238844804 ], [ -54.827019209, -10.239027152 ], [ -54.827019209, -10.239209501 ], [ -54.826835378, -10.239209501 ], [ -54.826835378, -10.23939185 ], [ -54.826651547, -10.23939185 ], [ -54.826651547, -10.239574199 ], [ -54.826467716, -10.239574199 ], [ -54.826467716, -10.239756548 ], [ -54.826283885, -10.239756548 ], [ -54.826283885, -10.239938897 ], [ -54.826161573, -10.239938897 ], [ -54.826283885, -10.240023661 ], [ -54.826424697, -10.240121246 ], [ -54.826467716, -10.240151059 ], [ -54.826651547, -10.240278457 ], [ -54.82668114, -10.240298965 ], [ -54.82668763, -10.240303594 ], [ -54.826835378, -10.24040898 ], [ -54.82694328, -10.240485943 ], [ -54.827019209, -10.240540102 ], [ -54.827019209, -10.240485943 ], [ -54.82720304, -10.240485943 ], [ -54.82720304, -10.240303594 ], [ -54.82720304, -10.240121246 ], [ -54.827386871, -10.240121246 ], [ -54.827386871, -10.239938897 ], [ -54.827570702, -10.239938897 ], [ -54.827570702, -10.239756548 ], [ -54.827570702, -10.239574199 ], [ -54.827754533, -10.239574199 ], [ -54.827754533, -10.23939185 ], [ -54.827754533, -10.239209501 ], [ -54.827754533, -10.239027152 ], [ -54.827938364, -10.239027152 ], [ -54.827938364, -10.238844804 ], [ -54.827938364, -10.238662455 ], [ -54.827938364, -10.238480106 ], [ -54.827938364, -10.238297757 ], [ -54.827938364, -10.238115408 ], [ -54.827938364, -10.237933059 ], [ -54.828122195, -10.237933059 ] ] ] ] } },
{ "type": "Feature", "properties": { "RX": 69.34, "DOSE": 69.34, "zone": 2.0, "fert_kg_ha": 69.34 }, "geometry": { "type": "MultiPolygon", "coordinates": [ [ [ [ -54.838232902, -10.244496789 ], [ -54.838248112, -10.244497618 ], [ -54.838416733, -10.244399464 ], [ -54.838561376, -10.244315269 ], [ -54.838600564, -10.244292458 ], [ -54.838784395, -10.244185451 ], [ -54.83887464, -10.24413292 ], [ -54.838968226, -10.244078444 ], [ -54.839152057, -10.243971437 ], [ -54.839122923, -10.243950571 ], [ -54.838968226, -10.243839779 ], [ -54.838868312, -10.243768222 ], [ -54.838784395, -10.243708122 ], [ -54.838613702, -10.243585874 ], [ -54.838600564, -10.243576464 ], [ -54.838416733, -10.243444807 ], [ -54.838359092, -10.243403525 ], [ -54.838232902, -10.243313149 ], [ -54.838104482, -10.243221176 ], [ -54.838049071, -10.243181492 ], [ -54.83786524, -10.243049834 ], [ -54.837849871, -10.243038827 ], [ -54.837681409, -10.242918176 ], [ -54.837595261, -10.242856478 ], [ -54.837497578, -10.242786519 ], [ -54.837340651, -10.242674129 ], [ -54.837313747, -10.242654861 ], [ -54.837129916, -10.242523204 ], [ -54.83708604, -10.24249178 ], [ -54.836946085, -10.24249178 ], [ -54.836762254, -10.24249178 ], [ -54.836762254, -10.242674129 ], [ -54.836578423, -10.242674129 ], [ -54.836394592, -10.242674129 ], [ -54.836210761, -10.242674129 ], [ -54.836210761, -10.242856478 ], [ -54.83602693, -10.242856478 ], [ -54.835843099, -10.242856478 ], [ -54.835659268, -10.242856478 ], [ -54.835659268, -10.242674129 ], [ -54.835475437, -10.242674129 ], [ -54.835291606, -10.242674129 ], [ -54.835291606, -10.24249178 ], [ -54.835107775, -10.24249178 ], [ -54.834923944, -10.24249178 ], [ -54.834923944, -10.242309432 ], [ -54.834740113, -10.242309432 ], [ -54.834740113, -10.242127083 ], [ -54.834556282, -10.242127083 ], [ -54.83437245, -10.242127083 ], [ -54.83437245, -10.241944734 ], [ -54.834188619, -10.241944734 ], [ -54.834188619, -10.241762385 ], [ -54.834004788, -10.241762385 ], [ -54.833820957, -10.241762385 ], [ -54.833820957, -10.241580036 ], [ -54.833637126, -10.241580036 ], [ -54.833453295, -10.241580036 ], [ -54.833269464, -10.241580036 ], [ -54.833085633, -10.241580036 ], [ -54.833085633, -10.241397687 ], [ -54.832901802, -10.241397687 ], [ -54.832717971, -10.241397687 ], [ -54.83253414, -10.241397687 ], [ -54.832350309, -10.241397687 ], [ -54.832166478, -10.241397687 ], [ -54.832166478, -10.241580036 ], [ -54.831982647, -10.241580036 ], [ -54.831798816, -10.241580036 ], [ -54.831614985, -10.241580036 ], [ -54.831431154, -10.241580036 ], [ -54.831431154, -10.241762385 ], [ -54.831247323, -10.241762385 ], [ -54.831063492, -10.241762385 ], [ -54.831063492, -10.241944734 ], [ -54.830879661, -10.241944734 ], [ -54.830879661, -10.242127083 ], [ -54.830879661, -10.242309432 ], [ -54.83069583, -10.242309432 ], [ -54.83069583, -10.24249178 ], [ -54.83069583, -10.242674129 ], [ -54.830511999, -10.242674129 ], [ -54.830511999, -10.242856478 ], [ -54.830328168, -10.242856478 ], [ -54.830328168, -10.242930211 ], [ -54.830365275, -10.242959203 ], [ -54.830452634, -10.243038827 ], [ -54.830511999, -10.243092936 ], [ -54.830652695, -10.243221176 ], [ -54.83067378, -10.243240393 ], [ -54.83069583, -10.243261663 ], [ -54.830747153, -10.243311169 ], [ -54.830879661, -10.243396113 ], [ -54.830891223, -10.243403525 ], [ -54.831063492, -10.243513957 ], [ -54.83115466, -10.2435724 ], [ -54.831187733, -10.243585874 ], [ -54.831202481, -10.243591882 ], [ -54.831247323, -10.243603869 ], [ -54.831431154, -10.243653012 ], [ -54.831614985, -10.243702155 ], [ -54.831686587, -10.243721296 ], [ -54.831798816, -10.243739634 ], [ -54.83181559, -10.243742375 ], [ -54.831982647, -10.243747289 ], [ -54.83205442, -10.2437494 ], [ -54.832092066, -10.243768222 ], [ -54.832124095, -10.243784236 ], [ -54.832166478, -10.243797692 ], [ -54.832261228, -10.243827772 ], [ -54.832350309, -10.24386209 ], [ -54.832490858, -10.243916235 ], [ -54.83253414, -10.243941626 ], [ -54.832549388, -10.243950571 ], [ -54.832639591, -10.244003489 ], [ -54.832717971, -10.244064852 ], [ -54.832804916, -10.24413292 ], [ -54.832808318, -10.244135583 ], [ -54.832879391, -10.244180689 ], [ -54.832901802, -10.244190254 ], [ -54.832944901, -10.24420865 ], [ -54.833023588, -10.244226154 ], [ -54.833085633, -10.244228835 ], [ -54.833089727, -10.244229012 ], [ -54.833164771, -10.244224592 ], [ -54.833269256, -10.244207466 ], [ -54.833269464, -10.244207443 ], [ -54.833453295, -10.244187245 ], [ -54.833464109, -10.244186057 ], [ -54.833518966, -10.244189946 ], [ -54.833637126, -10.244216327 ], [ -54.833662424, -10.244221976 ], [ -54.833699247, -10.24424049 ], [ -54.833804409, -10.244278786 ], [ -54.833820957, -10.244287793 ], [ -54.833871436, -10.244315269 ], [ -54.833933472, -10.244349035 ], [ -54.834004788, -10.244369315 ], [ -54.834009151, -10.244370555 ], [ -54.834077097, -10.244383278 ], [ -54.834121246, -10.244386614 ], [ -54.834188619, -10.24438667 ], [ -54.834188656, -10.24438667 ], [ -54.834242671, -10.244378469 ], [ -54.834308436, -10.244363458 ], [ -54.834349695, -10.244349354 ], [ -54.83437245, -10.244336758 ], [ -54.834411272, -10.244315269 ], [ -54.834500499, -10.244265879 ], [ -54.834541631, -10.24423222 ], [ -54.83447345, -10.24417715 ], [ -54.834556282, -10.244147759 ], [ -54.834598101, -10.24413292 ], [ -54.834717263, -10.244090638 ], [ -54.834740113, -10.244080648 ], [ -54.834773703, -10.244065962 ], [ -54.834815005, -10.244055955 ], [ -54.834923944, -10.244017301 ], [ -54.83493071, -10.2440149 ], [ -54.835008989, -10.244038863 ], [ -54.835009042, -10.244038873 ], [ -54.835107775, -10.244059003 ], [ -54.835154613, -10.244068553 ], [ -54.835229977, -10.244100438 ], [ -54.835262062, -10.244116334 ], [ -54.835291606, -10.244125378 ], [ -54.835316243, -10.24413292 ], [ -54.835475437, -10.244181653 ], [ -54.83565346, -10.24423615 ], [ -54.835659268, -10.244235383 ], [ -54.835843099, -10.244211104 ], [ -54.83602693, -10.244186824 ], [ -54.836210761, -10.244162545 ], [ -54.836394592, -10.244138266 ], [ -54.836435071, -10.24413292 ], [ -54.83643522, -10.2441329 ], [ -54.836435323, -10.24413292 ], [ -54.836578423, -10.244160176 ], [ -54.83674498, -10.2441919 ], [ -54.836725614, -10.244262909 ], [ -54.836762254, -10.244277881 ], [ -54.836853749, -10.244315269 ], [ -54.836946085, -10.244353 ], [ -54.836985656, -10.24436917 ], [ -54.837129916, -10.244377185 ], [ -54.83724648, -10.24438366 ], [ -54.837313747, -10.244381792 ], [ -54.837497578, -10.244376685 ], [ -54.837681409, -10.244371579 ], [ -54.83777749, -10.24436891 ], [ -54.837855468, -10.244399544 ], [ -54.83786524, -10.244401281 ], [ -54.837931631, -10.24441308 ], [ -54.837968614, -10.244423783 ], [ -54.838049071, -10.244455877 ], [ -54.838087742, -10.244471303 ], [ -54.838199748, -10.244494983 ], [ -54.838232902, -10.244496789 ] ] ], [ [ [ -54.830328168, -10.240668292 ], [ -54.830328168, -10.240485943 ], [ -54.830328168, -10.240303594 ], [ -54.830328168, -10.240121246 ], [ -54.830328168, -10.239938897 ], [ -54.830328168, -10.239756548 ], [ -54.830328168, -10.239574199 ], [ -54.830328168, -10.23939185 ], [ -54.830328168, -10.239209501 ], [ -54.830328168, -10.239027152 ], [ -54.830328168, -10.238844804 ], [ -54.830328168, -10.238662455 ], [ -54.830511999, -10.238662455 ], [ -54.830511999, -10.238480106 ], [ -54.830511999, -10.238297757 ], [ -54.830511999, -10.238115408 ], [ -54.83069583, -10.238115408 ], [ -54.83069583, -10.237933059 ], [ -54.83069583, -10.237915189 ], [ -54.830511999, -10.237783531 ], [ -54.830466172, -10.237750711 ], [ -54.830328168, -10.237651873 ], [ -54.830211562, -10.237568362 ], [ -54.830144337, -10.237520216 ], [ -54.829960506, -10.237388558 ], [ -54.829956951, -10.237386013 ], [ -54.829776675, -10.237256901 ], [ -54.829702341, -10.237203664 ], [ -54.829592844, -10.237203664 ], [ -54.829592844, -10.237386013 ], [ -54.829409013, -10.237386013 ], [ -54.829409013, -10.237568362 ], [ -54.829409013, -10.237750711 ], [ -54.829225182, -10.237750711 ], [ -54.829225182, -10.237933059 ], [ -54.829225182, -10.238115408 ], [ -54.829225182, -10.238297757 ], [ -54.829041351, -10.238297757 ], [ -54.829041351, -10.238480106 ], [ -54.829041351, -10.238662455 ], [ -54.829041351, -10.238844804 ], [ -54.828857519, -10.238844804 ], [ -54.828857519, -10.239027152 ], [ -54.828857519, -10.239209501 ], [ -54.828857519, -10.23939185 ], [ -54.828673688, -10.23939185 ], [ -54.828673688, -10.239574199 ], [ -54.828673688, -10.239756548 ], [ -54.828673688, -10.239938897 ], [ -54.828489857, -10.239938897 ], [ -54.828489857, -10.240121246 ], [ -54.828489857, -10.240303594 ], [ -54.828306026, -10.240303594 ], [ -54.828306026, -10.240485943 ], [ -54.828306026, -10.240668292 ], [ -54.828122195, -10.240668292 ], [ -54.828122195, -10.240850641 ], [ -54.828122195, -10.24103299 ], [ -54.827938364, -10.24103299 ], [ -54.827938364, -10.241137428 ], [ -54.828029827, -10.241215339 ], [ -54.828122195, -10.24129402 ], [ -54.82823413, -10.24138937 ], [ -54.828236581, -10.241397687 ], [ -54.828240128, -10.241409723 ], [ -54.828306026, -10.24145593 ], [ -54.828483023, -10.241580036 ], [ -54.828489857, -10.241584829 ], [ -54.828673688, -10.241713728 ], [ -54.828743082, -10.241762385 ], [ -54.828857519, -10.241842627 ], [ -54.829003141, -10.241944734 ], [ -54.829041351, -10.241971526 ], [ -54.829225182, -10.242100425 ], [ -54.829263199, -10.242127083 ], [ -54.829409013, -10.242229324 ], [ -54.829409013, -10.242127083 ], [ -54.829592844, -10.242127083 ], [ -54.829592844, -10.241944734 ], [ -54.829592844, -10.241762385 ], [ -54.829776675, -10.241762385 ], [ -54.829776675, -10.241580036 ], [ -54.829960506, -10.241580036 ], [ -54.829960506, -10.241397687 ], [ -54.830144337, -10.241397687 ], [ -54.830144337, -10.241215339 ], [ -54.830328168, -10.241215339 ], [ -54.830328168, -10.24103299 ], [ -54.830328168, -10.240850641 ], [ -54.830328168, -10.240668292 ] ] ] ] } },
{ "type": "Feature", "properties": { "RX": 76.245, "DOSE": 76.245, "zone": 3.0, "fert_kg_ha": 76.245 }, "geometry": { "type": "MultiPolygon", "coordinates": [ [ [ [ -54.829409013, -10.237386013 ], [ -54.829592844, -10.237386013 ], [ -54.829592844, -10.237203664 ], [ -54.829702341, -10.237203664 ], [ -54.829592844, -10.237125243 ], [ -54.829447731, -10.237021315 ], [ -54.829409013, -10.236993586 ], [ -54.829225182, -10.236861928 ], [ -54.829193121, -10.236838966 ], [ -54.829041351, -10.23673027 ], [ -54.82893851, -10.236656617 ], [ -54.828857519, -10.236598613 ], [ -54.8286839, -10.236474269 ], [ -54.828673688, -10.236466955 ], [ -54.828489857, -10.236335298 ], [ -54.82842929, -10.23629192 ], [ -54.828306026, -10.23620364 ], [ -54.828306026, -10.23629192 ], [ -54.828306026, -10.236474269 ], [ -54.828122195, -10.236474269 ], [ -54.828122195, -10.236656617 ], [ -54.828122195, -10.236838966 ], [ -54.828122195, -10.237021315 ], [ -54.828122195, -10.237203664 ], [ -54.828122195, -10.237386013 ], [ -54.828122195, -10.237568362 ], [ -54.828122195, -10.237750711 ], [ -54.828122195, -10.237933059 ], [ -54.827938364, -10.237933059 ], [ -54.827938364, -10.238115408 ], [ -54.827938364, -10.238297757 ], [ -54.827938364, -10.238480106 ], [ -54.827938364, -10.238662455 ], [ -54.827938364, -10.238844804 ], [ -54.827938364, -10.239027152 ], [ -54.827754533, -10.239027152 ], [ -54.827754533, -10.239209501 ], [ -54.827754533, -10.23939185 ], [ -54.827754533, -10.239574199 ], [ -54.827570702, -10.239574199 ], [ -54.827570702, -10.239756548 ], [ -54.827570702, -10.239938897 ], [ -54.827386871, -10.239938897 ], [ -54.827386871, -10.240121246 ], [ -54.82720304, -10.240121246 ], [ -54.82720304, -10.240303594 ], [ -54.82720304, -10.240485943 ], [ -54.827019209, -10.240485943 ], [ -54.827019209, -10.240540102 ], [ -54.827198929, -10.240668292 ], [ -54.82720304, -10.240671225 ], [ -54.827386871, -10.240802347 ], [ -54.827454578, -10.240850641 ], [ -54.827570702, -10.24093347 ], [ -54.827709527, -10.24103249 ], [ -54.827713106, -10.24103299 ], [ -54.827754533, -10.24103877 ], [ -54.82783587, -10.24105012 ], [ -54.827938364, -10.241137428 ], [ -54.827938364, -10.24103299 ], [ -54.828122195, -10.24103299 ], [ -54.828122195, -10.240850641 ], [ -54.828122195, -10.240668292 ], [ -54.828306026, -10.240668292 ], [ -54.828306026, -10.240485943 ], [ -54.828306026, -10.240303594 ], [ -54.828489857, -10.240303594 ], [ -54.828489857, -10.240121246 ], [ -54.828489857, -10.239938897 ], [ -54.828673688, -10.239938897 ], [ -54.828673688, -10.239756548 ], [ -54.828673688, -10.239574199 ], [ -54.828673688, -10.23939185 ], [ -54.828857519, -10.23939185 ], [ -54.828857519, -10.239209501 ], [ -54.828857519, -10.239027152 ], [ -54.828857519, -10.238844804 ], [ -54.829041351, -10.238844804 ], [ -54.829041351, -10.238662455 ], [ -54.829041351, -10.238480106 ], [ -54.829041351, -10.238297757 ], [ -54.829225182, -10.238297757 ], [ -54.829225182, -10.238115408 ], [ -54.829225182, -10.237933059 ], [ -54.829225182, -10.237750711 ], [ -54.829409013, -10.237750711 ], [ -54.829409013, -10.237568362 ], [ -54.829409013, -10.237386013 ] ] ] ] } },
{ "type": "Feature", "properties": { "RX": 65.081, "DOSE": 65.081, "zone": 1.0, "fert_kg_ha": 65.081 }, "geometry": { "type": "MultiPolygon", "coordinates": [ [ [ [ -54.83708604, -10.24249178 ], [ -54.836946085, -10.242391546 ], [ -54.83683143, -10.242309432 ], [ -54.836762254, -10.242259889 ], [ -54.836578423, -10.242128231 ], [ -54.83657682, -10.242127083 ], [ -54.836394592, -10.241996573 ], [ -54.836322209, -10.241944734 ], [ -54.836210761, -10.241864916 ], [ -54.836067599, -10.241762385 ], [ -54.83602693, -10.241733258 ], [ -54.835843099, -10.241601601 ], [ -54.835812989, -10.241580036 ], [ -54.835659268, -10.241469943 ], [ -54.835558378, -10.241397687 ], [ -54.835475437, -10.241338286 ], [ -54.835303768, -10.241215339 ], [ -54.835291606, -10.241206628 ], [ -54.835107775, -10.24107497 ], [ -54.835049158, -10.24103299 ], [ -54.834923944, -10.240943313 ], [ -54.834794547, -10.240850641 ], [ -54.834740113, -10.240811655 ], [ -54.834556282, -10.240679998 ], [ -54.834539937, -10.240668292 ], [ -54.83437245, -10.24054834 ], [ -54.834285327, -10.240485943 ], [ -54.834188619, -10.240416683 ], [ -54.834030717, -10.240303594 ], [ -54.834004788, -10.240285025 ], [ -54.833820957, -10.240153367 ], [ -54.833776106, -10.240121246 ], [ -54.833637126, -10.24002171 ], [ -54.833521496, -10.239938897 ], [ -54.833453295, -10.239890052 ], [ -54.833269464, -10.239758395 ], [ -54.833266886, -10.239756548 ], [ -54.833085633, -10.239626737 ], [ -54.833012275, -10.239574199 ], [ -54.832901802, -10.23949508 ], [ -54.832757665, -10.23939185 ], [ -54.832717971, -10.239363422 ], [ -54.83253414, -10.239231764 ], [ -54.832503055, -10.239209501 ], [ -54.832350309, -10.239100107 ], [ -54.832248444, -10.239027152 ], [ -54.832166478, -10.238968449 ], [ -54.831993834, -10.238844804 ], [ -54.831982647, -10.238836792 ], [ -54.831798816, -10.238705134 ], [ -54.831739224, -10.238662455 ], [ -54.831614985, -10.238573477 ], [ -54.831484613, -10.238480106 ], [ -54.831431154, -10.238441819 ], [ -54.831247323, -10.238310161 ], [ -54.831230003, -10.238297757 ], [ -54.831063492, -10.238178504 ], [ -54.830975393, -10.238115408 ], [ -54.830879661, -10.238046846 ], [ -54.830720782, -10.237933059 ], [ -54.83069583, -10.237915189 ], [ -54.83069583, -10.237933059 ], [ -54.83069583, -10.238115408 ], [ -54.830511999, -10.238115408 ], [ -54.830511999, -10.238297757 ], [ -54.830511999, -10.238480106 ], [ -54.830511999, -10.238662455 ], [ -54.830328168, -10.238662455 ], [ -54.830328168, -10.238844804 ], [ -54.830328168, -10.239027152 ], [ -54.830328168, -10.239209501 ], [ -54.830328168, -10.23939185 ], [ -54.830328168, -10.239574199 ], [ -54.830328168, -10.239756548 ], [ -54.830328168, -10.239938897 ], [ -54.830328168, -10.240121246 ], [ -54.830328168, -10.240303594 ], [ -54.830328168, -10.240485943 ], [ -54.830328168, -10.240668292 ], [ -54.830328168, -10.240850641 ], [ -54.830328168, -10.24103299 ], [ -54.830328168, -10.241215339 ], [ -54.830144337, -10.241215339 ], [ -54.830144337, -10.241397687 ], [ -54.829960506, -10.241397687 ], [ -54.829960506, -10.241580036 ], [ -54.829776675, -10.241580036 ], [ -54.829776675, -10.241762385 ], [ -54.829592844, -10.241762385 ], [ -54.829592844, -10.241944734 ], [ -54.829592844, -10.242127083 ], [ -54.829409013, -10.242127083 ], [ -54.829409013, -10.242229324 ], [ -54.829523258, -10.242309432 ], [ -54.829592844, -10.242358224 ], [ -54.82961209, -10.242371718 ], [ -54.82965014, -10.24236288 ], [ -54.829776675, -10.24247331 ], [ -54.829797838, -10.24249178 ], [ -54.829857192, -10.24254358 ], [ -54.829884082, -10.242562435 ], [ -54.829913484, -10.242592707 ], [ -54.829960506, -10.242633744 ], [ -54.83000678, -10.242674129 ], [ -54.83001017, -10.242677088 ], [ -54.830069691, -10.242728265 ], [ -54.830144337, -10.242786585 ], [ -54.830233795, -10.242856478 ], [ -54.830328168, -10.242930211 ], [ -54.830328168, -10.242856478 ], [ -54.830511999, -10.242856478 ], [ -54.830511999, -10.242674129 ], [ -54.83069583, -10.242674129 ], [ -54.83069583, -10.24249178 ], [ -54.83069583, -10.242309432 ], [ -54.830879661, -10.242309432 ], [ -54.830879661, -10.242127083 ], [ -54.830879661, -10.241944734 ], [ -54.831063492, -10.241944734 ], [ -54.831063492, -10.241762385 ], [ -54.831247323, -10.241762385 ], [ -54.831431154, -10.241762385 ], [ -54.831431154, -10.241580036 ], [ -54.831614985, -10.241580036 ], [ -54.831798816, -10.241580036 ], [ -54.831982647, -10.241580036 ], [ -54.832166478, -10.241580036 ], [ -54.832166478, -10.241397687 ], [ -54.832350309, -10.241397687 ], [ -54.83253414, -10.241397687 ], [ -54.832717971, -10.241397687 ], [ -54.832901802, -10.241397687 ], [ -54.833085633, -10.241397687 ], [ -54.833085633, -10.241580036 ], [ -54.833269464, -10.241580036 ], [ -54.833453295, -10.241580036 ], [ -54.833637126, -10.241580036 ], [ -54.833820957, -10.241580036 ], [ -54.833820957, -10.241762385 ], [ -54.834004788, -10.241762385 ], [ -54.834188619, -10.241762385 ], [ -54.834188619, -10.241944734 ], [ -54.83437245, -10.241944734 ], [ -54.83437245, -10.242127083 ], [ -54.834556282, -10.242127083 ], [ -54.834740113, -10.242127083 ], [ -54.834740113, -10.242309432 ], [ -54.834923944, -10.242309432 ], [ -54.834923944, -10.24249178 ], [ -54.835107775, -10.24249178 ], [ -54.835291606, -10.24249178 ], [ -54.835291606, -10.242674129 ], [ -54.835475437, -10.242674129 ], [ -54.835659268, -10.242674129 ], [ -54.835659268, -10.242856478 ], [ -54.835843099, -10.242856478 ], [ -54.83602693, -10.242856478 ], [ -54.836210761, -10.242856478 ], [ -54.836210761, -10.242674129 ], [ -54.836394592, -10.242674129 ], [ -54.836578423, -10.242674129 ], [ -54.836762254, -10.242674129 ], [ -54.836762254, -10.24249178 ], [ -54.836946085, -10.24249178 ], [ -54.83708604, -10.24249178 ] ] ] ] } },
{ "type": "Feature", "properties": { "RX": 94.456, "DOSE": 94.456, "zone": 5.0, "fert_kg_ha": 94.456 }, "geometry": { "type": "MultiPolygon", "coordinates": [ [ [ [ -54.82720304, -10.238115408 ], [ -54.82720304, -10.237933059 ], [ -54.82720304, -10.237750711 ], [ -54.82720304, -10.237568362 ], [ -54.82720304, -10.237386013 ], [ -54.82720304, -10.237203664 ], [ -54.82720304, -10.237021315 ], [ -54.82720304, -10.236838966 ], [ -54.82720304, -10.236656617 ], [ -54.827019209, -10.236656617 ], [ -54.827019209, -10.236474269 ], [ -54.827019209, -10.23629192 ], [ -54.826835378, -10.23629192 ], [ -54.826835378, -10.236109571 ], [ -54.826651547, -10.236109571 ], [ -54.826651547, -10.235927222 ], [ -54.826467716, -10.235927222 ], [ -54.826283885, -10.235927222 ], [ -54.826100054, -10.235927222 ], [ -54.825916223, -10.235927222 ], [ -54.825732392, -10.235927222 ], [ -54.825732392, -10.236109571 ], [ -54.825548561, -10.236109571 ], [ -54.82536473, -10.236109571 ], [ -54.82536473, -10.23629192 ], [ -54.825180899, -10.23629192 ], [ -54.825180899, -10.236474269 ], [ -54.825180899, -10.236656617 ], [ -54.824997068, -10.236656617 ], [ -54.824997068, -10.236838966 ], [ -54.824813237, -10.236838966 ], [ -54.824813237, -10.237021315 ], [ -54.824813237, -10.237203664 ], [ -54.824629406, -10.237203664 ], [ -54.824629406, -10.237386013 ], [ -54.824629406, -10.237568362 ], [ -54.824445575, -10.237568362 ], [ -54.824445575, -10.237750711 ], [ -54.824445575, -10.237933059 ], [ -54.824261744, -10.237933059 ], [ -54.824261744, -10.237999888 ], [ -54.824278317, -10.238018065 ], [ -54.824412146, -10.238115408 ], [ -54.824445575, -10.238139723 ], [ -54.824468994, -10.238156757 ], [ -54.824629406, -10.238258086 ], [ -54.824692209, -10.238297757 ], [ -54.824728597, -10.238320743 ], [ -54.824813237, -10.238360679 ], [ -54.824997068, -10.238447417 ], [ -54.825009404, -10.238453237 ], [ -54.825047268, -10.238480106 ], [ -54.825053341, -10.238484415 ], [ -54.82512184, -10.23851309 ], [ -54.825180899, -10.238653079 ], [ -54.825184854, -10.238662455 ], [ -54.825261784, -10.238844804 ], [ -54.825338713, -10.239027152 ], [ -54.82536473, -10.239088822 ], [ -54.825415642, -10.239209501 ], [ -54.825418206, -10.239215579 ], [ -54.825548561, -10.239374126 ], [ -54.825563134, -10.23939185 ], [ -54.825713058, -10.239574199 ], [ -54.825732392, -10.239597714 ], [ -54.825816009, -10.239699415 ], [ -54.825898449, -10.239756548 ], [ -54.825916223, -10.239768865 ], [ -54.826100054, -10.239896263 ], [ -54.826161573, -10.239938897 ], [ -54.826283885, -10.239938897 ], [ -54.826283885, -10.239756548 ], [ -54.826467716, -10.239756548 ], [ -54.826467716, -10.239574199 ], [ -54.826651547, -10.239574199 ], [ -54.826651547, -10.23939185 ], [ -54.826835378, -10.23939185 ], [ -54.826835378, -10.239209501 ], [ -54.827019209, -10.239209501 ], [ -54.827019209, -10.239027152 ], [ -54.827019209, -10.238844804 ], [ -54.827019209, -10.238662455 ], [ -54.82720304, -10.238662455 ], [ -54.82720304, -10.238480106 ], [ -54.82720304, -10.238297757 ], [ -54.82720304, -10.238115408 ] ] ] ] } }
]
}
