{
"type": "FeatureCollection",
"name": "505_SULFATO",
"crs": { "type": "name", "properties": { "name": "urn:ogc:def:crs:OGC:1.3:CRS84" } },
"features": [
{ "type": "Feature", "properties": { "zone": 2.0, "fert_kg_ha": 331.0, "DOSE": 331.0, "RX": 331.0, "area": 2.9447763127531279 }, "geometry": { "type": "MultiPolygon", "coordinates": [ [ [ [ -54.829163354, -10.241397687 ], [ -54.829163354, -10.241215339 ], [ -54.829163354, -10.24103299 ], [ -54.829163354, -10.240850641 ], [ -54.829163354, -10.240668292 ], [ -54.829163354, -10.240485943 ], [ -54.829163354, -10.240303594 ], [ -54.829163354, -10.240121246 ], [ -54.829163354, -10.239938897 ], [ -54.829163354, -10.239756548 ], [ -54.829163354, -10.239574199 ], [ -54.829163354, -10.23939185 ], [ -54.828978378, -10.23939185 ], [ -54.828978378, -10.239209501 ], [ -54.828793402, -10.239209501 ], [ -54.828608426, -10.239209501 ], [ -54.82842345, -10.239209501 ], [ -54.828238474, -10.239209501 ], [ -54.828053498, -10.239209501 ], [ -54.827868522, -10.239209501 ], [ -54.827683546, -10.239209501 ], [ -54.82749857, -10.239209501 ], [ -54.827313594, -10.239209501 ], [ -54.827128618, -10.239209501 ], [ -54.826943642, -10.239209501 ], [ -54.826758666, -10.239209501 ], [ -54.826758666, -10.23939185 ], [ -54.82657369, -10.23939185 ], [ -54.82657369, -10.239574199 ], [ -54.826388714, -10.239574199 ], [ -54.826388714, -10.239756548 ], [ -54.826203739, -10.239756548 ], [ -54.826203739, -10.239938897 ], [ -54.826161573, -10.239938897 ], [ -54.826203739, -10.239968118 ], [ -54.826388714, -10.240096309 ], [ -54.826424697, -10.240121246 ], [ -54.82657369, -10.240224501 ], [ -54.82668114, -10.240298965 ], [ -54.82668763, -10.240303594 ], [ -54.826758666, -10.240354263 ], [ -54.826758666, -10.240303594 ], [ -54.826758666, -10.240121246 ], [ -54.826943642, -10.240121246 ], [ -54.826943642, -10.239938897 ], [ -54.827128618, -10.239938897 ], [ -54.827128618, -10.239756548 ], [ -54.827313594, -10.239756548 ], [ -54.827313594, -10.239574199 ], [ -54.82749857, -10.239574199 ], [ -54.827683546, -10.239574199 ], [ -54.827868522, -10.239574199 ], [ -54.828053498, -10.239574199 ], [ -54.828238474, -10.239574199 ], [ -54.82842345, -10.239574199 ], [ -54.82842345, -10.239756548 ], [ -54.828608426, -10.239756548 ], [ -54.828608426, -10.239938897 ], [ -54.828793402, -10.239938897 ], [ -54.828793402, -10.240121246 ], [ -54.828793402, -10.240303594 ], [ -54.828793402, -10.240485943 ], [ -54.828793402, -10.240668292 ], [ -54.828793402, -10.240850641 ], [ -54.828608426, -10.240850641 ], [ -54.828608426, -10.24103299 ], [ -54.828608426, -10.241215339 ], [ -54.82842345, -10.241215339 ], [ -54.82842345, -10.241397687 ], [ -54.828238474, -10.241397687 ], [ -54.828236581, -10.241397687 ], [ -54.828238474, -10.241404111 ], [ -54.828240128, -10.241409723 ], [ -54.82842345, -10.241538265 ], [ -54.828483023, -10.241580036 ], [ -54.828608426, -10.241667967 ], [ -54.828743082, -10.241762385 ], [ -54.828793402, -10.241797669 ], [ -54.828793402, -10.241762385 ], [ -54.828793402, -10.241580036 ], [ -54.828978378, -10.241580036 ], [ -54.828978378, -10.241397687 ], [ -54.829163354, -10.241397687 ] ] ] ] } },
{ "type": "Feature", "properties": { "zone": 3.0, "fert_kg_ha": 382.0, "DOSE": 382.0, "RX": 382.0, "area": 3.012831696927595 }, "geometry": { "type": "MultiPolygon", "coordinates": [ [ [ [ -54.828793402, -10.240485943 ], [ -54.828793402, -10.240303594 ], [ -54.828793402, -10.240121246 ], [ -54.828793402, -10.239938897 ], [ -54.828608426, -10.239938897 ], [ -54.828608426, -10.239756548 ], [ -54.82842345, -10.239756548 ], [ -54.82842345, -10.239574199 ], [ -54.828238474, -10.239574199 ], [ -54.828053498, -10.239574199 ], [ -54.827868522, -10.239574199 ], [ -54.827683546, -10.239574199 ], [ -54.82749857, -10.239574199 ], [ -54.827313594, -10.239574199 ], [ -54.827313594, -10.239756548 ], [ -54.827128618, -10.239756548 ], [ -54.827128618, -10.239938897 ], [ -54.826943642, -10.239938897 ], [ -54.826943642, -10.240121246 ], [ -54.826758666, -10.240121246 ], [ -54.826758666, -10.240303594 ], [ -54.826758666, -10.240354263 ], [ -54.82694328, -10.240485943 ], [ -54.826943642, -10.240486202 ], [ -54.827128618, -10.240618141 ], [ -54.827198929, -10.240668292 ], [ -54.827313594, -10.24075008 ], [ -54.827454578, -10.240850641 ], [ -54.82749857, -10.24088202 ], [ -54.827683546, -10.241013959 ], [ -54.827709527, -10.24103249 ], [ -54.827713106, -10.24103299 ], [ -54.82783587, -10.24105012 ], [ -54.827868522, -10.241077934 ], [ -54.828029827, -10.241215339 ], [ -54.828053498, -10.241235502 ], [ -54.82823413, -10.24138937 ], [ -54.828236581, -10.241397687 ], [ -54.828238474, -10.241397687 ], [ -54.82842345, -10.241397687 ], [ -54.82842345, -10.241215339 ], [ -54.828608426, -10.241215339 ], [ -54.828608426, -10.24103299 ], [ -54.828608426, -10.240850641 ], [ -54.828793402, -10.240850641 ], [ -54.828793402, -10.240668292 ], [ -54.828793402, -10.240485943 ] ] ] ] } },
{ "type": "Feature", "properties": { "zone": 1.0, "fert_kg_ha": 295.0, "DOSE": 295.0, "RX": 295.0, "area": 70.103448232658806 }, "geometry": { "type": "MultiPolygon", "coordinates": [ [ [ [ -54.838868312, -10.243768222 ], [ -54.838782105, -10.243706482 ], [ -54.838613702, -10.243585874 ], [ -54.838597129, -10.243574004 ], [ -54.838412153, -10.243441527 ], [ -54.838359092, -10.243403525 ], [ -54.838227177, -10.243309049 ], [ -54.838104482, -10.243221176 ], [ -54.838042201, -10.243176572 ], [ -54.837857225, -10.243044094 ], [ -54.837849871, -10.243038827 ], [ -54.837672249, -10.242911616 ], [ -54.837595261, -10.242856478 ], [ -54.837487273, -10.242779139 ], [ -54.837340651, -10.242674129 ], [ -54.837302297, -10.242646661 ], [ -54.837117322, -10.242514184 ], [ -54.83708604, -10.24249178 ], [ -54.836932346, -10.242381706 ], [ -54.83683143, -10.242309432 ], [ -54.83674737, -10.242249229 ], [ -54.83657682, -10.242127083 ], [ -54.836562394, -10.242116751 ], [ -54.836377418, -10.241984273 ], [ -54.836322209, -10.241944734 ], [ -54.836192442, -10.241851796 ], [ -54.836067599, -10.241762385 ], [ -54.836007466, -10.241719318 ], [ -54.83582249, -10.241586841 ], [ -54.835812989, -10.241580036 ], [ -54.835637514, -10.241454363 ], [ -54.835558378, -10.241397687 ], [ -54.835452538, -10.241321886 ], [ -54.835303768, -10.241215339 ], [ -54.835267562, -10.241189408 ], [ -54.835082586, -10.24105693 ], [ -54.835049158, -10.24103299 ], [ -54.83489761, -10.240924453 ], [ -54.834794547, -10.240850641 ], [ -54.834712634, -10.240791975 ], [ -54.834539937, -10.240668292 ], [ -54.834527658, -10.240659498 ], [ -54.834342682, -10.24052702 ], [ -54.834285327, -10.240485943 ], [ -54.834157706, -10.240394543 ], [ -54.834030717, -10.240303594 ], [ -54.83397273, -10.240262065 ], [ -54.833787754, -10.240129587 ], [ -54.833776106, -10.240121246 ], [ -54.833602778, -10.23999711 ], [ -54.833521496, -10.239938897 ], [ -54.833417802, -10.239864632 ], [ -54.833266886, -10.239756548 ], [ -54.833232826, -10.239732155 ], [ -54.83304785, -10.239599677 ], [ -54.833012275, -10.239574199 ], [ -54.832862874, -10.2394672 ], [ -54.832757665, -10.23939185 ], [ -54.832677898, -10.239334722 ], [ -54.832503055, -10.239209501 ], [ -54.832492922, -10.239202244 ], [ -54.832307946, -10.239069767 ], [ -54.832248444, -10.239027152 ], [ -54.83212297, -10.238937289 ], [ -54.831993834, -10.238844804 ], [ -54.831937994, -10.238804812 ], [ -54.831753018, -10.238672334 ], [ -54.831739224, -10.238662455 ], [ -54.831568042, -10.238539857 ], [ -54.831484613, -10.238480106 ], [ -54.831383066, -10.238407379 ], [ -54.831230003, -10.238297757 ], [ -54.83119809, -10.238274901 ], [ -54.831013114, -10.238142424 ], [ -54.830975393, -10.238115408 ], [ -54.830828138, -10.238009946 ], [ -54.830720782, -10.237933059 ], [ -54.830643162, -10.237877469 ], [ -54.830466172, -10.237750711 ], [ -54.830458186, -10.237744991 ], [ -54.83027321, -10.237612514 ], [ -54.830211562, -10.237568362 ], [ -54.830088234, -10.237480036 ], [ -54.829956951, -10.237386013 ], [ -54.829903258, -10.237347558 ], [ -54.829718282, -10.237215081 ], [ -54.829702341, -10.237203664 ], [ -54.829533306, -10.237082603 ], [ -54.829447731, -10.237021315 ], [ -54.82934833, -10.236950126 ], [ -54.829193121, -10.236838966 ], [ -54.829163354, -10.236817648 ], [ -54.828978378, -10.23668517 ], [ -54.82893851, -10.236656617 ], [ -54.828793402, -10.236552693 ], [ -54.8286839, -10.236474269 ], [ -54.828608426, -10.236420215 ], [ -54.82842929, -10.23629192 ], [ -54.82842345, -10.236287738 ], [ -54.828238474, -10.23615526 ], [ -54.828174679, -10.236109571 ], [ -54.828053498, -10.236022783 ], [ -54.82804623, -10.236017577 ], [ -54.827918677, -10.235927222 ], [ -54.827868522, -10.235891694 ], [ -54.827683546, -10.235760662 ], [ -54.827661258, -10.235744873 ], [ -54.82749857, -10.235629629 ], [ -54.827403839, -10.235562524 ], [ -54.827313594, -10.235498597 ], [ -54.82714642, -10.235380176 ], [ -54.827128618, -10.235367565 ], [ -54.826943642, -10.235236533 ], [ -54.826889001, -10.235197827 ], [ -54.826758666, -10.235105501 ], [ -54.826631583, -10.235015478 ], [ -54.82657369, -10.234974469 ], [ -54.826388714, -10.234843437 ], [ -54.826374164, -10.234833129 ], [ -54.826203739, -10.234712404 ], [ -54.826116745, -10.23465078 ], [ -54.826018763, -10.234581372 ], [ -54.825859326, -10.234468431 ], [ -54.825833787, -10.234476432 ], [ -54.825795811, -10.234488328 ], [ -54.825648811, -10.234564606 ], [ -54.825531868, -10.234625288 ], [ -54.825489223, -10.23465078 ], [ -54.825463835, -10.234665957 ], [ -54.825278859, -10.234776532 ], [ -54.82518418, -10.234833129 ], [ -54.825093883, -10.234887107 ], [ -54.824908907, -10.234997682 ], [ -54.824879137, -10.235015478 ], [ -54.824859702, -10.235027096 ], [ -54.824723931, -10.235110582 ], [ -54.824582047, -10.235197827 ], [ -54.824538955, -10.235224325 ], [ -54.824353979, -10.235338067 ], [ -54.824285499, -10.235380176 ], [ -54.824169003, -10.23545181 ], [ -54.824063781, -10.235516511 ], [ -54.823984027, -10.235558729 ], [ -54.823976857, -10.235562524 ], [ -54.823935304, -10.235584521 ], [ -54.823830443, -10.23562521 ], [ -54.823799051, -10.235634316 ], [ -54.82365489, -10.235676133 ], [ -54.823614075, -10.235685189 ], [ -54.823462015, -10.23571893 ], [ -54.823429099, -10.235724601 ], [ -54.823311429, -10.235744873 ], [ -54.823244123, -10.235756469 ], [ -54.823091828, -10.235782707 ], [ -54.823059147, -10.235786856 ], [ -54.822938536, -10.235802169 ], [ -54.822874171, -10.235815066 ], [ -54.822689195, -10.235852128 ], [ -54.822572429, -10.235875523 ], [ -54.822504219, -10.235893064 ], [ -54.822371386, -10.235927222 ], [ -54.822319243, -10.235940631 ], [ -54.822285943, -10.235949194 ], [ -54.822160948, -10.235992104 ], [ -54.822134267, -10.236003843 ], [ -54.822107248, -10.236015731 ], [ -54.821975255, -10.23608603 ], [ -54.821949291, -10.236100549 ], [ -54.821933158, -10.236109571 ], [ -54.821764315, -10.236203987 ], [ -54.821607065, -10.23629192 ], [ -54.821602402, -10.236294527 ], [ -54.821579339, -10.236309891 ], [ -54.821394363, -10.236433116 ], [ -54.821332588, -10.236474269 ], [ -54.821331265, -10.23647515 ], [ -54.821209387, -10.236550885 ], [ -54.821039237, -10.236656617 ], [ -54.821024411, -10.23666583 ], [ -54.820938002, -10.236719525 ], [ -54.820922307, -10.236738228 ], [ -54.820905319, -10.236769716 ], [ -54.820896148, -10.236807714 ], [ -54.820895441, -10.236838966 ], [ -54.820893373, -10.236930377 ], [ -54.820905871, -10.237021315 ], [ -54.820906789, -10.237027994 ], [ -54.820901389, -10.237085243 ], [ -54.820881597, -10.237203664 ], [ -54.820861964, -10.237321136 ], [ -54.820857616, -10.237386013 ], [ -54.820845397, -10.237568362 ], [ -54.820839435, -10.237657328 ], [ -54.820840807, -10.237750711 ], [ -54.820843348, -10.237923568 ], [ -54.820844537, -10.237933059 ], [ -54.820853549, -10.238004982 ], [ -54.82087798, -10.23809744 ], [ -54.820886959, -10.238115408 ], [ -54.82091608, -10.23817368 ], [ -54.820940131, -10.238206436 ], [ -54.820983128, -10.238238888 ], [ -54.821017743, -10.238251529 ], [ -54.821024411, -10.238253089 ], [ -54.821045478, -10.238258018 ], [ -54.821049644, -10.238258181 ], [ -54.821209387, -10.238228595 ], [ -54.8213458, -10.23820333 ], [ -54.821394363, -10.238160163 ], [ -54.821444712, -10.238115408 ], [ -54.821579339, -10.23799574 ], [ -54.8216113, -10.23796733 ], [ -54.82161644, -10.237933059 ], [ -54.821643793, -10.237750711 ], [ -54.821649461, -10.237712926 ], [ -54.821646854, -10.237703465 ], [ -54.821643996, -10.237661612 ], [ -54.821649204, -10.23758081 ], [ -54.821651488, -10.237568362 ], [ -54.821669693, -10.237469128 ], [ -54.821689132, -10.237386013 ], [ -54.821718912, -10.237258686 ], [ -54.821741087, -10.237203664 ], [ -54.821742574, -10.237199975 ], [ -54.821754421, -10.237177044 ], [ -54.821764315, -10.237140767 ], [ -54.8217883, -10.23705282 ], [ -54.821816757, -10.237021315 ], [ -54.821949291, -10.236874584 ], [ -54.821962635, -10.236859811 ], [ -54.821964671, -10.236857322 ], [ -54.821965946, -10.236856145 ], [ -54.821981462, -10.236838966 ], [ -54.822134267, -10.236669794 ], [ -54.822146169, -10.236656617 ], [ -54.82220131, -10.23659557 ], [ -54.8222798, -10.236656617 ], [ -54.822301337, -10.236673368 ], [ -54.822319243, -10.236665025 ], [ -54.822337287, -10.236656617 ], [ -54.822341162, -10.236654812 ], [ -54.82239959, -10.236621096 ], [ -54.822504219, -10.236549487 ], [ -54.822577313, -10.236499461 ], [ -54.822620076, -10.236474269 ], [ -54.82262072, -10.236473889 ], [ -54.822689195, -10.23641425 ], [ -54.822829648, -10.23629192 ], [ -54.822874171, -10.236253142 ], [ -54.823039011, -10.236109571 ], [ -54.82305682, -10.23609406 ], [ -54.82305682, -10.236109571 ], [ -54.82305682, -10.236165837 ], [ -54.823059147, -10.236164655 ], [ -54.823118992, -10.236134266 ], [ -54.823144729, -10.236131988 ], [ -54.823175679, -10.236144974 ], [ -54.823197644, -10.236160705 ], [ -54.823223595, -10.236204505 ], [ -54.823228638, -10.236268764 ], [ -54.82322494, -10.23629192 ], [ -54.823215221, -10.236352775 ], [ -54.823183245, -10.23644861 ], [ -54.823169205, -10.236474269 ], [ -54.823139829, -10.236527955 ], [ -54.823078384, -10.236626294 ], [ -54.823063597, -10.236656617 ], [ -54.823059147, -10.236665744 ], [ -54.823058422, -10.23666723 ], [ -54.822996461, -10.236811564 ], [ -54.822991155, -10.236838966 ], [ -54.822984165, -10.236875071 ], [ -54.822975053, -10.237021315 ], [ -54.822974926, -10.237023354 ], [ -54.822989971, -10.237102132 ], [ -54.823016454, -10.237157177 ], [ -54.823041109, -10.237185856 ], [ -54.823056129, -10.237198476 ], [ -54.823059147, -10.237196619 ], [ -54.82310107, -10.23717082 ], [ -54.823177705, -10.237203664 ], [ -54.823244123, -10.237232129 ], [ -54.82341082, -10.23730357 ], [ -54.823429099, -10.237344192 ], [ -54.823447918, -10.237386013 ], [ -54.823529972, -10.237568362 ], [ -54.82354357, -10.23759858 ], [ -54.823614075, -10.237619945 ], [ -54.823799051, -10.237675997 ], [ -54.823984027, -10.237732049 ], [ -54.82403033, -10.23774608 ], [ -54.824034552, -10.237750711 ], [ -54.824169003, -10.237898172 ], [ -54.824200812, -10.237933059 ], [ -54.824278317, -10.238018065 ], [ -54.824353979, -10.238073099 ], [ -54.824412146, -10.238115408 ], [ -54.824468994, -10.238156757 ], [ -54.824538955, -10.23820095 ], [ -54.824692209, -10.238297757 ], [ -54.824723931, -10.238317795 ], [ -54.824728597, -10.238320743 ], [ -54.824908907, -10.238405819 ], [ -54.825009404, -10.238453237 ], [ -54.825047268, -10.238480106 ], [ -54.825053341, -10.238484415 ], [ -54.825093883, -10.238501387 ], [ -54.82512184, -10.23851309 ], [ -54.825184854, -10.238662455 ], [ -54.825261784, -10.238844804 ], [ -54.825278859, -10.238885277 ], [ -54.825338713, -10.239027152 ], [ -54.825415642, -10.239209501 ], [ -54.825418206, -10.239215579 ], [ -54.825463835, -10.239271076 ], [ -54.825563134, -10.23939185 ], [ -54.825648811, -10.239496057 ], [ -54.825713058, -10.239574199 ], [ -54.825816009, -10.239699415 ], [ -54.825833787, -10.239711736 ], [ -54.825898449, -10.239756548 ], [ -54.826018763, -10.239839927 ], [ -54.826161573, -10.239938897 ], [ -54.826203739, -10.239938897 ], [ -54.826203739, -10.239756548 ], [ -54.826388714, -10.239756548 ], [ -54.826388714, -10.239574199 ], [ -54.82657369, -10.239574199 ], [ -54.82657369, -10.23939185 ], [ -54.826758666, -10.23939185 ], [ -54.826758666, -10.239209501 ], [ -54.826943642, -10.239209501 ], [ -54.827128618, -10.239209501 ], [ -54.827313594, -10.239209501 ], [ -54.82749857, -10.239209501 ], [ -54.827683546, -10.239209501 ], [ -54.827868522, -10.239209501 ], [ -54.828053498, -10.239209501 ], [ -54.828238474, -10.239209501 ], [ -54.82842345, -10.239209501 ], [ -54.828608426, -10.239209501 ], [ -54.828793402, -10.239209501 ], [ -54.828978378, -10.239209501 ], [ -54.828978378, -10.23939185 ], [ -54.829163354, -10.23939185 ], [ -54.829163354, -10.239574199 ], [ -54.829163354, -10.239756548 ], [ -54.829163354, -10.239938897 ], [ -54.829163354, -10.240121246 ], [ -54.829163354, -10.240303594 ], [ -54.829163354, -10.240485943 ], [ -54.829163354, -10.240668292 ], [ -54.829163354, -10.240850641 ], [ -54.829163354, -10.24103299 ], [ -54.829163354, -10.241215339 ], [ -54.829163354, -10.241397687 ], [ -54.828978378, -10.241397687 ], [ -54.828978378, -10.241580036 ], [ -54.828793402, -10.241580036 ], [ -54.828793402, -10.241762385 ], [ -54.828793402, -10.241797669 ], [ -54.828978378, -10.241927371 ], [ -54.829003141, -10.241944734 ], [ -54.829163354, -10.242057073 ], [ -54.829263199, -10.242127083 ], [ -54.82934833, -10.242186775 ], [ -54.829523258, -10.242309432 ], [ -54.829533306, -10.242316477 ], [ -54.82961209, -10.242371718 ], [ -54.82965014, -10.24236288 ], [ -54.829718282, -10.24242235 ], [ -54.829797838, -10.24249178 ], [ -54.829857192, -10.24254358 ], [ -54.829884082, -10.242562435 ], [ -54.829903258, -10.242582179 ], [ -54.829913484, -10.242592707 ], [ -54.83000678, -10.242674129 ], [ -54.83001017, -10.242677088 ], [ -54.830069691, -10.242728265 ], [ -54.830088234, -10.242742753 ], [ -54.830233795, -10.242856478 ], [ -54.83027321, -10.242887273 ], [ -54.830365275, -10.242959203 ], [ -54.830452634, -10.243038827 ], [ -54.830458186, -10.243043888 ], [ -54.830643162, -10.243212487 ], [ -54.830652695, -10.243221176 ], [ -54.83067378, -10.243240393 ], [ -54.830747153, -10.243311169 ], [ -54.830828138, -10.243363085 ], [ -54.830891223, -10.243403525 ], [ -54.831013114, -10.243481663 ], [ -54.83115466, -10.2435724 ], [ -54.831187733, -10.243585874 ], [ -54.83119809, -10.243590093 ], [ -54.831202481, -10.243591882 ], [ -54.831383066, -10.243640157 ], [ -54.831568042, -10.243689606 ], [ -54.831686587, -10.243721296 ], [ -54.831753018, -10.243732151 ], [ -54.83181559, -10.243742375 ], [ -54.831937994, -10.243745975 ], [ -54.83205442, -10.2437494 ], [ -54.832092066, -10.243768222 ], [ -54.83212297, -10.243783674 ], [ -54.832124095, -10.243784236 ], [ -54.832261228, -10.243827772 ], [ -54.832307946, -10.24384577 ], [ -54.832490858, -10.243916235 ], [ -54.832492922, -10.243917446 ], [ -54.832549388, -10.243950571 ], [ -54.832639591, -10.244003489 ], [ -54.832677898, -10.244033479 ], [ -54.832804916, -10.24413292 ], [ -54.832808318, -10.244135583 ], [ -54.832862874, -10.244170206 ], [ -54.832879391, -10.244180689 ], [ -54.832944901, -10.24420865 ], [ -54.833023588, -10.244226154 ], [ -54.83304785, -10.244227202 ], [ -54.833089727, -10.244229012 ], [ -54.833164771, -10.244224592 ], [ -54.833232826, -10.244213437 ], [ -54.833269256, -10.244207466 ], [ -54.833417802, -10.244191145 ], [ -54.833464109, -10.244186057 ], [ -54.833518966, -10.244189946 ], [ -54.833602778, -10.244208659 ], [ -54.833662424, -10.244221976 ], [ -54.833699247, -10.24424049 ], [ -54.833787754, -10.244272721 ], [ -54.833804409, -10.244278786 ], [ -54.833871436, -10.244315269 ], [ -54.833933472, -10.244349035 ], [ -54.83397273, -10.244360199 ], [ -54.834009151, -10.244370555 ], [ -54.834077097, -10.244383278 ], [ -54.834121246, -10.244386614 ], [ -54.834157706, -10.244386645 ], [ -54.834188656, -10.24438667 ], [ -54.834242671, -10.244378469 ], [ -54.834308436, -10.244363458 ], [ -54.834342682, -10.244351751 ], [ -54.834349695, -10.244349354 ], [ -54.834411272, -10.244315269 ], [ -54.834500499, -10.244265879 ], [ -54.834527658, -10.244243654 ], [ -54.834541631, -10.24423222 ], [ -54.834527658, -10.244220934 ], [ -54.83447345, -10.24417715 ], [ -54.834527658, -10.244157915 ], [ -54.834598101, -10.24413292 ], [ -54.834712634, -10.24409228 ], [ -54.834717263, -10.244090638 ], [ -54.834773703, -10.244065962 ], [ -54.834815005, -10.244055955 ], [ -54.83489761, -10.244026645 ], [ -54.83493071, -10.2440149 ], [ -54.835008989, -10.244038863 ], [ -54.835009042, -10.244038873 ], [ -54.835082586, -10.244053867 ], [ -54.835154613, -10.244068553 ], [ -54.835229977, -10.244100438 ], [ -54.835262062, -10.244116334 ], [ -54.835267562, -10.244118017 ], [ -54.835316243, -10.24413292 ], [ -54.835452538, -10.244174643 ], [ -54.835637514, -10.244231268 ], [ -54.83565346, -10.24423615 ], [ -54.83582249, -10.244213826 ], [ -54.836007466, -10.244189395 ], [ -54.836192442, -10.244164965 ], [ -54.836377418, -10.244140535 ], [ -54.836435071, -10.24413292 ], [ -54.83643522, -10.2441329 ], [ -54.836435323, -10.24413292 ], [ -54.836562394, -10.244157123 ], [ -54.83674498, -10.2441919 ], [ -54.836725614, -10.244262909 ], [ -54.83674737, -10.244271799 ], [ -54.836853749, -10.244315269 ], [ -54.836932346, -10.244347386 ], [ -54.836985656, -10.24436917 ], [ -54.837117322, -10.244376485 ], [ -54.83724648, -10.24438366 ], [ -54.837302297, -10.24438211 ], [ -54.837487273, -10.244376972 ], [ -54.837672249, -10.244371834 ], [ -54.83777749, -10.24436891 ], [ -54.837855468, -10.244399544 ], [ -54.837857225, -10.244399856 ], [ -54.837931631, -10.24441308 ], [ -54.837968614, -10.244423783 ], [ -54.838042201, -10.244453137 ], [ -54.838087742, -10.244471303 ], [ -54.838199748, -10.244494983 ], [ -54.838227177, -10.244496477 ], [ -54.838248112, -10.244497618 ], [ -54.838412153, -10.24440213 ], [ -54.838561376, -10.244315269 ], [ -54.838597129, -10.244294457 ], [ -54.838782105, -10.244186784 ], [ -54.83887464, -10.24413292 ], [ -54.838967081, -10.24407911 ], [ -54.839152057, -10.243971437 ], [ -54.839122923, -10.243950571 ], [ -54.838967081, -10.243838959 ], [ -54.838868312, -10.243768222 ] ] ] ] } }
]
}
