{
"type": "FeatureCollection",
"name": "507_UREIA",
"crs": { "type": "name", "properties": { "name": "urn:ogc:def:crs:OGC:1.3:CRS84" } },
"features": [
{ "type": "Feature", "properties": { "RX": 72.62, "DOSE": 72.62, "zone": 4.0, "fert_kg_ha": 72.62, "DOSAGEM": 72 }, "geometry": { "type": "MultiPolygon", "coordinates": [ [ [ [ -54.833791676, -10.249976249 ], [ -54.833791676, -10.249796208 ], [ -54.833608729, -10.249796208 ], [ -54.833608729, -10.249616166 ], [ -54.833425782, -10.249616166 ], [ -54.833425782, -10.249436125 ], [ -54.833242835, -10.249436125 ], [ -54.833059888, -10.249436125 ], [ -54.833059888, -10.249256083 ], [ -54.832876941, -10.249256083 ], [ -54.832876941, -10.249076042 ], [ -54.832693994, -10.249076042 ], [ -54.832693994, -10.248896 ], [ -54.832511047, -10.248896 ], [ -54.832511047, -10.248715959 ], [ -54.832511047, -10.248535917 ], [ -54.832328101, -10.248535917 ], [ -54.832328101, -10.248355875 ], [ -54.832511047, -10.248355875 ], [ -54.832511047, -10.248175834 ], [ -54.832511047, -10.247995792 ], [ -54.832693994, -10.247995792 ], [ -54.832693994, -10.247815751 ], [ -54.832876941, -10.247815751 ], [ -54.832876941, -10.247635709 ], [ -54.833059888, -10.247635709 ], [ -54.833059888, -10.247455668 ], [ -54.833242835, -10.247455668 ], [ -54.833242835, -10.247275626 ], [ -54.833425782, -10.247275626 ], [ -54.833425782, -10.247095585 ], [ -54.833608729, -10.247095585 ], [ -54.833608729, -10.246915543 ], [ -54.833791676, -10.246915543 ], [ -54.833791676, -10.246735502 ], [ -54.833791676, -10.24655546 ], [ -54.83382074, -10.24655546 ], [ -54.833791676, -10.246533656 ], [ -54.833641584, -10.246421054 ], [ -54.833608729, -10.246397674 ], [ -54.833577454, -10.246375418 ], [ -54.833425782, -10.246267485 ], [ -54.833425782, -10.246375418 ], [ -54.833425782, -10.24655546 ], [ -54.833242835, -10.24655546 ], [ -54.833242835, -10.246735502 ], [ -54.833059888, -10.246735502 ], [ -54.833059888, -10.246915543 ], [ -54.832876941, -10.246915543 ], [ -54.832876941, -10.247095585 ], [ -54.832693994, -10.247095585 ], [ -54.832693994, -10.247275626 ], [ -54.832511047, -10.247275626 ], [ -54.832511047, -10.247455668 ], [ -54.832328101, -10.247455668 ], [ -54.832328101, -10.247635709 ], [ -54.832145154, -10.247635709 ], [ -54.832145154, -10.247815751 ], [ -54.831962207, -10.247815751 ], [ -54.831962207, -10.247995792 ], [ -54.83177926, -10.247995792 ], [ -54.831596313, -10.247995792 ], [ -54.831596313, -10.248175834 ], [ -54.831413366, -10.248175834 ], [ -54.831230419, -10.248175834 ], [ -54.831047472, -10.248175834 ], [ -54.831047472, -10.247995792 ], [ -54.830864525, -10.247995792 ], [ -54.830864525, -10.247815751 ], [ -54.830864525, -10.247635709 ], [ -54.830681578, -10.247635709 ], [ -54.830681578, -10.247455668 ], [ -54.830864525, -10.247455668 ], [ -54.830864525, -10.247275626 ], [ -54.830864525, -10.247095585 ], [ -54.830864525, -10.246915543 ], [ -54.830864525, -10.246735502 ], [ -54.830864525, -10.24655546 ], [ -54.830864525, -10.246375418 ], [ -54.830864525, -10.246195377 ], [ -54.830864525, -10.246015335 ], [ -54.830864525, -10.245959718 ], [ -54.830806297, -10.245941771 ], [ -54.830681578, -10.245886629 ], [ -54.83056547, -10.245835294 ], [ -54.830498631, -10.245805742 ], [ -54.830425194, -10.245773274 ], [ -54.830315685, -10.245742614 ], [ -54.830263467, -10.245727994 ], [ -54.830132738, -10.245707893 ], [ -54.830098822, -10.245702678 ], [ -54.830018514, -10.245698416 ], [ -54.829949791, -10.245700963 ], [ -54.829949791, -10.245835294 ], [ -54.830132738, -10.245835294 ], [ -54.830132738, -10.246015335 ], [ -54.830315685, -10.246015335 ], [ -54.830315685, -10.246195377 ], [ -54.830315685, -10.246375418 ], [ -54.830315685, -10.24655546 ], [ -54.830315685, -10.246735502 ], [ -54.830315685, -10.246915543 ], [ -54.830315685, -10.247095585 ], [ -54.830132738, -10.247095585 ], [ -54.830132738, -10.247275626 ], [ -54.829949791, -10.247275626 ], [ -54.829766844, -10.247275626 ], [ -54.829766844, -10.247455668 ], [ -54.829583897, -10.247455668 ], [ -54.82940095, -10.247455668 ], [ -54.82940095, -10.247275626 ], [ -54.829218003, -10.247275626 ], [ -54.829035056, -10.247275626 ], [ -54.829035056, -10.247095585 ], [ -54.829035056, -10.246915543 ], [ -54.828852109, -10.246915543 ], [ -54.828852109, -10.246735502 ], [ -54.829035056, -10.246735502 ], [ -54.829035056, -10.24655546 ], [ -54.829035056, -10.246375418 ], [ -54.829035056, -10.246195377 ], [ -54.829218003, -10.246195377 ], [ -54.829218003, -10.246015335 ], [ -54.82940095, -10.246015335 ], [ -54.82940095, -10.245835294 ], [ -54.829583897, -10.245835294 ], [ -54.829766844, -10.245835294 ], [ -54.829766844, -10.245713767 ], [ -54.82973625, -10.245708386 ], [ -54.829609622, -10.245655252 ], [ -54.829583897, -10.245644458 ], [ -54.829536794, -10.245624693 ], [ -54.82940095, -10.245561697 ], [ -54.829219725, -10.245477657 ], [ -54.829218003, -10.245476775 ], [ -54.829214948, -10.245475211 ], [ -54.829035056, -10.245475211 ], [ -54.829035056, -10.245655252 ], [ -54.828852109, -10.245655252 ], [ -54.828852109, -10.245835294 ], [ -54.828852109, -10.246015335 ], [ -54.828669162, -10.246015335 ], [ -54.828669162, -10.246195377 ], [ -54.828486215, -10.246195377 ], [ -54.828486215, -10.246375418 ], [ -54.828486215, -10.24655546 ], [ -54.828303268, -10.24655546 ], [ -54.828303268, -10.246735502 ], [ -54.828303268, -10.246915543 ], [ -54.828303268, -10.247095585 ], [ -54.828120322, -10.247095585 ], [ -54.828120322, -10.247275626 ], [ -54.828120322, -10.247455668 ], [ -54.828120322, -10.247635709 ], [ -54.828120322, -10.247815751 ], [ -54.828120322, -10.247995792 ], [ -54.828120322, -10.248175834 ], [ -54.828303268, -10.248175834 ], [ -54.828303268, -10.248355875 ], [ -54.828303268, -10.248535917 ], [ -54.828486215, -10.248535917 ], [ -54.828669162, -10.248535917 ], [ -54.828669162, -10.248715959 ], [ -54.828852109, -10.248715959 ], [ -54.828852109, -10.248896 ], [ -54.829035056, -10.248896 ], [ -54.829035056, -10.249076042 ], [ -54.829218003, -10.249076042 ], [ -54.82940095, -10.249076042 ], [ -54.82940095, -10.249256083 ], [ -54.829583897, -10.249256083 ], [ -54.829766844, -10.249256083 ], [ -54.829949791, -10.249256083 ], [ -54.829949791, -10.249436125 ], [ -54.830132738, -10.249436125 ], [ -54.830315685, -10.249436125 ], [ -54.830498631, -10.249436125 ], [ -54.830681578, -10.249436125 ], [ -54.830864525, -10.249436125 ], [ -54.831047472, -10.249436125 ], [ -54.831230419, -10.249436125 ], [ -54.831230419, -10.249256083 ], [ -54.831413366, -10.249256083 ], [ -54.831596313, -10.249256083 ], [ -54.83177926, -10.249256083 ], [ -54.831962207, -10.249256083 ], [ -54.832145154, -10.249256083 ], [ -54.832328101, -10.249256083 ], [ -54.832328101, -10.249436125 ], [ -54.832511047, -10.249436125 ], [ -54.832693994, -10.249436125 ], [ -54.832693994, -10.249616166 ], [ -54.832876941, -10.249616166 ], [ -54.833059888, -10.249616166 ], [ -54.833059888, -10.249796208 ], [ -54.833242835, -10.249796208 ], [ -54.833242835, -10.249976249 ], [ -54.833425782, -10.249976249 ], [ -54.833425782, -10.250156291 ], [ -54.833608729, -10.250156291 ], [ -54.833608729, -10.250336332 ], [ -54.833608729, -10.250516374 ], [ -54.833791676, -10.250516374 ], [ -54.833791676, -10.250587443 ], [ -54.83391769, -10.250516374 ], [ -54.833974623, -10.250484266 ], [ -54.83415757, -10.250381088 ], [ -54.83415757, -10.250336332 ], [ -54.83415757, -10.250156291 ], [ -54.833974623, -10.250156291 ], [ -54.833974623, -10.249976249 ], [ -54.833791676, -10.249976249 ] ] ], [ [ [ -54.830864525, -10.251596623 ], [ -54.830864525, -10.251416582 ], [ -54.830681578, -10.251416582 ], [ -54.830681578, -10.25123654 ], [ -54.830498631, -10.25123654 ], [ -54.830315685, -10.25123654 ], [ -54.830132738, -10.25123654 ], [ -54.830132738, -10.251056499 ], [ -54.829949791, -10.251056499 ], [ -54.829766844, -10.251056499 ], [ -54.829583897, -10.251056499 ], [ -54.829583897, -10.250876457 ], [ -54.82940095, -10.250876457 ], [ -54.829218003, -10.250876457 ], [ -54.829035056, -10.250876457 ], [ -54.828852109, -10.250876457 ], [ -54.828852109, -10.250696416 ], [ -54.828669162, -10.250696416 ], [ -54.828669162, -10.250876457 ], [ -54.828486215, -10.250876457 ], [ -54.828303268, -10.250876457 ], [ -54.828120322, -10.250876457 ], [ -54.828120322, -10.251056499 ], [ -54.827937375, -10.251056499 ], [ -54.827754428, -10.251056499 ], [ -54.827754428, -10.25123654 ], [ -54.827676671, -10.25123654 ], [ -54.827754428, -10.251339545 ], [ -54.827812582, -10.251416582 ], [ -54.827937375, -10.251581894 ], [ -54.827948493, -10.251596623 ], [ -54.828084404, -10.251776665 ], [ -54.828120322, -10.251824244 ], [ -54.828120322, -10.251776665 ], [ -54.828303268, -10.251776665 ], [ -54.828303268, -10.251596623 ], [ -54.828486215, -10.251596623 ], [ -54.828486215, -10.251416582 ], [ -54.828669162, -10.251416582 ], [ -54.828852109, -10.251416582 ], [ -54.828852109, -10.251596623 ], [ -54.829035056, -10.251596623 ], [ -54.829218003, -10.251596623 ], [ -54.82940095, -10.251596623 ], [ -54.82940095, -10.251776665 ], [ -54.829583897, -10.251776665 ], [ -54.829766844, -10.251776665 ], [ -54.829766844, -10.251956706 ], [ -54.829949791, -10.251956706 ], [ -54.829949791, -10.252136748 ], [ -54.830132738, -10.252136748 ], [ -54.830132738, -10.252316789 ], [ -54.830315685, -10.252316789 ], [ -54.830315685, -10.252496831 ], [ -54.830315685, -10.252547825 ], [ -54.830406103, -10.252496831 ], [ -54.830498631, -10.252444647 ], [ -54.830681578, -10.252341469 ], [ -54.830725338, -10.252316789 ], [ -54.830864525, -10.252238291 ], [ -54.831044573, -10.252136748 ], [ -54.831047472, -10.252135113 ], [ -54.831230419, -10.252031935 ], [ -54.831363808, -10.251956706 ], [ -54.831230419, -10.251956706 ], [ -54.831230419, -10.251776665 ], [ -54.831230419, -10.251596623 ], [ -54.831047472, -10.251596623 ], [ -54.830864525, -10.251596623 ] ] ], [ [ [ -54.825742012, -10.244755045 ], [ -54.825742012, -10.244575003 ], [ -54.825742012, -10.244394961 ], [ -54.825742012, -10.24421492 ], [ -54.825559065, -10.24421492 ], [ -54.825559065, -10.244034878 ], [ -54.825559065, -10.243854837 ], [ -54.825559065, -10.243674795 ], [ -54.825559065, -10.243494754 ], [ -54.825559065, -10.243314712 ], [ -54.825559065, -10.243134671 ], [ -54.825559065, -10.242954629 ], [ -54.825742012, -10.242954629 ], [ -54.825742012, -10.242774588 ], [ -54.825742012, -10.242594546 ], [ -54.825742012, -10.242414505 ], [ -54.825924959, -10.242414505 ], [ -54.825924959, -10.242268386 ], [ -54.825861881, -10.242253454 ], [ -54.825824823, -10.242234463 ], [ -54.825819513, -10.242231742 ], [ -54.825752513, -10.242179126 ], [ -54.825742012, -10.242161335 ], [ -54.825717949, -10.242120568 ], [ -54.82566213, -10.242054421 ], [ -54.825646649, -10.242036076 ], [ -54.825584911, -10.241974322 ], [ -54.825559065, -10.241953332 ], [ -54.825461845, -10.24187438 ], [ -54.825459495, -10.241872472 ], [ -54.825376118, -10.241812713 ], [ -54.825376118, -10.24187438 ], [ -54.825376118, -10.242054421 ], [ -54.825376118, -10.242234463 ], [ -54.825376118, -10.242414505 ], [ -54.825193171, -10.242414505 ], [ -54.825193171, -10.242594546 ], [ -54.825193171, -10.242774588 ], [ -54.825193171, -10.242954629 ], [ -54.825193171, -10.243134671 ], [ -54.825193171, -10.243314712 ], [ -54.825193171, -10.243494754 ], [ -54.825193171, -10.243674795 ], [ -54.825193171, -10.243854837 ], [ -54.825193171, -10.244034878 ], [ -54.825376118, -10.244034878 ], [ -54.825376118, -10.24421492 ], [ -54.825376118, -10.244394961 ], [ -54.825376118, -10.244575003 ], [ -54.825376118, -10.244755045 ], [ -54.825376118, -10.244935086 ], [ -54.825376118, -10.245115128 ], [ -54.825193171, -10.245115128 ], [ -54.825193171, -10.245295169 ], [ -54.825193171, -10.245475211 ], [ -54.825010224, -10.245475211 ], [ -54.825010224, -10.245655252 ], [ -54.824827277, -10.245655252 ], [ -54.82464433, -10.245655252 ], [ -54.82464433, -10.245835294 ], [ -54.824461383, -10.245835294 ], [ -54.824278436, -10.245835294 ], [ -54.824278436, -10.246015335 ], [ -54.824095489, -10.246015335 ], [ -54.823912543, -10.246015335 ], [ -54.823912543, -10.246195377 ], [ -54.823882454, -10.246195377 ], [ -54.823912543, -10.246235295 ], [ -54.824018161, -10.246375418 ], [ -54.824095489, -10.246478011 ], [ -54.824095489, -10.246375418 ], [ -54.824278436, -10.246375418 ], [ -54.824461383, -10.246375418 ], [ -54.824461383, -10.246195377 ], [ -54.82464433, -10.246195377 ], [ -54.824827277, -10.246195377 ], [ -54.824827277, -10.246015335 ], [ -54.825010224, -10.246015335 ], [ -54.825010224, -10.245835294 ], [ -54.825193171, -10.245835294 ], [ -54.825193171, -10.245655252 ], [ -54.825376118, -10.245655252 ], [ -54.825376118, -10.245475211 ], [ -54.825559065, -10.245475211 ], [ -54.825559065, -10.245295169 ], [ -54.825559065, -10.245115128 ], [ -54.825742012, -10.245115128 ], [ -54.825742012, -10.244935086 ], [ -54.825742012, -10.244755045 ] ] ] ] } },
{ "type": "Feature", "properties": { "RX": 104.265, "DOSE": 104.265, "zone": 6.0, "fert_kg_ha": 104.265, "DOSAGEM": 104 }, "geometry": { "type": "MultiPolygon", "coordinates": [ [ [ [ -54.837630801, -10.248349314 ], [ -54.837633561, -10.248317073 ], [ -54.837611723, -10.248175834 ], [ -54.837601775, -10.248111498 ], [ -54.837566983, -10.247995792 ], [ -54.837552536, -10.247947749 ], [ -54.837502933, -10.247815751 ], [ -54.837450614, -10.247676526 ], [ -54.837435276, -10.247635709 ], [ -54.837393134, -10.247523565 ], [ -54.837365567, -10.247455668 ], [ -54.837311191, -10.247321736 ], [ -54.8372886, -10.247275626 ], [ -54.837267667, -10.247232901 ], [ -54.837261067, -10.24721943 ], [ -54.837223253, -10.247159946 ], [ -54.837191207, -10.247120946 ], [ -54.83716535, -10.247095585 ], [ -54.837154331, -10.247084777 ], [ -54.83711188, -10.247055662 ], [ -54.83708472, -10.247042919 ], [ -54.837074711, -10.247038222 ], [ -54.837024064, -10.247022538 ], [ -54.836981469, -10.247015625 ], [ -54.836931321, -10.247014344 ], [ -54.836901773, -10.247016981 ], [ -54.836860063, -10.247020702 ], [ -54.836718826, -10.247049989 ], [ -54.83653588, -10.247087926 ], [ -54.836498948, -10.247095585 ], [ -54.836484923, -10.247098493 ], [ -54.836443989, -10.247103023 ], [ -54.836352933, -10.247099315 ], [ -54.836261346, -10.247095585 ], [ -54.836239529, -10.247094696 ], [ -54.836169986, -10.247095345 ], [ -54.836144293, -10.247095585 ], [ -54.836098503, -10.247096012 ], [ -54.836082046, -10.247095585 ], [ -54.835987039, -10.247093118 ], [ -54.835906886, -10.247091038 ], [ -54.835804092, -10.247092428 ], [ -54.835661777, -10.247094352 ], [ -54.83564026, -10.247095585 ], [ -54.835621145, -10.24709668 ], [ -54.835531276, -10.24710183 ], [ -54.835438198, -10.247112278 ], [ -54.835336452, -10.247123699 ], [ -54.83525878, -10.247137549 ], [ -54.835255251, -10.247138378 ], [ -54.835117685, -10.247170693 ], [ -54.835072304, -10.247183564 ], [ -54.834889357, -10.247235448 ], [ -54.834831836, -10.247251762 ], [ -54.834752675, -10.247264125 ], [ -54.834713755, -10.247265825 ], [ -54.83470641, -10.247264716 ], [ -54.834687774, -10.247261902 ], [ -54.834650382, -10.247247814 ], [ -54.834599619, -10.247220007 ], [ -54.834555615, -10.247188606 ], [ -54.834523464, -10.247158761 ], [ -54.834455406, -10.247095585 ], [ -54.834340517, -10.247095585 ], [ -54.834340517, -10.247275626 ], [ -54.83415757, -10.247275626 ], [ -54.83415757, -10.247455668 ], [ -54.833974623, -10.247455668 ], [ -54.833974623, -10.247635709 ], [ -54.833791676, -10.247635709 ], [ -54.833791676, -10.247815751 ], [ -54.833608729, -10.247815751 ], [ -54.833608729, -10.247995792 ], [ -54.833425782, -10.247995792 ], [ -54.833425782, -10.248175834 ], [ -54.833242835, -10.248175834 ], [ -54.833242835, -10.248355875 ], [ -54.833242835, -10.248535917 ], [ -54.833242835, -10.248715959 ], [ -54.833425782, -10.248715959 ], [ -54.833425782, -10.248896 ], [ -54.833608729, -10.248896 ], [ -54.833608729, -10.249076042 ], [ -54.833791676, -10.249076042 ], [ -54.833791676, -10.249256083 ], [ -54.833974623, -10.249256083 ], [ -54.833974623, -10.249436125 ], [ -54.83415757, -10.249436125 ], [ -54.83415757, -10.249616166 ], [ -54.834340517, -10.249616166 ], [ -54.834523464, -10.249616166 ], [ -54.834523464, -10.249796208 ], [ -54.83470641, -10.249796208 ], [ -54.83470641, -10.249976249 ], [ -54.834875401, -10.249976249 ], [ -54.834889357, -10.249968378 ], [ -54.835072304, -10.249865201 ], [ -54.835194638, -10.249796208 ], [ -54.835255251, -10.249762023 ], [ -54.835438198, -10.249658846 ], [ -54.835513875, -10.249616166 ], [ -54.835621145, -10.249555669 ], [ -54.835804092, -10.249452491 ], [ -54.835833111, -10.249436125 ], [ -54.835987039, -10.249349314 ], [ -54.836152348, -10.249256083 ], [ -54.836169986, -10.249246136 ], [ -54.836352933, -10.249142959 ], [ -54.836471585, -10.249076042 ], [ -54.8364815, -10.24907045 ], [ -54.83653588, -10.249038775 ], [ -54.836718826, -10.248932211 ], [ -54.836780994, -10.248896 ], [ -54.836901773, -10.248825648 ], [ -54.83708472, -10.248719085 ], [ -54.837090087, -10.248715959 ], [ -54.837267667, -10.248612521 ], [ -54.83739918, -10.248535917 ], [ -54.837450614, -10.248505958 ], [ -54.837598416, -10.248419866 ], [ -54.837617221, -10.24838974 ], [ -54.837628597, -10.248355875 ], [ -54.837630801, -10.248349314 ] ] ], [ [ [ -54.82464433, -10.243854837 ], [ -54.82464433, -10.243674795 ], [ -54.82464433, -10.243494754 ], [ -54.82464433, -10.243314712 ], [ -54.824461383, -10.243314712 ], [ -54.824461383, -10.243134671 ], [ -54.824461383, -10.242954629 ], [ -54.824461383, -10.242774588 ], [ -54.824461383, -10.242594546 ], [ -54.824461383, -10.242414505 ], [ -54.824461383, -10.242234463 ], [ -54.824278436, -10.242234463 ], [ -54.824278436, -10.242054421 ], [ -54.824278436, -10.24204108 ], [ -54.824261413, -10.242054421 ], [ -54.824166685, -10.242128662 ], [ -54.824095489, -10.242193788 ], [ -54.824056752, -10.242229223 ], [ -54.824052008, -10.242234463 ], [ -54.823956662, -10.242339775 ], [ -54.823912543, -10.242393536 ], [ -54.823895334, -10.242414505 ], [ -54.823878132, -10.242435466 ], [ -54.823765536, -10.242594546 ], [ -54.823751777, -10.242613986 ], [ -54.823729596, -10.242641144 ], [ -54.823620606, -10.242774588 ], [ -54.823576022, -10.242829176 ], [ -54.823546649, -10.242871986 ], [ -54.823541213, -10.242879908 ], [ -54.823505681, -10.242942485 ], [ -54.823500306, -10.242954629 ], [ -54.823432862, -10.243107002 ], [ -54.823424851, -10.243134671 ], [ -54.823372725, -10.243314712 ], [ -54.823363702, -10.243345878 ], [ -54.823338265, -10.243433735 ], [ -54.823322491, -10.243473607 ], [ -54.823310442, -10.243494754 ], [ -54.823260816, -10.243581851 ], [ -54.823193798, -10.243674795 ], [ -54.823180755, -10.243692885 ], [ -54.823171972, -10.243705066 ], [ -54.823134239, -10.243746633 ], [ -54.82307635, -10.243854837 ], [ -54.822997808, -10.244001646 ], [ -54.822980029, -10.244034878 ], [ -54.822898285, -10.244187671 ], [ -54.82288221, -10.24421492 ], [ -54.822816432, -10.244326424 ], [ -54.822814861, -10.244329372 ], [ -54.822779923, -10.244394961 ], [ -54.822695822, -10.244552846 ], [ -54.822688345, -10.244575003 ], [ -54.822631914, -10.244742221 ], [ -54.822634698, -10.244742433 ], [ -54.822701406, -10.244743478 ], [ -54.822752471, -10.244755045 ], [ -54.822767271, -10.244758397 ], [ -54.822814861, -10.244783857 ], [ -54.822837488, -10.244795962 ], [ -54.822869967, -10.244822772 ], [ -54.822899171, -10.244854358 ], [ -54.822954198, -10.244935086 ], [ -54.822997808, -10.244999064 ], [ -54.823076922, -10.245115128 ], [ -54.823109118, -10.245162362 ], [ -54.823180755, -10.24525976 ], [ -54.823206799, -10.245295169 ], [ -54.823322696, -10.245452745 ], [ -54.82333963, -10.245475211 ], [ -54.823363702, -10.245475211 ], [ -54.823546649, -10.245475211 ], [ -54.823729596, -10.245475211 ], [ -54.823912543, -10.245475211 ], [ -54.824095489, -10.245475211 ], [ -54.824095489, -10.245295169 ], [ -54.824278436, -10.245295169 ], [ -54.824461383, -10.245295169 ], [ -54.824461383, -10.245115128 ], [ -54.82464433, -10.245115128 ], [ -54.82464433, -10.244935086 ], [ -54.824827277, -10.244935086 ], [ -54.824827277, -10.244755045 ], [ -54.824827277, -10.244575003 ], [ -54.824827277, -10.244394961 ], [ -54.824827277, -10.24421492 ], [ -54.824827277, -10.244034878 ], [ -54.82464433, -10.244034878 ], [ -54.82464433, -10.243854837 ] ] ] ] } },
{ "type": "Feature", "properties": { "RX": 51.446, "DOSE": 51.446, "zone": 2.0, "fert_kg_ha": 51.446, "DOSAGEM": 51 }, "geometry": { "type": "MultiPolygon", "coordinates": [ [ [ [ -54.833242835, -10.250696416 ], [ -54.833242835, -10.250516374 ], [ -54.833059888, -10.250516374 ], [ -54.833059888, -10.250336332 ], [ -54.833059888, -10.250156291 ], [ -54.832876941, -10.250156291 ], [ -54.832876941, -10.249976249 ], [ -54.832693994, -10.249976249 ], [ -54.832511047, -10.249976249 ], [ -54.832511047, -10.249796208 ], [ -54.832328101, -10.249796208 ], [ -54.832145154, -10.249796208 ], [ -54.831962207, -10.249796208 ], [ -54.83177926, -10.249796208 ], [ -54.83177926, -10.249976249 ], [ -54.831596313, -10.249976249 ], [ -54.831413366, -10.249976249 ], [ -54.831413366, -10.250156291 ], [ -54.831230419, -10.250156291 ], [ -54.831230419, -10.250336332 ], [ -54.831047472, -10.250336332 ], [ -54.831047472, -10.250516374 ], [ -54.831047472, -10.250696416 ], [ -54.831230419, -10.250696416 ], [ -54.831230419, -10.250876457 ], [ -54.831413366, -10.250876457 ], [ -54.831413366, -10.251056499 ], [ -54.831596313, -10.251056499 ], [ -54.831596313, -10.25123654 ], [ -54.83177926, -10.25123654 ], [ -54.83177926, -10.251416582 ], [ -54.831962207, -10.251416582 ], [ -54.831962207, -10.251596623 ], [ -54.832002277, -10.251596623 ], [ -54.832145154, -10.251516044 ], [ -54.832321512, -10.251416582 ], [ -54.832328101, -10.251412866 ], [ -54.832511047, -10.251309688 ], [ -54.832640747, -10.25123654 ], [ -54.832693994, -10.25120651 ], [ -54.832876941, -10.251103332 ], [ -54.832959982, -10.251056499 ], [ -54.833059888, -10.251000154 ], [ -54.833242835, -10.250896976 ], [ -54.833242835, -10.250876457 ], [ -54.833242835, -10.250696416 ] ] ], [ [ [ -54.83241208, -10.245855253 ], [ -54.832335712, -10.245856673 ], [ -54.832328101, -10.245857535 ], [ -54.832197934, -10.245872265 ], [ -54.832145154, -10.245882983 ], [ -54.831962207, -10.245920133 ], [ -54.83177926, -10.245957283 ], [ -54.831769534, -10.245959258 ], [ -54.831708782, -10.245966578 ], [ -54.831596313, -10.245972396 ], [ -54.831596313, -10.246015335 ], [ -54.831413366, -10.246015335 ], [ -54.831413366, -10.246195377 ], [ -54.831413366, -10.246375418 ], [ -54.831413366, -10.24655546 ], [ -54.831413366, -10.246735502 ], [ -54.831413366, -10.246915543 ], [ -54.831413366, -10.247095585 ], [ -54.831413366, -10.247275626 ], [ -54.831596313, -10.247275626 ], [ -54.83177926, -10.247275626 ], [ -54.831962207, -10.247275626 ], [ -54.832145154, -10.247275626 ], [ -54.832145154, -10.247095585 ], [ -54.832328101, -10.247095585 ], [ -54.832328101, -10.246915543 ], [ -54.832511047, -10.246915543 ], [ -54.832511047, -10.246735502 ], [ -54.832511047, -10.24655546 ], [ -54.832693994, -10.24655546 ], [ -54.832693994, -10.246375418 ], [ -54.832693994, -10.246195377 ], [ -54.832693994, -10.246015335 ], [ -54.832693994, -10.245876121 ], [ -54.832661247, -10.245871212 ], [ -54.832511047, -10.245861592 ], [ -54.83241208, -10.245855253 ] ] ], [ [ [ -54.829035056, -10.250156291 ], [ -54.829035056, -10.249976249 ], [ -54.829035056, -10.249796208 ], [ -54.829035056, -10.249616166 ], [ -54.828852109, -10.249616166 ], [ -54.828852109, -10.249436125 ], [ -54.828669162, -10.249436125 ], [ -54.828669162, -10.249256083 ], [ -54.828486215, -10.249256083 ], [ -54.828486215, -10.249076042 ], [ -54.828303268, -10.249076042 ], [ -54.828303268, -10.248896 ], [ -54.828120322, -10.248896 ], [ -54.828120322, -10.248715959 ], [ -54.827937375, -10.248715959 ], [ -54.827937375, -10.248535917 ], [ -54.827754428, -10.248535917 ], [ -54.827754428, -10.248355875 ], [ -54.827571481, -10.248355875 ], [ -54.827571481, -10.248175834 ], [ -54.827571481, -10.247995792 ], [ -54.827571481, -10.247815751 ], [ -54.827571481, -10.247635709 ], [ -54.827571481, -10.247455668 ], [ -54.827571481, -10.247275626 ], [ -54.827754428, -10.247275626 ], [ -54.827754428, -10.247095585 ], [ -54.827754428, -10.246915543 ], [ -54.827937375, -10.246915543 ], [ -54.827937375, -10.246735502 ], [ -54.827937375, -10.24655546 ], [ -54.827937375, -10.246375418 ], [ -54.828120322, -10.246375418 ], [ -54.828120322, -10.246195377 ], [ -54.828303268, -10.246195377 ], [ -54.828303268, -10.246015335 ], [ -54.828303268, -10.245835294 ], [ -54.828486215, -10.245835294 ], [ -54.828486215, -10.245655252 ], [ -54.828669162, -10.245655252 ], [ -54.828669162, -10.245475211 ], [ -54.828669162, -10.245295169 ], [ -54.828852109, -10.245295169 ], [ -54.828852109, -10.245295002 ], [ -54.828669162, -10.24521639 ], [ -54.828486215, -10.245137778 ], [ -54.828433504, -10.245115128 ], [ -54.828370641, -10.245088115 ], [ -54.828303268, -10.245053781 ], [ -54.828303268, -10.245115128 ], [ -54.828303268, -10.245295169 ], [ -54.828120322, -10.245295169 ], [ -54.828120322, -10.245475211 ], [ -54.828120322, -10.245655252 ], [ -54.827937375, -10.245655252 ], [ -54.827937375, -10.245835294 ], [ -54.827754428, -10.245835294 ], [ -54.827754428, -10.246015335 ], [ -54.827754428, -10.246195377 ], [ -54.827571481, -10.246195377 ], [ -54.827571481, -10.246375418 ], [ -54.827571481, -10.24655546 ], [ -54.827388534, -10.24655546 ], [ -54.827388534, -10.246735502 ], [ -54.827388534, -10.246915543 ], [ -54.827205587, -10.246915543 ], [ -54.827205587, -10.247095585 ], [ -54.827205587, -10.247275626 ], [ -54.82702264, -10.247275626 ], [ -54.82702264, -10.247455668 ], [ -54.82702264, -10.247635709 ], [ -54.82702264, -10.247815751 ], [ -54.82702264, -10.247995792 ], [ -54.82702264, -10.248175834 ], [ -54.82702264, -10.248355875 ], [ -54.827205587, -10.248355875 ], [ -54.827205587, -10.248535917 ], [ -54.827388534, -10.248535917 ], [ -54.827388534, -10.248715959 ], [ -54.827571481, -10.248715959 ], [ -54.827571481, -10.248896 ], [ -54.827754428, -10.248896 ], [ -54.827754428, -10.249076042 ], [ -54.827937375, -10.249076042 ], [ -54.827937375, -10.249256083 ], [ -54.828120322, -10.249256083 ], [ -54.828120322, -10.249436125 ], [ -54.828120322, -10.249616166 ], [ -54.828120322, -10.249796208 ], [ -54.828120322, -10.249976249 ], [ -54.827937375, -10.249976249 ], [ -54.827937375, -10.250156291 ], [ -54.827754428, -10.250156291 ], [ -54.827754428, -10.250336332 ], [ -54.827571481, -10.250336332 ], [ -54.827388534, -10.250336332 ], [ -54.827205587, -10.250336332 ], [ -54.827205587, -10.250516374 ], [ -54.827133026, -10.250516374 ], [ -54.827205587, -10.250612495 ], [ -54.827268937, -10.250696416 ], [ -54.827388534, -10.250854845 ], [ -54.827404849, -10.250876457 ], [ -54.827571481, -10.250876457 ], [ -54.827571481, -10.250696416 ], [ -54.827754428, -10.250696416 ], [ -54.827937375, -10.250696416 ], [ -54.827937375, -10.250516374 ], [ -54.828120322, -10.250516374 ], [ -54.828303268, -10.250516374 ], [ -54.828303268, -10.250336332 ], [ -54.828486215, -10.250336332 ], [ -54.828669162, -10.250336332 ], [ -54.828669162, -10.250156291 ], [ -54.828852109, -10.250156291 ], [ -54.829035056, -10.250156291 ] ] ], [ [ [ -54.827388534, -10.242723434 ], [ -54.827250342, -10.242643486 ], [ -54.827208392, -10.242621251 ], [ -54.827205587, -10.242620007 ], [ -54.827148151, -10.242594546 ], [ -54.82702264, -10.242538908 ], [ -54.826960941, -10.242511557 ], [ -54.826839693, -10.242470688 ], [ -54.826738487, -10.242436575 ], [ -54.826656746, -10.242418052 ], [ -54.826641092, -10.242414505 ], [ -54.826634271, -10.242412959 ], [ -54.826473799, -10.242364752 ], [ -54.826473799, -10.242414505 ], [ -54.826290852, -10.242414505 ], [ -54.826290852, -10.242594546 ], [ -54.826290852, -10.242774588 ], [ -54.826107905, -10.242774588 ], [ -54.826107905, -10.242954629 ], [ -54.826107905, -10.243134671 ], [ -54.825924959, -10.243134671 ], [ -54.825924959, -10.243314712 ], [ -54.825924959, -10.243494754 ], [ -54.825924959, -10.243674795 ], [ -54.825924959, -10.243854837 ], [ -54.825924959, -10.244034878 ], [ -54.825924959, -10.24421492 ], [ -54.825924959, -10.244394961 ], [ -54.826107905, -10.244394961 ], [ -54.826107905, -10.244575003 ], [ -54.826107905, -10.244755045 ], [ -54.826107905, -10.244935086 ], [ -54.825924959, -10.244935086 ], [ -54.825924959, -10.245115128 ], [ -54.825924959, -10.245295169 ], [ -54.825924959, -10.245475211 ], [ -54.825742012, -10.245475211 ], [ -54.825742012, -10.245655252 ], [ -54.825742012, -10.245835294 ], [ -54.825559065, -10.245835294 ], [ -54.825559065, -10.246015335 ], [ -54.825376118, -10.246015335 ], [ -54.825376118, -10.246195377 ], [ -54.825193171, -10.246195377 ], [ -54.825010224, -10.246195377 ], [ -54.825010224, -10.246375418 ], [ -54.824827277, -10.246375418 ], [ -54.824827277, -10.24655546 ], [ -54.82464433, -10.24655546 ], [ -54.824461383, -10.24655546 ], [ -54.824461383, -10.246735502 ], [ -54.824288672, -10.246735502 ], [ -54.824423253, -10.246915543 ], [ -54.824461383, -10.246966553 ], [ -54.824557834, -10.247095585 ], [ -54.82464433, -10.247211298 ], [ -54.82464433, -10.247095585 ], [ -54.824827277, -10.247095585 ], [ -54.824827277, -10.246915543 ], [ -54.825010224, -10.246915543 ], [ -54.825010224, -10.246735502 ], [ -54.825193171, -10.246735502 ], [ -54.825376118, -10.246735502 ], [ -54.825376118, -10.24655546 ], [ -54.825559065, -10.24655546 ], [ -54.825559065, -10.246375418 ], [ -54.825742012, -10.246375418 ], [ -54.825742012, -10.246195377 ], [ -54.825924959, -10.246195377 ], [ -54.825924959, -10.246015335 ], [ -54.826107905, -10.246015335 ], [ -54.826107905, -10.245835294 ], [ -54.826107905, -10.245655252 ], [ -54.826290852, -10.245655252 ], [ -54.826290852, -10.245475211 ], [ -54.826290852, -10.245295169 ], [ -54.826473799, -10.245295169 ], [ -54.826473799, -10.245115128 ], [ -54.826473799, -10.244935086 ], [ -54.826473799, -10.244755045 ], [ -54.826473799, -10.244575003 ], [ -54.826473799, -10.244394961 ], [ -54.826473799, -10.24421492 ], [ -54.826473799, -10.244034878 ], [ -54.826473799, -10.243854837 ], [ -54.826473799, -10.243674795 ], [ -54.826473799, -10.243494754 ], [ -54.826656746, -10.243494754 ], [ -54.826656746, -10.243314712 ], [ -54.826839693, -10.243314712 ], [ -54.826839693, -10.243134671 ], [ -54.82702264, -10.243134671 ], [ -54.82702264, -10.242954629 ], [ -54.827205587, -10.242954629 ], [ -54.827205587, -10.242774588 ], [ -54.827388534, -10.242774588 ], [ -54.827475431, -10.242774588 ], [ -54.827465658, -10.242768052 ], [ -54.827388534, -10.242723434 ] ] ] ] } },
{ "type": "Feature", "properties": { "RX": 61.56, "DOSE": 61.56, "zone": 3.0, "fert_kg_ha": 61.56, "DOSAGEM": 61 }, "geometry": { "type": "MultiPolygon", "coordinates": [ [ [ [ -54.833608729, -10.250516374 ], [ -54.833608729, -10.250336332 ], [ -54.833608729, -10.250156291 ], [ -54.833425782, -10.250156291 ], [ -54.833425782, -10.249976249 ], [ -54.833242835, -10.249976249 ], [ -54.833242835, -10.249796208 ], [ -54.833059888, -10.249796208 ], [ -54.833059888, -10.249616166 ], [ -54.832876941, -10.249616166 ], [ -54.832693994, -10.249616166 ], [ -54.832693994, -10.249436125 ], [ -54.832511047, -10.249436125 ], [ -54.832328101, -10.249436125 ], [ -54.832328101, -10.249256083 ], [ -54.832145154, -10.249256083 ], [ -54.831962207, -10.249256083 ], [ -54.83177926, -10.249256083 ], [ -54.831596313, -10.249256083 ], [ -54.831413366, -10.249256083 ], [ -54.831230419, -10.249256083 ], [ -54.831230419, -10.249436125 ], [ -54.831047472, -10.249436125 ], [ -54.830864525, -10.249436125 ], [ -54.830681578, -10.249436125 ], [ -54.830498631, -10.249436125 ], [ -54.830315685, -10.249436125 ], [ -54.830132738, -10.249436125 ], [ -54.829949791, -10.249436125 ], [ -54.829949791, -10.249256083 ], [ -54.829766844, -10.249256083 ], [ -54.829583897, -10.249256083 ], [ -54.82940095, -10.249256083 ], [ -54.82940095, -10.249076042 ], [ -54.829218003, -10.249076042 ], [ -54.829035056, -10.249076042 ], [ -54.829035056, -10.248896 ], [ -54.828852109, -10.248896 ], [ -54.828852109, -10.248715959 ], [ -54.828669162, -10.248715959 ], [ -54.828669162, -10.248535917 ], [ -54.828486215, -10.248535917 ], [ -54.828303268, -10.248535917 ], [ -54.828303268, -10.248355875 ], [ -54.828303268, -10.248175834 ], [ -54.828120322, -10.248175834 ], [ -54.828120322, -10.247995792 ], [ -54.828120322, -10.247815751 ], [ -54.828120322, -10.247635709 ], [ -54.828120322, -10.247455668 ], [ -54.828120322, -10.247275626 ], [ -54.828120322, -10.247095585 ], [ -54.828303268, -10.247095585 ], [ -54.828303268, -10.246915543 ], [ -54.828303268, -10.246735502 ], [ -54.828303268, -10.24655546 ], [ -54.828486215, -10.24655546 ], [ -54.828486215, -10.246375418 ], [ -54.828486215, -10.246195377 ], [ -54.828669162, -10.246195377 ], [ -54.828669162, -10.246015335 ], [ -54.828852109, -10.246015335 ], [ -54.828852109, -10.245835294 ], [ -54.828852109, -10.245655252 ], [ -54.829035056, -10.245655252 ], [ -54.829035056, -10.245475211 ], [ -54.829214948, -10.245475211 ], [ -54.829035056, -10.245383109 ], [ -54.828919679, -10.245324037 ], [ -54.828852497, -10.245295169 ], [ -54.828852109, -10.245295002 ], [ -54.828852109, -10.245295169 ], [ -54.828669162, -10.245295169 ], [ -54.828669162, -10.245475211 ], [ -54.828669162, -10.245655252 ], [ -54.828486215, -10.245655252 ], [ -54.828486215, -10.245835294 ], [ -54.828303268, -10.245835294 ], [ -54.828303268, -10.246015335 ], [ -54.828303268, -10.246195377 ], [ -54.828120322, -10.246195377 ], [ -54.828120322, -10.246375418 ], [ -54.827937375, -10.246375418 ], [ -54.827937375, -10.24655546 ], [ -54.827937375, -10.246735502 ], [ -54.827937375, -10.246915543 ], [ -54.827754428, -10.246915543 ], [ -54.827754428, -10.247095585 ], [ -54.827754428, -10.247275626 ], [ -54.827571481, -10.247275626 ], [ -54.827571481, -10.247455668 ], [ -54.827571481, -10.247635709 ], [ -54.827571481, -10.247815751 ], [ -54.827571481, -10.247995792 ], [ -54.827571481, -10.248175834 ], [ -54.827571481, -10.248355875 ], [ -54.827754428, -10.248355875 ], [ -54.827754428, -10.248535917 ], [ -54.827937375, -10.248535917 ], [ -54.827937375, -10.248715959 ], [ -54.828120322, -10.248715959 ], [ -54.828120322, -10.248896 ], [ -54.828303268, -10.248896 ], [ -54.828303268, -10.249076042 ], [ -54.828486215, -10.249076042 ], [ -54.828486215, -10.249256083 ], [ -54.828669162, -10.249256083 ], [ -54.828669162, -10.249436125 ], [ -54.828852109, -10.249436125 ], [ -54.828852109, -10.249616166 ], [ -54.829035056, -10.249616166 ], [ -54.829035056, -10.249796208 ], [ -54.829035056, -10.249976249 ], [ -54.829035056, -10.250156291 ], [ -54.828852109, -10.250156291 ], [ -54.828669162, -10.250156291 ], [ -54.828669162, -10.250336332 ], [ -54.828486215, -10.250336332 ], [ -54.828303268, -10.250336332 ], [ -54.828303268, -10.250516374 ], [ -54.828120322, -10.250516374 ], [ -54.827937375, -10.250516374 ], [ -54.827937375, -10.250696416 ], [ -54.827754428, -10.250696416 ], [ -54.827571481, -10.250696416 ], [ -54.827571481, -10.250876457 ], [ -54.827404849, -10.250876457 ], [ -54.82754076, -10.251056499 ], [ -54.827571481, -10.251097195 ], [ -54.827676671, -10.25123654 ], [ -54.827754428, -10.25123654 ], [ -54.827754428, -10.251056499 ], [ -54.827937375, -10.251056499 ], [ -54.828120322, -10.251056499 ], [ -54.828120322, -10.250876457 ], [ -54.828303268, -10.250876457 ], [ -54.828486215, -10.250876457 ], [ -54.828669162, -10.250876457 ], [ -54.828669162, -10.250696416 ], [ -54.828852109, -10.250696416 ], [ -54.828852109, -10.250876457 ], [ -54.829035056, -10.250876457 ], [ -54.829218003, -10.250876457 ], [ -54.82940095, -10.250876457 ], [ -54.829583897, -10.250876457 ], [ -54.829583897, -10.251056499 ], [ -54.829766844, -10.251056499 ], [ -54.829949791, -10.251056499 ], [ -54.830132738, -10.251056499 ], [ -54.830132738, -10.25123654 ], [ -54.830315685, -10.25123654 ], [ -54.830498631, -10.25123654 ], [ -54.830681578, -10.25123654 ], [ -54.830681578, -10.251416582 ], [ -54.830864525, -10.251416582 ], [ -54.830864525, -10.251596623 ], [ -54.831047472, -10.251596623 ], [ -54.831230419, -10.251596623 ], [ -54.831230419, -10.251776665 ], [ -54.831230419, -10.251956706 ], [ -54.831363808, -10.251956706 ], [ -54.831413366, -10.251928756 ], [ -54.831596313, -10.251825578 ], [ -54.831683042, -10.251776665 ], [ -54.83177926, -10.2517224 ], [ -54.831962207, -10.251619222 ], [ -54.832002277, -10.251596623 ], [ -54.831962207, -10.251596623 ], [ -54.831962207, -10.251416582 ], [ -54.83177926, -10.251416582 ], [ -54.83177926, -10.25123654 ], [ -54.831596313, -10.25123654 ], [ -54.831596313, -10.251056499 ], [ -54.831413366, -10.251056499 ], [ -54.831413366, -10.250876457 ], [ -54.831230419, -10.250876457 ], [ -54.831230419, -10.250696416 ], [ -54.831047472, -10.250696416 ], [ -54.831047472, -10.250516374 ], [ -54.831047472, -10.250336332 ], [ -54.831230419, -10.250336332 ], [ -54.831230419, -10.250156291 ], [ -54.831413366, -10.250156291 ], [ -54.831413366, -10.249976249 ], [ -54.831596313, -10.249976249 ], [ -54.83177926, -10.249976249 ], [ -54.83177926, -10.249796208 ], [ -54.831962207, -10.249796208 ], [ -54.832145154, -10.249796208 ], [ -54.832328101, -10.249796208 ], [ -54.832511047, -10.249796208 ], [ -54.832511047, -10.249976249 ], [ -54.832693994, -10.249976249 ], [ -54.832876941, -10.249976249 ], [ -54.832876941, -10.250156291 ], [ -54.833059888, -10.250156291 ], [ -54.833059888, -10.250336332 ], [ -54.833059888, -10.250516374 ], [ -54.833242835, -10.250516374 ], [ -54.833242835, -10.250696416 ], [ -54.833242835, -10.250876457 ], [ -54.833242835, -10.250896976 ], [ -54.833279217, -10.250876457 ], [ -54.83336723, -10.25082682 ], [ -54.833425782, -10.250793798 ], [ -54.833598454, -10.250696416 ], [ -54.833608729, -10.250690621 ], [ -54.833791676, -10.250587443 ], [ -54.833791676, -10.250516374 ], [ -54.833608729, -10.250516374 ] ] ], [ [ [ -54.833425782, -10.24655546 ], [ -54.833425782, -10.246375418 ], [ -54.833425782, -10.246267485 ], [ -54.833324452, -10.246195377 ], [ -54.833242835, -10.246137297 ], [ -54.833113964, -10.246045589 ], [ -54.833062377, -10.246015335 ], [ -54.833059888, -10.246013876 ], [ -54.832952003, -10.245950606 ], [ -54.832876941, -10.245920864 ], [ -54.83283416, -10.245903913 ], [ -54.832760867, -10.245886147 ], [ -54.832693994, -10.245876121 ], [ -54.832693994, -10.246015335 ], [ -54.832693994, -10.246195377 ], [ -54.832693994, -10.246375418 ], [ -54.832693994, -10.24655546 ], [ -54.832511047, -10.24655546 ], [ -54.832511047, -10.246735502 ], [ -54.832511047, -10.246915543 ], [ -54.832328101, -10.246915543 ], [ -54.832328101, -10.247095585 ], [ -54.832145154, -10.247095585 ], [ -54.832145154, -10.247275626 ], [ -54.831962207, -10.247275626 ], [ -54.83177926, -10.247275626 ], [ -54.831596313, -10.247275626 ], [ -54.831413366, -10.247275626 ], [ -54.831413366, -10.247095585 ], [ -54.831413366, -10.246915543 ], [ -54.831413366, -10.246735502 ], [ -54.831413366, -10.24655546 ], [ -54.831413366, -10.246375418 ], [ -54.831413366, -10.246195377 ], [ -54.831413366, -10.246015335 ], [ -54.831596313, -10.246015335 ], [ -54.831596313, -10.245972396 ], [ -54.831413366, -10.245981862 ], [ -54.831230419, -10.245991327 ], [ -54.831195619, -10.245993127 ], [ -54.831047472, -10.245989724 ], [ -54.831014823, -10.245988974 ], [ -54.830919954, -10.245976803 ], [ -54.830864525, -10.245959718 ], [ -54.830864525, -10.246015335 ], [ -54.830864525, -10.246195377 ], [ -54.830864525, -10.246375418 ], [ -54.830864525, -10.24655546 ], [ -54.830864525, -10.246735502 ], [ -54.830864525, -10.246915543 ], [ -54.830864525, -10.247095585 ], [ -54.830864525, -10.247275626 ], [ -54.830864525, -10.247455668 ], [ -54.830681578, -10.247455668 ], [ -54.830681578, -10.247635709 ], [ -54.830864525, -10.247635709 ], [ -54.830864525, -10.247815751 ], [ -54.830864525, -10.247995792 ], [ -54.831047472, -10.247995792 ], [ -54.831047472, -10.248175834 ], [ -54.831230419, -10.248175834 ], [ -54.831413366, -10.248175834 ], [ -54.831596313, -10.248175834 ], [ -54.831596313, -10.247995792 ], [ -54.83177926, -10.247995792 ], [ -54.831962207, -10.247995792 ], [ -54.831962207, -10.247815751 ], [ -54.832145154, -10.247815751 ], [ -54.832145154, -10.247635709 ], [ -54.832328101, -10.247635709 ], [ -54.832328101, -10.247455668 ], [ -54.832511047, -10.247455668 ], [ -54.832511047, -10.247275626 ], [ -54.832693994, -10.247275626 ], [ -54.832693994, -10.247095585 ], [ -54.832876941, -10.247095585 ], [ -54.832876941, -10.246915543 ], [ -54.833059888, -10.246915543 ], [ -54.833059888, -10.246735502 ], [ -54.833242835, -10.246735502 ], [ -54.833242835, -10.24655546 ], [ -54.833425782, -10.24655546 ] ] ], [ [ [ -54.826473799, -10.242364752 ], [ -54.826395877, -10.242341344 ], [ -54.826290852, -10.242324915 ], [ -54.826163014, -10.242304917 ], [ -54.826107905, -10.242298529 ], [ -54.82599894, -10.2422859 ], [ -54.825924959, -10.242268386 ], [ -54.825924959, -10.242414505 ], [ -54.825742012, -10.242414505 ], [ -54.825742012, -10.242594546 ], [ -54.825742012, -10.242774588 ], [ -54.825742012, -10.242954629 ], [ -54.825559065, -10.242954629 ], [ -54.825559065, -10.243134671 ], [ -54.825559065, -10.243314712 ], [ -54.825559065, -10.243494754 ], [ -54.825559065, -10.243674795 ], [ -54.825559065, -10.243854837 ], [ -54.825559065, -10.244034878 ], [ -54.825559065, -10.24421492 ], [ -54.825742012, -10.24421492 ], [ -54.825742012, -10.244394961 ], [ -54.825742012, -10.244575003 ], [ -54.825742012, -10.244755045 ], [ -54.825742012, -10.244935086 ], [ -54.825742012, -10.245115128 ], [ -54.825559065, -10.245115128 ], [ -54.825559065, -10.245295169 ], [ -54.825559065, -10.245475211 ], [ -54.825376118, -10.245475211 ], [ -54.825376118, -10.245655252 ], [ -54.825193171, -10.245655252 ], [ -54.825193171, -10.245835294 ], [ -54.825010224, -10.245835294 ], [ -54.825010224, -10.246015335 ], [ -54.824827277, -10.246015335 ], [ -54.824827277, -10.246195377 ], [ -54.82464433, -10.246195377 ], [ -54.824461383, -10.246195377 ], [ -54.824461383, -10.246375418 ], [ -54.824278436, -10.246375418 ], [ -54.824095489, -10.246375418 ], [ -54.824095489, -10.246478011 ], [ -54.824153867, -10.24655546 ], [ -54.824180898, -10.246591323 ], [ -54.824278436, -10.246721808 ], [ -54.824288672, -10.246735502 ], [ -54.824461383, -10.246735502 ], [ -54.824461383, -10.24655546 ], [ -54.82464433, -10.24655546 ], [ -54.824827277, -10.24655546 ], [ -54.824827277, -10.246375418 ], [ -54.825010224, -10.246375418 ], [ -54.825010224, -10.246195377 ], [ -54.825193171, -10.246195377 ], [ -54.825376118, -10.246195377 ], [ -54.825376118, -10.246015335 ], [ -54.825559065, -10.246015335 ], [ -54.825559065, -10.245835294 ], [ -54.825742012, -10.245835294 ], [ -54.825742012, -10.245655252 ], [ -54.825742012, -10.245475211 ], [ -54.825924959, -10.245475211 ], [ -54.825924959, -10.245295169 ], [ -54.825924959, -10.245115128 ], [ -54.825924959, -10.244935086 ], [ -54.826107905, -10.244935086 ], [ -54.826107905, -10.244755045 ], [ -54.826107905, -10.244575003 ], [ -54.826107905, -10.244394961 ], [ -54.825924959, -10.244394961 ], [ -54.825924959, -10.24421492 ], [ -54.825924959, -10.244034878 ], [ -54.825924959, -10.243854837 ], [ -54.825924959, -10.243674795 ], [ -54.825924959, -10.243494754 ], [ -54.825924959, -10.243314712 ], [ -54.825924959, -10.243134671 ], [ -54.826107905, -10.243134671 ], [ -54.826107905, -10.242954629 ], [ -54.826107905, -10.242774588 ], [ -54.826290852, -10.242774588 ], [ -54.826290852, -10.242594546 ], [ -54.826290852, -10.242414505 ], [ -54.826473799, -10.242414505 ], [ -54.826473799, -10.242364752 ] ] ] ] } },
{ "type": "Feature", "properties": { "RX": 38.441, "DOSE": 38.441, "zone": 1.0, "fert_kg_ha": 38.441, "DOSAGEM": 38 }, "geometry": { "type": "MultiPolygon", "coordinates": [ [ [ [ -54.827937375, -10.249256083 ], [ -54.827937375, -10.249076042 ], [ -54.827754428, -10.249076042 ], [ -54.827754428, -10.248896 ], [ -54.827571481, -10.248896 ], [ -54.827571481, -10.248715959 ], [ -54.827388534, -10.248715959 ], [ -54.827388534, -10.248535917 ], [ -54.827205587, -10.248535917 ], [ -54.827205587, -10.248355875 ], [ -54.82702264, -10.248355875 ], [ -54.82702264, -10.248175834 ], [ -54.82702264, -10.247995792 ], [ -54.82702264, -10.247815751 ], [ -54.82702264, -10.247635709 ], [ -54.82702264, -10.247455668 ], [ -54.82702264, -10.247275626 ], [ -54.827205587, -10.247275626 ], [ -54.827205587, -10.247095585 ], [ -54.827205587, -10.246915543 ], [ -54.827388534, -10.246915543 ], [ -54.827388534, -10.246735502 ], [ -54.827388534, -10.24655546 ], [ -54.827571481, -10.24655546 ], [ -54.827571481, -10.246375418 ], [ -54.827571481, -10.246195377 ], [ -54.827754428, -10.246195377 ], [ -54.827754428, -10.246015335 ], [ -54.827754428, -10.245835294 ], [ -54.827937375, -10.245835294 ], [ -54.827937375, -10.245655252 ], [ -54.828120322, -10.245655252 ], [ -54.828120322, -10.245475211 ], [ -54.828120322, -10.245295169 ], [ -54.828303268, -10.245295169 ], [ -54.828303268, -10.245115128 ], [ -54.828303268, -10.245053781 ], [ -54.828120322, -10.244960549 ], [ -54.828070357, -10.244935086 ], [ -54.828016299, -10.244907538 ], [ -54.827937375, -10.244858696 ], [ -54.827918656, -10.244847112 ], [ -54.827880615, -10.244816798 ], [ -54.827836144, -10.244755045 ], [ -54.827803724, -10.244710024 ], [ -54.827754428, -10.244607171 ], [ -54.82773901, -10.244575003 ], [ -54.827695871, -10.244484995 ], [ -54.827666597, -10.244409614 ], [ -54.827662206, -10.244394961 ], [ -54.827633069, -10.244297741 ], [ -54.827612437, -10.24421492 ], [ -54.827598259, -10.244158007 ], [ -54.827582469, -10.244034878 ], [ -54.827577147, -10.243993379 ], [ -54.827585308, -10.243854837 ], [ -54.827587192, -10.243822846 ], [ -54.827604109, -10.243719311 ], [ -54.827616253, -10.243674795 ], [ -54.82764903, -10.243554643 ], [ -54.827668167, -10.243494754 ], [ -54.827716287, -10.243344164 ], [ -54.827720258, -10.243314712 ], [ -54.827736344, -10.243195391 ], [ -54.827730303, -10.243134671 ], [ -54.827726839, -10.243099845 ], [ -54.827694986, -10.243008174 ], [ -54.827661318, -10.242954629 ], [ -54.827637776, -10.242917188 ], [ -54.827588168, -10.242863257 ], [ -54.827571481, -10.242849049 ], [ -54.827515484, -10.242801371 ], [ -54.827475431, -10.242774588 ], [ -54.827388534, -10.242774588 ], [ -54.827205587, -10.242774588 ], [ -54.827205587, -10.242954629 ], [ -54.82702264, -10.242954629 ], [ -54.82702264, -10.243134671 ], [ -54.826839693, -10.243134671 ], [ -54.826839693, -10.243314712 ], [ -54.826656746, -10.243314712 ], [ -54.826656746, -10.243494754 ], [ -54.826473799, -10.243494754 ], [ -54.826473799, -10.243674795 ], [ -54.826473799, -10.243854837 ], [ -54.826473799, -10.244034878 ], [ -54.826473799, -10.24421492 ], [ -54.826473799, -10.244394961 ], [ -54.826473799, -10.244575003 ], [ -54.826473799, -10.244755045 ], [ -54.826473799, -10.244935086 ], [ -54.826473799, -10.245115128 ], [ -54.826473799, -10.245295169 ], [ -54.826290852, -10.245295169 ], [ -54.826290852, -10.245475211 ], [ -54.826290852, -10.245655252 ], [ -54.826107905, -10.245655252 ], [ -54.826107905, -10.245835294 ], [ -54.826107905, -10.246015335 ], [ -54.825924959, -10.246015335 ], [ -54.825924959, -10.246195377 ], [ -54.825742012, -10.246195377 ], [ -54.825742012, -10.246375418 ], [ -54.825559065, -10.246375418 ], [ -54.825559065, -10.24655546 ], [ -54.825376118, -10.24655546 ], [ -54.825376118, -10.246735502 ], [ -54.825193171, -10.246735502 ], [ -54.825010224, -10.246735502 ], [ -54.825010224, -10.246915543 ], [ -54.824827277, -10.246915543 ], [ -54.824827277, -10.247095585 ], [ -54.82464433, -10.247095585 ], [ -54.82464433, -10.247211298 ], [ -54.824692416, -10.247275626 ], [ -54.824826997, -10.247455668 ], [ -54.824827277, -10.247456043 ], [ -54.824961578, -10.247635709 ], [ -54.825010224, -10.247700787 ], [ -54.825096159, -10.247815751 ], [ -54.825193171, -10.247945532 ], [ -54.82523074, -10.247995792 ], [ -54.825278335, -10.248059464 ], [ -54.825366181, -10.248175834 ], [ -54.825376118, -10.248188997 ], [ -54.825502092, -10.248355875 ], [ -54.825559065, -10.248431347 ], [ -54.825638004, -10.248535917 ], [ -54.825742012, -10.248673697 ], [ -54.825773915, -10.248715959 ], [ -54.825909826, -10.248896 ], [ -54.825924959, -10.248916046 ], [ -54.826045737, -10.249076042 ], [ -54.826107905, -10.249158396 ], [ -54.826181648, -10.249256083 ], [ -54.826290852, -10.249400746 ], [ -54.826317559, -10.249436125 ], [ -54.826453471, -10.249616166 ], [ -54.826473799, -10.249643096 ], [ -54.826589382, -10.249796208 ], [ -54.826656746, -10.249885446 ], [ -54.826725293, -10.249976249 ], [ -54.826839693, -10.250127795 ], [ -54.826861204, -10.250156291 ], [ -54.826997115, -10.250336332 ], [ -54.82702264, -10.250370145 ], [ -54.827133026, -10.250516374 ], [ -54.827205587, -10.250516374 ], [ -54.827205587, -10.250336332 ], [ -54.827388534, -10.250336332 ], [ -54.827571481, -10.250336332 ], [ -54.827754428, -10.250336332 ], [ -54.827754428, -10.250156291 ], [ -54.827937375, -10.250156291 ], [ -54.827937375, -10.249976249 ], [ -54.828120322, -10.249976249 ], [ -54.828120322, -10.249796208 ], [ -54.828120322, -10.249616166 ], [ -54.828120322, -10.249436125 ], [ -54.828120322, -10.249256083 ], [ -54.827937375, -10.249256083 ] ] ] ] } },
{ "type": "Feature", "properties": { "RX": 85.002, "DOSE": 85.002, "zone": 5.0, "fert_kg_ha": 85.002, "DOSAGEM": 85 }, "geometry": { "type": "MultiPolygon", "coordinates": [ [ [ [ -54.834523464, -10.249796208 ], [ -54.834523464, -10.249616166 ], [ -54.834340517, -10.249616166 ], [ -54.83415757, -10.249616166 ], [ -54.83415757, -10.249436125 ], [ -54.833974623, -10.249436125 ], [ -54.833974623, -10.249256083 ], [ -54.833791676, -10.249256083 ], [ -54.833791676, -10.249076042 ], [ -54.833608729, -10.249076042 ], [ -54.833608729, -10.248896 ], [ -54.833425782, -10.248896 ], [ -54.833425782, -10.248715959 ], [ -54.833242835, -10.248715959 ], [ -54.833242835, -10.248535917 ], [ -54.833242835, -10.248355875 ], [ -54.833242835, -10.248175834 ], [ -54.833425782, -10.248175834 ], [ -54.833425782, -10.247995792 ], [ -54.833608729, -10.247995792 ], [ -54.833608729, -10.247815751 ], [ -54.833791676, -10.247815751 ], [ -54.833791676, -10.247635709 ], [ -54.833974623, -10.247635709 ], [ -54.833974623, -10.247455668 ], [ -54.83415757, -10.247455668 ], [ -54.83415757, -10.247275626 ], [ -54.834340517, -10.247275626 ], [ -54.834340517, -10.247095585 ], [ -54.834455406, -10.247095585 ], [ -54.834340517, -10.246988937 ], [ -54.834292919, -10.246944753 ], [ -54.834258324, -10.246915543 ], [ -54.834162873, -10.24683495 ], [ -54.83415757, -10.246831072 ], [ -54.834101797, -10.246790288 ], [ -54.834041, -10.246735502 ], [ -54.833974623, -10.246675686 ], [ -54.833942948, -10.246647143 ], [ -54.83382074, -10.24655546 ], [ -54.833791676, -10.24655546 ], [ -54.833791676, -10.246735502 ], [ -54.833791676, -10.246915543 ], [ -54.833608729, -10.246915543 ], [ -54.833608729, -10.247095585 ], [ -54.833425782, -10.247095585 ], [ -54.833425782, -10.247275626 ], [ -54.833242835, -10.247275626 ], [ -54.833242835, -10.247455668 ], [ -54.833059888, -10.247455668 ], [ -54.833059888, -10.247635709 ], [ -54.832876941, -10.247635709 ], [ -54.832876941, -10.247815751 ], [ -54.832693994, -10.247815751 ], [ -54.832693994, -10.247995792 ], [ -54.832511047, -10.247995792 ], [ -54.832511047, -10.248175834 ], [ -54.832511047, -10.248355875 ], [ -54.832328101, -10.248355875 ], [ -54.832328101, -10.248535917 ], [ -54.832511047, -10.248535917 ], [ -54.832511047, -10.248715959 ], [ -54.832511047, -10.248896 ], [ -54.832693994, -10.248896 ], [ -54.832693994, -10.249076042 ], [ -54.832876941, -10.249076042 ], [ -54.832876941, -10.249256083 ], [ -54.833059888, -10.249256083 ], [ -54.833059888, -10.249436125 ], [ -54.833242835, -10.249436125 ], [ -54.833425782, -10.249436125 ], [ -54.833425782, -10.249616166 ], [ -54.833608729, -10.249616166 ], [ -54.833608729, -10.249796208 ], [ -54.833791676, -10.249796208 ], [ -54.833791676, -10.249976249 ], [ -54.833974623, -10.249976249 ], [ -54.833974623, -10.250156291 ], [ -54.83415757, -10.250156291 ], [ -54.83415757, -10.250336332 ], [ -54.83415757, -10.250381088 ], [ -54.834236927, -10.250336332 ], [ -54.834340517, -10.250277911 ], [ -54.834523464, -10.250174733 ], [ -54.834556164, -10.250156291 ], [ -54.83470641, -10.250071556 ], [ -54.834875401, -10.249976249 ], [ -54.83470641, -10.249976249 ], [ -54.83470641, -10.249796208 ], [ -54.834523464, -10.249796208 ] ] ], [ [ [ -54.830132738, -10.252316789 ], [ -54.830132738, -10.252136748 ], [ -54.829949791, -10.252136748 ], [ -54.829949791, -10.251956706 ], [ -54.829766844, -10.251956706 ], [ -54.829766844, -10.251776665 ], [ -54.829583897, -10.251776665 ], [ -54.82940095, -10.251776665 ], [ -54.82940095, -10.251596623 ], [ -54.829218003, -10.251596623 ], [ -54.829035056, -10.251596623 ], [ -54.828852109, -10.251596623 ], [ -54.828852109, -10.251416582 ], [ -54.828669162, -10.251416582 ], [ -54.828486215, -10.251416582 ], [ -54.828486215, -10.251596623 ], [ -54.828303268, -10.251596623 ], [ -54.828303268, -10.251776665 ], [ -54.828120322, -10.251776665 ], [ -54.828120322, -10.251824244 ], [ -54.828220316, -10.251956706 ], [ -54.828303268, -10.252066594 ], [ -54.828356227, -10.252136748 ], [ -54.828486215, -10.252308944 ], [ -54.828492138, -10.252316789 ], [ -54.828628049, -10.252496831 ], [ -54.82862979, -10.252499137 ], [ -54.828669162, -10.252551993 ], [ -54.828762185, -10.252676873 ], [ -54.828852109, -10.252797592 ], [ -54.828896298, -10.252856914 ], [ -54.829030411, -10.253036956 ], [ -54.829033281, -10.253040808 ], [ -54.829035056, -10.253043031 ], [ -54.829119403, -10.253148642 ], [ -54.829161938, -10.253197746 ], [ -54.829191046, -10.253216997 ], [ -54.829218003, -10.253200908 ], [ -54.82940095, -10.253091717 ], [ -54.829492702, -10.253036956 ], [ -54.829583897, -10.252982527 ], [ -54.829766844, -10.252873336 ], [ -54.829794358, -10.252856914 ], [ -54.829949791, -10.252764145 ], [ -54.830096014, -10.252676873 ], [ -54.830132738, -10.252654954 ], [ -54.83025296, -10.2525832 ], [ -54.830315685, -10.252547825 ], [ -54.830315685, -10.252496831 ], [ -54.830315685, -10.252316789 ], [ -54.830132738, -10.252316789 ] ] ], [ [ [ -54.830132738, -10.245835294 ], [ -54.829949791, -10.245835294 ], [ -54.829949791, -10.245700963 ], [ -54.829892181, -10.245703098 ], [ -54.829784651, -10.2457169 ], [ -54.829766844, -10.245713767 ], [ -54.829766844, -10.245835294 ], [ -54.829583897, -10.245835294 ], [ -54.82940095, -10.245835294 ], [ -54.82940095, -10.246015335 ], [ -54.829218003, -10.246015335 ], [ -54.829218003, -10.246195377 ], [ -54.829035056, -10.246195377 ], [ -54.829035056, -10.246375418 ], [ -54.829035056, -10.24655546 ], [ -54.829035056, -10.246735502 ], [ -54.828852109, -10.246735502 ], [ -54.828852109, -10.246915543 ], [ -54.829035056, -10.246915543 ], [ -54.829035056, -10.247095585 ], [ -54.829035056, -10.247275626 ], [ -54.829218003, -10.247275626 ], [ -54.82940095, -10.247275626 ], [ -54.82940095, -10.247455668 ], [ -54.829583897, -10.247455668 ], [ -54.829766844, -10.247455668 ], [ -54.829766844, -10.247275626 ], [ -54.829949791, -10.247275626 ], [ -54.830132738, -10.247275626 ], [ -54.830132738, -10.247095585 ], [ -54.830315685, -10.247095585 ], [ -54.830315685, -10.246915543 ], [ -54.830315685, -10.246735502 ], [ -54.830315685, -10.24655546 ], [ -54.830315685, -10.246375418 ], [ -54.830315685, -10.246195377 ], [ -54.830315685, -10.246015335 ], [ -54.830132738, -10.246015335 ], [ -54.830132738, -10.245835294 ] ] ], [ [ [ -54.825193171, -10.243674795 ], [ -54.825193171, -10.243494754 ], [ -54.825193171, -10.243314712 ], [ -54.825193171, -10.243134671 ], [ -54.825193171, -10.242954629 ], [ -54.825193171, -10.242774588 ], [ -54.825193171, -10.242594546 ], [ -54.825193171, -10.242414505 ], [ -54.825376118, -10.242414505 ], [ -54.825376118, -10.242234463 ], [ -54.825376118, -10.242054421 ], [ -54.825376118, -10.24187438 ], [ -54.825376118, -10.241812713 ], [ -54.825348691, -10.241793055 ], [ -54.825280402, -10.241759475 ], [ -54.825193171, -10.241728646 ], [ -54.825174478, -10.24172204 ], [ -54.825113956, -10.241707883 ], [ -54.825026442, -10.241695443 ], [ -54.825010224, -10.241695205 ], [ -54.824951101, -10.241694338 ], [ -54.82488937, -10.241705429 ], [ -54.824827277, -10.241727458 ], [ -54.824817016, -10.241731098 ], [ -54.82464433, -10.241812425 ], [ -54.824600863, -10.241832896 ], [ -54.824528929, -10.24187438 ], [ -54.824470387, -10.24190814 ], [ -54.824461383, -10.241913953 ], [ -54.824386123, -10.241962543 ], [ -54.824324705, -10.242004818 ], [ -54.824278436, -10.24204108 ], [ -54.824278436, -10.242054421 ], [ -54.824278436, -10.242234463 ], [ -54.824461383, -10.242234463 ], [ -54.824461383, -10.242414505 ], [ -54.824461383, -10.242594546 ], [ -54.824461383, -10.242774588 ], [ -54.824461383, -10.242954629 ], [ -54.824461383, -10.243134671 ], [ -54.824461383, -10.243314712 ], [ -54.82464433, -10.243314712 ], [ -54.82464433, -10.243494754 ], [ -54.82464433, -10.243674795 ], [ -54.82464433, -10.243854837 ], [ -54.82464433, -10.244034878 ], [ -54.824827277, -10.244034878 ], [ -54.824827277, -10.24421492 ], [ -54.824827277, -10.244394961 ], [ -54.824827277, -10.244575003 ], [ -54.824827277, -10.244755045 ], [ -54.824827277, -10.244935086 ], [ -54.82464433, -10.244935086 ], [ -54.82464433, -10.245115128 ], [ -54.824461383, -10.245115128 ], [ -54.824461383, -10.245295169 ], [ -54.824278436, -10.245295169 ], [ -54.824095489, -10.245295169 ], [ -54.824095489, -10.245475211 ], [ -54.823912543, -10.245475211 ], [ -54.823729596, -10.245475211 ], [ -54.823546649, -10.245475211 ], [ -54.823363702, -10.245475211 ], [ -54.82333963, -10.245475211 ], [ -54.823363702, -10.245507147 ], [ -54.823475336, -10.245655252 ], [ -54.823546649, -10.245749863 ], [ -54.823611042, -10.245835294 ], [ -54.823729596, -10.245992579 ], [ -54.823746748, -10.246015335 ], [ -54.823882454, -10.246195377 ], [ -54.823912543, -10.246195377 ], [ -54.823912543, -10.246015335 ], [ -54.824095489, -10.246015335 ], [ -54.824278436, -10.246015335 ], [ -54.824278436, -10.245835294 ], [ -54.824461383, -10.245835294 ], [ -54.82464433, -10.245835294 ], [ -54.82464433, -10.245655252 ], [ -54.824827277, -10.245655252 ], [ -54.825010224, -10.245655252 ], [ -54.825010224, -10.245475211 ], [ -54.825193171, -10.245475211 ], [ -54.825193171, -10.245295169 ], [ -54.825193171, -10.245115128 ], [ -54.825376118, -10.245115128 ], [ -54.825376118, -10.244935086 ], [ -54.825376118, -10.244755045 ], [ -54.825376118, -10.244575003 ], [ -54.825376118, -10.244394961 ], [ -54.825376118, -10.24421492 ], [ -54.825376118, -10.244034878 ], [ -54.825193171, -10.244034878 ], [ -54.825193171, -10.243854837 ], [ -54.825193171, -10.243674795 ] ] ] ] } },
{ "type": "Feature", "properties": { "RX": 75.0, "DOSE": 75.0, "zone": 10.0, "fert_kg_ha": 75.0, "DOSAGEM": 75 }, "geometry": { "type": "MultiPolygon", "coordinates": [ [ [ [ -54.822967886678917, -10.245086917786544 ], [ -54.822907541328547, -10.245021543656971 ], [ -54.822858929796062, -10.24495114074818 ], [ -54.822773440549696, -10.244880737839409 ], [ -54.822689627563065, -10.244848888904489 ], [ -54.822610843355633, -10.244870680281013 ], [ -54.822555526784456, -10.244927673111922 ], [ -54.822473390057553, -10.245023219916684 ], [ -54.822305764084291, -10.245204255967808 ], [ -54.822208541019798, -10.24535176682428 ], [ -54.822111317955304, -10.245489220122355 ], [ -54.822030857488137, -10.245618292121767 ], [ -54.821957102059905, -10.24573563030305 ], [ -54.821886699151129, -10.245857997263538 ], [ -54.821821325021553, -10.245992098042144 ], [ -54.821784447307436, -10.246114465002627 ], [ -54.821730806995994, -10.246235155703376 ], [ -54.821655375308026, -10.246335731287333 ], [ -54.821608440035732, -10.24643463061158 ], [ -54.8214274039846, -10.246676012013072 ], [ -54.821320123361716, -10.246830227908475 ], [ -54.821246367933476, -10.2470112639596 ], [ -54.821199432660961, -10.247232530244307 ], [ -54.821206137699896, -10.247420271334363 ], [ -54.821266483050266, -10.247654947696931 ], [ -54.821279893128128, -10.247869508942708 ], [ -54.821273188089201, -10.248023724838111 ], [ -54.821239662894548, -10.248198055850306 ], [ -54.821179317544171, -10.248358976784639 ], [ -54.821139087310591, -10.248667408575443 ], [ -54.821105562115932, -10.248995955483039 ], [ -54.821051921804482, -10.249190401612026 ], [ -54.821011691570902, -10.249505538441761 ], [ -54.82101839660983, -10.249713394648607 ], [ -54.821004986531975, -10.249874315582941 ], [ -54.820984871415007, -10.250045294075656 ], [ -54.820971461337145, -10.25021292004892 ], [ -54.821001634012333, -10.25039730861951 ], [ -54.821004986531797, -10.250507941761864 ], [ -54.821045216765533, -10.250611869865299 ], [ -54.821058626843396, -10.250799610955355 ], [ -54.821065331882323, -10.251034287317923 ], [ -54.821058626843396, -10.251181798174395 ], [ -54.821058626843396, -10.25135612918659 ], [ -54.821092152038048, -10.251517050120922 ], [ -54.821139087310563, -10.251704791210978 ], [ -54.821199432660777, -10.25191599993728 ], [ -54.821286598166878, -10.252053453235355 ], [ -54.821420698945651, -10.252211021650233 ], [ -54.821558152243725, -10.252388705181891 ], [ -54.821662080347153, -10.252583151310878 ], [ -54.821752598372711, -10.252757482323071 ], [ -54.821757627151747, -10.252797712556649 ], [ -54.821742540814157, -10.252874820504349 ], [ -54.821712368138968, -10.252956957231248 ], [ -54.821658727827526, -10.252990482425902 ], [ -54.821559828503297, -10.253079324191731 ], [ -54.821378792452165, -10.253233540087137 ], [ -54.821107238375475, -10.253441396293983 ], [ -54.820835684298793, -10.253619079825643 ], [ -54.820587597858385, -10.253733065487461 ], [ -54.820378065391807, -10.253833641071418 ], [ -54.820155122847368, -10.25400629582388 ], [ -54.819974086796236, -10.254187331875004 ], [ -54.819860101134424, -10.254321432653613 ], [ -54.819776288147793, -10.254413626938909 ], [ -54.819669007524908, -10.254646627041744 ], [ -54.819534906746291, -10.254950030053351 ], [ -54.819477913915385, -10.255385857583837 ], [ -54.819457798798595, -10.25561718142694 ], [ -54.819484618954313, -10.255851857789509 ], [ -54.819606985914916, -10.256173699658179 ], [ -54.819784669446463, -10.256577678253745 ], [ -54.819917093965337, -10.2568425272915 ], [ -54.82005957604261, -10.25711575762792 ], [ -54.820197029340683, -10.257412455600594 ], [ -54.820284194846778, -10.257551585158403 ], [ -54.820390637339806, -10.257673952118889 ], [ -54.820476126586165, -10.257770337053515 ], [ -54.820573349650658, -10.25786923637774 ], [ -54.820709126689003, -10.257950534974773 ], [ -54.81976455432978, -10.258537225881193 ], [ -54.819694151421011, -10.258419887699908 ], [ -54.819596928356518, -10.258262319285041 ], [ -54.819335431838226, -10.257974002611029 ], [ -54.81900688493063, -10.257675628378619 ], [ -54.818742035892868, -10.257397369263002 ], [ -54.818524122127627, -10.257293441159579 ], [ -54.818222395375756, -10.257132520225246 ], [ -54.818001129091044, -10.257072174874871 ], [ -54.817702754858637, -10.257075527394337 ], [ -54.817437905820881, -10.257072174874871 ], [ -54.817246812211359, -10.257125815186315 ], [ -54.817079186238097, -10.257223038250809 ], [ -54.816961848056813, -10.257360491548884 ], [ -54.816727171694232, -10.257668923339688 ], [ -54.816589718396152, -10.257886837104932 ], [ -54.816475732734332, -10.25805781559766 ], [ -54.816395272267165, -10.258215384012528 ], [ -54.816358394553049, -10.258372952427395 ], [ -54.81634833699465, -10.258627743906755 ], [ -54.81638856722823, -10.258845657671998 ], [ -54.816455617617535, -10.258956290814352 ], [ -54.816549488162565, -10.259221139852109 ], [ -54.816623243590804, -10.259372003228046 ], [ -54.816696999019037, -10.259630147226872 ], [ -54.816740581772088, -10.259770953044413 ], [ -54.816831099797653, -10.259992219329121 ], [ -54.81684786239498, -10.260059269718425 ], [ -54.81693167538161, -10.260082737354683 ], [ -54.817042308523959, -10.260059269718425 ], [ -54.819705885239102, -10.258552312218789 ], [ -54.819767906849208, -10.258555664738255 ], [ -54.820891838999948, -10.257858340689479 ], [ -54.828982306599443, -10.253334115671096 ], [ -54.829025889352494, -10.253285504138852 ], [ -54.829049356988747, -10.25320839619115 ], [ -54.829054385767947, -10.253153079619972 ], [ -54.822967886678917, -10.245086917786544 ] ] ] ] } }
]
}
