{
"type": "FeatureCollection",
"name": "507_SULFATO",
"crs": { "type": "name", "properties": { "name": "urn:ogc:def:crs:OGC:1.3:CRS84" } },
"features": [
{ "type": "Feature", "properties": { "RX": 305.236, "DOSE": 305.236, "zone": 4.0, "fert_kg_ha": 305.236, "area ha": 5.04 }, "geometry": { "type": "MultiPolygon", "coordinates": [ [ [ [ -54.827585308, -10.243854837 ], [ -54.827587192, -10.243822846 ], [ -54.827604109, -10.243719311 ], [ -54.827616253, -10.243674795 ], [ -54.82764903, -10.243554643 ], [ -54.827668167, -10.243494754 ], [ -54.827716287, -10.243344164 ], [ -54.827720258, -10.243314712 ], [ -54.827736344, -10.243195391 ], [ -54.827730303, -10.243134671 ], [ -54.827726839, -10.243099845 ], [ -54.827694986, -10.243008174 ], [ -54.827661318, -10.242954629 ], [ -54.827571481, -10.242954629 ], [ -54.827571481, -10.243134671 ], [ -54.827571481, -10.243314712 ], [ -54.827388534, -10.243314712 ], [ -54.827388534, -10.243494754 ], [ -54.827205587, -10.243494754 ], [ -54.827205587, -10.243674795 ], [ -54.82702264, -10.243674795 ], [ -54.826839693, -10.243674795 ], [ -54.826839693, -10.243854837 ], [ -54.826656746, -10.243854837 ], [ -54.826656746, -10.244034878 ], [ -54.826473799, -10.244034878 ], [ -54.826290852, -10.244034878 ], [ -54.826290852, -10.24421492 ], [ -54.826107905, -10.24421492 ], [ -54.825924959, -10.24421492 ], [ -54.825924959, -10.244394961 ], [ -54.825742012, -10.244394961 ], [ -54.825559065, -10.244394961 ], [ -54.825376118, -10.244394961 ], [ -54.825193171, -10.244394961 ], [ -54.825193171, -10.244575003 ], [ -54.825010224, -10.244575003 ], [ -54.824827277, -10.244575003 ], [ -54.82464433, -10.244575003 ], [ -54.824461383, -10.244575003 ], [ -54.824278436, -10.244575003 ], [ -54.824095489, -10.244575003 ], [ -54.824095489, -10.244394961 ], [ -54.823912543, -10.244394961 ], [ -54.823729596, -10.244394961 ], [ -54.823546649, -10.244394961 ], [ -54.823363702, -10.244394961 ], [ -54.823180755, -10.244394961 ], [ -54.822997808, -10.244394961 ], [ -54.822814861, -10.244394961 ], [ -54.822814861, -10.244329372 ], [ -54.822779923, -10.244394961 ], [ -54.822695822, -10.244552846 ], [ -54.822688345, -10.244575003 ], [ -54.822631914, -10.244742221 ], [ -54.822634698, -10.244742433 ], [ -54.822701406, -10.244743478 ], [ -54.822752471, -10.244755045 ], [ -54.822767271, -10.244758397 ], [ -54.822814861, -10.244783857 ], [ -54.822837488, -10.244795962 ], [ -54.822869967, -10.244822772 ], [ -54.822899171, -10.244854358 ], [ -54.822954198, -10.244935086 ], [ -54.822997808, -10.244999064 ], [ -54.823076922, -10.245115128 ], [ -54.823109118, -10.245162362 ], [ -54.823180755, -10.24525976 ], [ -54.823206799, -10.245295169 ], [ -54.823322696, -10.245452745 ], [ -54.82333963, -10.245475211 ], [ -54.823363702, -10.245507147 ], [ -54.823475336, -10.245655252 ], [ -54.823546649, -10.245749863 ], [ -54.823546649, -10.245655252 ], [ -54.823729596, -10.245655252 ], [ -54.823912543, -10.245655252 ], [ -54.823912543, -10.245475211 ], [ -54.824095489, -10.245475211 ], [ -54.824278436, -10.245475211 ], [ -54.824461383, -10.245475211 ], [ -54.82464433, -10.245475211 ], [ -54.824827277, -10.245475211 ], [ -54.824827277, -10.245295169 ], [ -54.825010224, -10.245295169 ], [ -54.825193171, -10.245295169 ], [ -54.825376118, -10.245295169 ], [ -54.825376118, -10.245115128 ], [ -54.825559065, -10.245115128 ], [ -54.825742012, -10.245115128 ], [ -54.825742012, -10.244935086 ], [ -54.825924959, -10.244935086 ], [ -54.826107905, -10.244935086 ], [ -54.826290852, -10.244935086 ], [ -54.826290852, -10.244755045 ], [ -54.826473799, -10.244755045 ], [ -54.826656746, -10.244755045 ], [ -54.826656746, -10.244575003 ], [ -54.826839693, -10.244575003 ], [ -54.82702264, -10.244575003 ], [ -54.82702264, -10.244394961 ], [ -54.827205587, -10.244394961 ], [ -54.827388534, -10.244394961 ], [ -54.827388534, -10.24421492 ], [ -54.827571481, -10.24421492 ], [ -54.827571481, -10.244034878 ], [ -54.827582469, -10.244034878 ], [ -54.827577147, -10.243993379 ], [ -54.827585308, -10.243854837 ] ] ] ] } },
{ "type": "Feature", "properties": { "RX": 271.557, "DOSE": 271.557, "zone": 2.0, "fert_kg_ha": 271.557, "area ha": 23.57 }, "geometry": { "type": "MultiPolygon", "coordinates": [ [ [ [ -54.835621145, -10.249555669 ], [ -54.835621145, -10.249436125 ], [ -54.835621145, -10.249256083 ], [ -54.835438198, -10.249256083 ], [ -54.835255251, -10.249256083 ], [ -54.835255251, -10.249076042 ], [ -54.835072304, -10.249076042 ], [ -54.835072304, -10.248896 ], [ -54.834889357, -10.248896 ], [ -54.83470641, -10.248896 ], [ -54.83470641, -10.248715959 ], [ -54.834523464, -10.248715959 ], [ -54.834523464, -10.248535917 ], [ -54.834523464, -10.248355875 ], [ -54.834340517, -10.248355875 ], [ -54.834340517, -10.248175834 ], [ -54.834340517, -10.247995792 ], [ -54.834340517, -10.247815751 ], [ -54.834523464, -10.247815751 ], [ -54.834523464, -10.247635709 ], [ -54.834523464, -10.247455668 ], [ -54.83470641, -10.247455668 ], [ -54.83470641, -10.247275626 ], [ -54.83470641, -10.247264716 ], [ -54.834687774, -10.247261902 ], [ -54.834650382, -10.247247814 ], [ -54.834599619, -10.247220007 ], [ -54.834555615, -10.247188606 ], [ -54.834523464, -10.247158761 ], [ -54.834455406, -10.247095585 ], [ -54.834340517, -10.246988937 ], [ -54.834292919, -10.246944753 ], [ -54.834258324, -10.246915543 ], [ -54.834162873, -10.24683495 ], [ -54.83415757, -10.246831072 ], [ -54.834101797, -10.246790288 ], [ -54.834041, -10.246735502 ], [ -54.833974623, -10.246675686 ], [ -54.833942948, -10.246647143 ], [ -54.83382074, -10.24655546 ], [ -54.833791676, -10.246533656 ], [ -54.833791676, -10.24655546 ], [ -54.833791676, -10.246735502 ], [ -54.833791676, -10.246915543 ], [ -54.833791676, -10.247095585 ], [ -54.833791676, -10.247275626 ], [ -54.833608729, -10.247275626 ], [ -54.833608729, -10.247455668 ], [ -54.833608729, -10.247635709 ], [ -54.833608729, -10.247815751 ], [ -54.833608729, -10.247995792 ], [ -54.833425782, -10.247995792 ], [ -54.833425782, -10.248175834 ], [ -54.833242835, -10.248175834 ], [ -54.833059888, -10.248175834 ], [ -54.832876941, -10.248175834 ], [ -54.832693994, -10.248175834 ], [ -54.832511047, -10.248175834 ], [ -54.832328101, -10.248175834 ], [ -54.832145154, -10.248175834 ], [ -54.831962207, -10.248175834 ], [ -54.83177926, -10.248175834 ], [ -54.83177926, -10.247995792 ], [ -54.831596313, -10.247995792 ], [ -54.831413366, -10.247995792 ], [ -54.831230419, -10.247995792 ], [ -54.831047472, -10.247995792 ], [ -54.831047472, -10.247815751 ], [ -54.830864525, -10.247815751 ], [ -54.830681578, -10.247815751 ], [ -54.830498631, -10.247815751 ], [ -54.830315685, -10.247815751 ], [ -54.830315685, -10.247635709 ], [ -54.830132738, -10.247635709 ], [ -54.829949791, -10.247635709 ], [ -54.829766844, -10.247635709 ], [ -54.829583897, -10.247635709 ], [ -54.82940095, -10.247635709 ], [ -54.829218003, -10.247635709 ], [ -54.829035056, -10.247635709 ], [ -54.828852109, -10.247635709 ], [ -54.828852109, -10.247815751 ], [ -54.828669162, -10.247815751 ], [ -54.828486215, -10.247815751 ], [ -54.828486215, -10.247995792 ], [ -54.828303268, -10.247995792 ], [ -54.828303268, -10.248175834 ], [ -54.828120322, -10.248175834 ], [ -54.828120322, -10.248355875 ], [ -54.828120322, -10.248535917 ], [ -54.827937375, -10.248535917 ], [ -54.827937375, -10.248715959 ], [ -54.827937375, -10.248896 ], [ -54.827937375, -10.249076042 ], [ -54.827754428, -10.249076042 ], [ -54.827754428, -10.249256083 ], [ -54.827754428, -10.249436125 ], [ -54.827571481, -10.249436125 ], [ -54.827571481, -10.249616166 ], [ -54.827388534, -10.249616166 ], [ -54.827388534, -10.249796208 ], [ -54.827205587, -10.249796208 ], [ -54.82702264, -10.249796208 ], [ -54.82702264, -10.249976249 ], [ -54.826839693, -10.249976249 ], [ -54.826839693, -10.250127795 ], [ -54.826861204, -10.250156291 ], [ -54.826997115, -10.250336332 ], [ -54.82702264, -10.250370145 ], [ -54.827133026, -10.250516374 ], [ -54.827205587, -10.250612495 ], [ -54.827268937, -10.250696416 ], [ -54.827388534, -10.250854845 ], [ -54.827388534, -10.250696416 ], [ -54.827571481, -10.250696416 ], [ -54.827571481, -10.250516374 ], [ -54.827754428, -10.250516374 ], [ -54.827754428, -10.250336332 ], [ -54.827937375, -10.250336332 ], [ -54.827937375, -10.250156291 ], [ -54.828120322, -10.250156291 ], [ -54.828303268, -10.250156291 ], [ -54.828303268, -10.249976249 ], [ -54.828486215, -10.249976249 ], [ -54.828486215, -10.249796208 ], [ -54.828669162, -10.249796208 ], [ -54.828669162, -10.249616166 ], [ -54.828852109, -10.249616166 ], [ -54.828852109, -10.249436125 ], [ -54.828852109, -10.249256083 ], [ -54.828852109, -10.249076042 ], [ -54.828852109, -10.248896 ], [ -54.828852109, -10.248715959 ], [ -54.829035056, -10.248715959 ], [ -54.829035056, -10.248535917 ], [ -54.829218003, -10.248535917 ], [ -54.829218003, -10.248355875 ], [ -54.82940095, -10.248355875 ], [ -54.829583897, -10.248355875 ], [ -54.829766844, -10.248355875 ], [ -54.829949791, -10.248355875 ], [ -54.830132738, -10.248355875 ], [ -54.830132738, -10.248535917 ], [ -54.830315685, -10.248535917 ], [ -54.830498631, -10.248535917 ], [ -54.830681578, -10.248535917 ], [ -54.830864525, -10.248535917 ], [ -54.831047472, -10.248535917 ], [ -54.831230419, -10.248535917 ], [ -54.831413366, -10.248535917 ], [ -54.831596313, -10.248535917 ], [ -54.83177926, -10.248535917 ], [ -54.831962207, -10.248535917 ], [ -54.831962207, -10.248715959 ], [ -54.832145154, -10.248715959 ], [ -54.832328101, -10.248715959 ], [ -54.832511047, -10.248715959 ], [ -54.832693994, -10.248715959 ], [ -54.832876941, -10.248715959 ], [ -54.832876941, -10.248896 ], [ -54.833059888, -10.248896 ], [ -54.833242835, -10.248896 ], [ -54.833242835, -10.249076042 ], [ -54.833425782, -10.249076042 ], [ -54.833425782, -10.249256083 ], [ -54.833608729, -10.249256083 ], [ -54.833608729, -10.249436125 ], [ -54.833608729, -10.249616166 ], [ -54.833425782, -10.249616166 ], [ -54.833425782, -10.249796208 ], [ -54.833425782, -10.249976249 ], [ -54.833242835, -10.249976249 ], [ -54.833242835, -10.250156291 ], [ -54.833059888, -10.250156291 ], [ -54.833059888, -10.250336332 ], [ -54.832876941, -10.250336332 ], [ -54.832693994, -10.250336332 ], [ -54.832693994, -10.250516374 ], [ -54.832511047, -10.250516374 ], [ -54.832328101, -10.250516374 ], [ -54.832145154, -10.250516374 ], [ -54.832145154, -10.250336332 ], [ -54.831962207, -10.250336332 ], [ -54.83177926, -10.250336332 ], [ -54.831596313, -10.250336332 ], [ -54.831596313, -10.250156291 ], [ -54.831413366, -10.250156291 ], [ -54.831230419, -10.250156291 ], [ -54.831230419, -10.249976249 ], [ -54.831047472, -10.249976249 ], [ -54.831047472, -10.249796208 ], [ -54.830864525, -10.249796208 ], [ -54.830864525, -10.249616166 ], [ -54.830681578, -10.249616166 ], [ -54.830681578, -10.249436125 ], [ -54.830498631, -10.249436125 ], [ -54.830498631, -10.249256083 ], [ -54.830315685, -10.249256083 ], [ -54.830132738, -10.249256083 ], [ -54.829949791, -10.249256083 ], [ -54.829766844, -10.249256083 ], [ -54.829583897, -10.249256083 ], [ -54.829583897, -10.249436125 ], [ -54.82940095, -10.249436125 ], [ -54.829218003, -10.249436125 ], [ -54.829218003, -10.249616166 ], [ -54.829035056, -10.249616166 ], [ -54.829035056, -10.249796208 ], [ -54.829035056, -10.249976249 ], [ -54.829035056, -10.250156291 ], [ -54.829035056, -10.250336332 ], [ -54.829218003, -10.250336332 ], [ -54.829218003, -10.250516374 ], [ -54.829218003, -10.250696416 ], [ -54.829218003, -10.250876457 ], [ -54.82940095, -10.250876457 ], [ -54.82940095, -10.251056499 ], [ -54.82940095, -10.25123654 ], [ -54.82940095, -10.251416582 ], [ -54.82940095, -10.251596623 ], [ -54.82940095, -10.251776665 ], [ -54.829218003, -10.251776665 ], [ -54.829218003, -10.251956706 ], [ -54.829218003, -10.252136748 ], [ -54.829035056, -10.252136748 ], [ -54.829035056, -10.252316789 ], [ -54.828852109, -10.252316789 ], [ -54.828852109, -10.252496831 ], [ -54.828669162, -10.252496831 ], [ -54.828669162, -10.252551993 ], [ -54.828762185, -10.252676873 ], [ -54.828852109, -10.252797592 ], [ -54.828896298, -10.252856914 ], [ -54.829030411, -10.253036956 ], [ -54.829033281, -10.253040808 ], [ -54.829035056, -10.253043031 ], [ -54.829119403, -10.253148642 ], [ -54.829161938, -10.253197746 ], [ -54.829191046, -10.253216997 ], [ -54.829218003, -10.253200908 ], [ -54.82940095, -10.253091717 ], [ -54.829492702, -10.253036956 ], [ -54.829583897, -10.252982527 ], [ -54.829766844, -10.252873336 ], [ -54.829794358, -10.252856914 ], [ -54.829949791, -10.252764145 ], [ -54.829949791, -10.252676873 ], [ -54.829949791, -10.252496831 ], [ -54.829949791, -10.252316789 ], [ -54.829949791, -10.252136748 ], [ -54.830132738, -10.252136748 ], [ -54.830132738, -10.251956706 ], [ -54.830132738, -10.251776665 ], [ -54.830132738, -10.251596623 ], [ -54.830132738, -10.251416582 ], [ -54.830132738, -10.25123654 ], [ -54.830132738, -10.251056499 ], [ -54.830132738, -10.250876457 ], [ -54.830315685, -10.250876457 ], [ -54.830315685, -10.250696416 ], [ -54.830498631, -10.250696416 ], [ -54.830498631, -10.250516374 ], [ -54.830681578, -10.250516374 ], [ -54.830681578, -10.250696416 ], [ -54.830864525, -10.250696416 ], [ -54.831047472, -10.250696416 ], [ -54.831230419, -10.250696416 ], [ -54.831230419, -10.250876457 ], [ -54.831413366, -10.250876457 ], [ -54.831596313, -10.250876457 ], [ -54.831596313, -10.251056499 ], [ -54.83177926, -10.251056499 ], [ -54.831962207, -10.251056499 ], [ -54.832145154, -10.251056499 ], [ -54.832145154, -10.25123654 ], [ -54.832328101, -10.25123654 ], [ -54.832511047, -10.25123654 ], [ -54.832511047, -10.251309688 ], [ -54.832640747, -10.25123654 ], [ -54.832693994, -10.25120651 ], [ -54.832876941, -10.251103332 ], [ -54.832959982, -10.251056499 ], [ -54.833059888, -10.251000154 ], [ -54.833242835, -10.250896976 ], [ -54.833279217, -10.250876457 ], [ -54.83336723, -10.25082682 ], [ -54.833425782, -10.250793798 ], [ -54.833598454, -10.250696416 ], [ -54.833608729, -10.250690621 ], [ -54.833791676, -10.250587443 ], [ -54.83391769, -10.250516374 ], [ -54.833974623, -10.250484266 ], [ -54.83415757, -10.250381088 ], [ -54.834236927, -10.250336332 ], [ -54.834340517, -10.250277911 ], [ -54.834523464, -10.250174733 ], [ -54.834556164, -10.250156291 ], [ -54.83470641, -10.250071556 ], [ -54.834875401, -10.249976249 ], [ -54.834889357, -10.249968378 ], [ -54.835072304, -10.249865201 ], [ -54.835194638, -10.249796208 ], [ -54.835255251, -10.249762023 ], [ -54.835438198, -10.249658846 ], [ -54.835513875, -10.249616166 ], [ -54.835621145, -10.249555669 ] ] ], [ [ [ -54.828303268, -10.245053781 ], [ -54.828120322, -10.244960549 ], [ -54.828070357, -10.244935086 ], [ -54.828016299, -10.244907538 ], [ -54.827937375, -10.244858696 ], [ -54.827918656, -10.244847112 ], [ -54.827880615, -10.244816798 ], [ -54.827836144, -10.244755045 ], [ -54.827803724, -10.244710024 ], [ -54.827754428, -10.244607171 ], [ -54.827754428, -10.244755045 ], [ -54.827571481, -10.244755045 ], [ -54.827388534, -10.244755045 ], [ -54.827388534, -10.244935086 ], [ -54.827205587, -10.244935086 ], [ -54.82702264, -10.244935086 ], [ -54.82702264, -10.245115128 ], [ -54.826839693, -10.245115128 ], [ -54.826656746, -10.245115128 ], [ -54.826656746, -10.245295169 ], [ -54.826473799, -10.245295169 ], [ -54.826290852, -10.245295169 ], [ -54.826290852, -10.245475211 ], [ -54.826107905, -10.245475211 ], [ -54.825924959, -10.245475211 ], [ -54.825924959, -10.245655252 ], [ -54.825742012, -10.245655252 ], [ -54.825559065, -10.245655252 ], [ -54.825559065, -10.245835294 ], [ -54.825376118, -10.245835294 ], [ -54.825376118, -10.246015335 ], [ -54.825193171, -10.246015335 ], [ -54.825193171, -10.246195377 ], [ -54.825193171, -10.246375418 ], [ -54.825010224, -10.246375418 ], [ -54.825010224, -10.24655546 ], [ -54.825010224, -10.246735502 ], [ -54.824827277, -10.246735502 ], [ -54.824827277, -10.246915543 ], [ -54.82464433, -10.246915543 ], [ -54.82464433, -10.247095585 ], [ -54.824557834, -10.247095585 ], [ -54.82464433, -10.247211298 ], [ -54.824692416, -10.247275626 ], [ -54.824826997, -10.247455668 ], [ -54.824827277, -10.247456043 ], [ -54.824961578, -10.247635709 ], [ -54.825010224, -10.247700787 ], [ -54.825096159, -10.247815751 ], [ -54.825193171, -10.247945532 ], [ -54.825193171, -10.247815751 ], [ -54.825193171, -10.247635709 ], [ -54.825376118, -10.247635709 ], [ -54.825376118, -10.247455668 ], [ -54.825559065, -10.247455668 ], [ -54.825559065, -10.247275626 ], [ -54.825559065, -10.247095585 ], [ -54.825559065, -10.246915543 ], [ -54.825742012, -10.246915543 ], [ -54.825742012, -10.246735502 ], [ -54.825742012, -10.24655546 ], [ -54.825924959, -10.24655546 ], [ -54.825924959, -10.246375418 ], [ -54.825924959, -10.246195377 ], [ -54.826107905, -10.246195377 ], [ -54.826107905, -10.246015335 ], [ -54.826290852, -10.246015335 ], [ -54.826290852, -10.245835294 ], [ -54.826473799, -10.245835294 ], [ -54.826656746, -10.245835294 ], [ -54.826656746, -10.245655252 ], [ -54.826839693, -10.245655252 ], [ -54.82702264, -10.245655252 ], [ -54.827205587, -10.245655252 ], [ -54.827205587, -10.245475211 ], [ -54.827388534, -10.245475211 ], [ -54.827571481, -10.245475211 ], [ -54.827571481, -10.245295169 ], [ -54.827754428, -10.245295169 ], [ -54.827937375, -10.245295169 ], [ -54.828120322, -10.245295169 ], [ -54.828120322, -10.245115128 ], [ -54.828303268, -10.245115128 ], [ -54.828433504, -10.245115128 ], [ -54.828370641, -10.245088115 ], [ -54.828303268, -10.245053781 ] ] ] ] } },
{ "type": "Feature", "properties": { "RX": 284.616, "DOSE": 284.616, "zone": 3.0, "fert_kg_ha": 284.616, "area ha": 22.07 }, "geometry": { "type": "MultiPolygon", "coordinates": [ [ [ [ -54.837630801, -10.248349314 ], [ -54.837633561, -10.248317073 ], [ -54.837611723, -10.248175834 ], [ -54.837601775, -10.248111498 ], [ -54.837566983, -10.247995792 ], [ -54.837552536, -10.247947749 ], [ -54.837502933, -10.247815751 ], [ -54.837450614, -10.247676526 ], [ -54.837435276, -10.247635709 ], [ -54.837393134, -10.247523565 ], [ -54.837365567, -10.247455668 ], [ -54.837311191, -10.247321736 ], [ -54.8372886, -10.247275626 ], [ -54.837267667, -10.247232901 ], [ -54.837261067, -10.24721943 ], [ -54.837223253, -10.247159946 ], [ -54.837191207, -10.247120946 ], [ -54.83716535, -10.247095585 ], [ -54.837154331, -10.247084777 ], [ -54.83711188, -10.247055662 ], [ -54.83708472, -10.247042919 ], [ -54.837074711, -10.247038222 ], [ -54.837024064, -10.247022538 ], [ -54.836981469, -10.247015625 ], [ -54.836931321, -10.247014344 ], [ -54.836901773, -10.247016981 ], [ -54.836860063, -10.247020702 ], [ -54.836718826, -10.247049989 ], [ -54.83653588, -10.247087926 ], [ -54.836498948, -10.247095585 ], [ -54.836484923, -10.247098493 ], [ -54.836443989, -10.247103023 ], [ -54.836352933, -10.247099315 ], [ -54.836261346, -10.247095585 ], [ -54.836239529, -10.247094696 ], [ -54.836169986, -10.247095345 ], [ -54.836144293, -10.247095585 ], [ -54.836098503, -10.247096012 ], [ -54.836082046, -10.247095585 ], [ -54.835987039, -10.247093118 ], [ -54.835906886, -10.247091038 ], [ -54.835804092, -10.247092428 ], [ -54.835661777, -10.247094352 ], [ -54.83564026, -10.247095585 ], [ -54.835621145, -10.24709668 ], [ -54.835531276, -10.24710183 ], [ -54.835438198, -10.247112278 ], [ -54.835336452, -10.247123699 ], [ -54.83525878, -10.247137549 ], [ -54.835255251, -10.247138378 ], [ -54.835117685, -10.247170693 ], [ -54.835072304, -10.247183564 ], [ -54.834889357, -10.247235448 ], [ -54.834831836, -10.247251762 ], [ -54.834752675, -10.247264125 ], [ -54.834713755, -10.247265825 ], [ -54.83470641, -10.247264716 ], [ -54.83470641, -10.247275626 ], [ -54.83470641, -10.247455668 ], [ -54.834523464, -10.247455668 ], [ -54.834523464, -10.247635709 ], [ -54.834523464, -10.247815751 ], [ -54.834340517, -10.247815751 ], [ -54.834340517, -10.247995792 ], [ -54.834340517, -10.248175834 ], [ -54.834340517, -10.248355875 ], [ -54.834523464, -10.248355875 ], [ -54.834523464, -10.248535917 ], [ -54.834523464, -10.248715959 ], [ -54.83470641, -10.248715959 ], [ -54.83470641, -10.248896 ], [ -54.834889357, -10.248896 ], [ -54.835072304, -10.248896 ], [ -54.835072304, -10.249076042 ], [ -54.835255251, -10.249076042 ], [ -54.835255251, -10.249256083 ], [ -54.835438198, -10.249256083 ], [ -54.835621145, -10.249256083 ], [ -54.835621145, -10.249436125 ], [ -54.835621145, -10.249555669 ], [ -54.835804092, -10.249452491 ], [ -54.835833111, -10.249436125 ], [ -54.835987039, -10.249349314 ], [ -54.836152348, -10.249256083 ], [ -54.836169986, -10.249246136 ], [ -54.836352933, -10.249142959 ], [ -54.836471585, -10.249076042 ], [ -54.8364815, -10.24907045 ], [ -54.83653588, -10.249038775 ], [ -54.836718826, -10.248932211 ], [ -54.836780994, -10.248896 ], [ -54.836901773, -10.248825648 ], [ -54.83708472, -10.248719085 ], [ -54.837090087, -10.248715959 ], [ -54.837267667, -10.248612521 ], [ -54.83739918, -10.248535917 ], [ -54.837450614, -10.248505958 ], [ -54.837598416, -10.248419866 ], [ -54.837617221, -10.24838974 ], [ -54.837628597, -10.248355875 ], [ -54.837630801, -10.248349314 ] ] ], [ [ [ -54.833425782, -10.249256083 ], [ -54.833425782, -10.249076042 ], [ -54.833242835, -10.249076042 ], [ -54.833242835, -10.248896 ], [ -54.833059888, -10.248896 ], [ -54.832876941, -10.248896 ], [ -54.832876941, -10.248715959 ], [ -54.832693994, -10.248715959 ], [ -54.832511047, -10.248715959 ], [ -54.832328101, -10.248715959 ], [ -54.832145154, -10.248715959 ], [ -54.831962207, -10.248715959 ], [ -54.831962207, -10.248535917 ], [ -54.83177926, -10.248535917 ], [ -54.831596313, -10.248535917 ], [ -54.831413366, -10.248535917 ], [ -54.831230419, -10.248535917 ], [ -54.831047472, -10.248535917 ], [ -54.830864525, -10.248535917 ], [ -54.830681578, -10.248535917 ], [ -54.830498631, -10.248535917 ], [ -54.830315685, -10.248535917 ], [ -54.830132738, -10.248535917 ], [ -54.830132738, -10.248355875 ], [ -54.829949791, -10.248355875 ], [ -54.829766844, -10.248355875 ], [ -54.829583897, -10.248355875 ], [ -54.82940095, -10.248355875 ], [ -54.829218003, -10.248355875 ], [ -54.829218003, -10.248535917 ], [ -54.829035056, -10.248535917 ], [ -54.829035056, -10.248715959 ], [ -54.828852109, -10.248715959 ], [ -54.828852109, -10.248896 ], [ -54.828852109, -10.249076042 ], [ -54.828852109, -10.249256083 ], [ -54.828852109, -10.249436125 ], [ -54.828852109, -10.249616166 ], [ -54.828669162, -10.249616166 ], [ -54.828669162, -10.249796208 ], [ -54.828486215, -10.249796208 ], [ -54.828486215, -10.249976249 ], [ -54.828303268, -10.249976249 ], [ -54.828303268, -10.250156291 ], [ -54.828120322, -10.250156291 ], [ -54.827937375, -10.250156291 ], [ -54.827937375, -10.250336332 ], [ -54.827754428, -10.250336332 ], [ -54.827754428, -10.250516374 ], [ -54.827571481, -10.250516374 ], [ -54.827571481, -10.250696416 ], [ -54.827388534, -10.250696416 ], [ -54.827388534, -10.250854845 ], [ -54.827404849, -10.250876457 ], [ -54.82754076, -10.251056499 ], [ -54.827571481, -10.251097195 ], [ -54.827676671, -10.25123654 ], [ -54.827754428, -10.251339545 ], [ -54.827812582, -10.251416582 ], [ -54.827937375, -10.251581894 ], [ -54.827948493, -10.251596623 ], [ -54.828084404, -10.251776665 ], [ -54.828120322, -10.251824244 ], [ -54.828220316, -10.251956706 ], [ -54.828303268, -10.252066594 ], [ -54.828356227, -10.252136748 ], [ -54.828486215, -10.252308944 ], [ -54.828492138, -10.252316789 ], [ -54.828628049, -10.252496831 ], [ -54.82862979, -10.252499137 ], [ -54.828669162, -10.252551993 ], [ -54.828669162, -10.252496831 ], [ -54.828852109, -10.252496831 ], [ -54.828852109, -10.252316789 ], [ -54.829035056, -10.252316789 ], [ -54.829035056, -10.252136748 ], [ -54.829218003, -10.252136748 ], [ -54.829218003, -10.251956706 ], [ -54.829218003, -10.251776665 ], [ -54.82940095, -10.251776665 ], [ -54.82940095, -10.251596623 ], [ -54.82940095, -10.251416582 ], [ -54.82940095, -10.25123654 ], [ -54.82940095, -10.251056499 ], [ -54.82940095, -10.250876457 ], [ -54.829218003, -10.250876457 ], [ -54.829218003, -10.250696416 ], [ -54.829218003, -10.250516374 ], [ -54.829218003, -10.250336332 ], [ -54.829035056, -10.250336332 ], [ -54.829035056, -10.250156291 ], [ -54.829035056, -10.249976249 ], [ -54.829035056, -10.249796208 ], [ -54.829035056, -10.249616166 ], [ -54.829218003, -10.249616166 ], [ -54.829218003, -10.249436125 ], [ -54.82940095, -10.249436125 ], [ -54.829583897, -10.249436125 ], [ -54.829583897, -10.249256083 ], [ -54.829766844, -10.249256083 ], [ -54.829949791, -10.249256083 ], [ -54.830132738, -10.249256083 ], [ -54.830315685, -10.249256083 ], [ -54.830498631, -10.249256083 ], [ -54.830498631, -10.249436125 ], [ -54.830681578, -10.249436125 ], [ -54.830681578, -10.249616166 ], [ -54.830864525, -10.249616166 ], [ -54.830864525, -10.249796208 ], [ -54.831047472, -10.249796208 ], [ -54.831047472, -10.249976249 ], [ -54.831230419, -10.249976249 ], [ -54.831230419, -10.250156291 ], [ -54.831413366, -10.250156291 ], [ -54.831596313, -10.250156291 ], [ -54.831596313, -10.250336332 ], [ -54.83177926, -10.250336332 ], [ -54.831962207, -10.250336332 ], [ -54.832145154, -10.250336332 ], [ -54.832145154, -10.250516374 ], [ -54.832328101, -10.250516374 ], [ -54.832511047, -10.250516374 ], [ -54.832693994, -10.250516374 ], [ -54.832693994, -10.250336332 ], [ -54.832876941, -10.250336332 ], [ -54.833059888, -10.250336332 ], [ -54.833059888, -10.250156291 ], [ -54.833242835, -10.250156291 ], [ -54.833242835, -10.249976249 ], [ -54.833425782, -10.249976249 ], [ -54.833425782, -10.249796208 ], [ -54.833425782, -10.249616166 ], [ -54.833608729, -10.249616166 ], [ -54.833608729, -10.249436125 ], [ -54.833608729, -10.249256083 ], [ -54.833425782, -10.249256083 ] ] ], [ [ [ -54.827695871, -10.244484995 ], [ -54.827666597, -10.244409614 ], [ -54.827662206, -10.244394961 ], [ -54.827633069, -10.244297741 ], [ -54.827612437, -10.24421492 ], [ -54.827598259, -10.244158007 ], [ -54.827582469, -10.244034878 ], [ -54.827571481, -10.244034878 ], [ -54.827571481, -10.24421492 ], [ -54.827388534, -10.24421492 ], [ -54.827388534, -10.244394961 ], [ -54.827205587, -10.244394961 ], [ -54.82702264, -10.244394961 ], [ -54.82702264, -10.244575003 ], [ -54.826839693, -10.244575003 ], [ -54.826656746, -10.244575003 ], [ -54.826656746, -10.244755045 ], [ -54.826473799, -10.244755045 ], [ -54.826290852, -10.244755045 ], [ -54.826290852, -10.244935086 ], [ -54.826107905, -10.244935086 ], [ -54.825924959, -10.244935086 ], [ -54.825742012, -10.244935086 ], [ -54.825742012, -10.245115128 ], [ -54.825559065, -10.245115128 ], [ -54.825376118, -10.245115128 ], [ -54.825376118, -10.245295169 ], [ -54.825193171, -10.245295169 ], [ -54.825010224, -10.245295169 ], [ -54.824827277, -10.245295169 ], [ -54.824827277, -10.245475211 ], [ -54.82464433, -10.245475211 ], [ -54.824461383, -10.245475211 ], [ -54.824278436, -10.245475211 ], [ -54.824095489, -10.245475211 ], [ -54.823912543, -10.245475211 ], [ -54.823912543, -10.245655252 ], [ -54.823729596, -10.245655252 ], [ -54.823546649, -10.245655252 ], [ -54.823546649, -10.245749863 ], [ -54.823611042, -10.245835294 ], [ -54.823729596, -10.245992579 ], [ -54.823746748, -10.246015335 ], [ -54.823882454, -10.246195377 ], [ -54.823912543, -10.246235295 ], [ -54.824018161, -10.246375418 ], [ -54.824095489, -10.246478011 ], [ -54.824153867, -10.24655546 ], [ -54.824180898, -10.246591323 ], [ -54.824278436, -10.246721808 ], [ -54.824288672, -10.246735502 ], [ -54.824423253, -10.246915543 ], [ -54.824461383, -10.246966553 ], [ -54.824557834, -10.247095585 ], [ -54.82464433, -10.247095585 ], [ -54.82464433, -10.246915543 ], [ -54.824827277, -10.246915543 ], [ -54.824827277, -10.246735502 ], [ -54.825010224, -10.246735502 ], [ -54.825010224, -10.24655546 ], [ -54.825010224, -10.246375418 ], [ -54.825193171, -10.246375418 ], [ -54.825193171, -10.246195377 ], [ -54.825193171, -10.246015335 ], [ -54.825376118, -10.246015335 ], [ -54.825376118, -10.245835294 ], [ -54.825559065, -10.245835294 ], [ -54.825559065, -10.245655252 ], [ -54.825742012, -10.245655252 ], [ -54.825924959, -10.245655252 ], [ -54.825924959, -10.245475211 ], [ -54.826107905, -10.245475211 ], [ -54.826290852, -10.245475211 ], [ -54.826290852, -10.245295169 ], [ -54.826473799, -10.245295169 ], [ -54.826656746, -10.245295169 ], [ -54.826656746, -10.245115128 ], [ -54.826839693, -10.245115128 ], [ -54.82702264, -10.245115128 ], [ -54.82702264, -10.244935086 ], [ -54.827205587, -10.244935086 ], [ -54.827388534, -10.244935086 ], [ -54.827388534, -10.244755045 ], [ -54.827571481, -10.244755045 ], [ -54.827754428, -10.244755045 ], [ -54.827754428, -10.244607171 ], [ -54.82773901, -10.244575003 ], [ -54.827695871, -10.244484995 ] ] ] ] } },
{ "type": "Feature", "properties": { "RX": 256.865, "DOSE": 256.865, "zone": 1.0, "fert_kg_ha": 256.865, "area ha": 29.24 }, "geometry": { "type": "MultiPolygon", "coordinates": [ [ [ [ -54.833791676, -10.247275626 ], [ -54.833791676, -10.247095585 ], [ -54.833791676, -10.246915543 ], [ -54.833791676, -10.246735502 ], [ -54.833791676, -10.24655546 ], [ -54.833791676, -10.246533656 ], [ -54.833641584, -10.246421054 ], [ -54.833608729, -10.246397674 ], [ -54.833577454, -10.246375418 ], [ -54.833425782, -10.246267485 ], [ -54.833324452, -10.246195377 ], [ -54.833242835, -10.246137297 ], [ -54.833113964, -10.246045589 ], [ -54.833062377, -10.246015335 ], [ -54.833059888, -10.246013876 ], [ -54.832952003, -10.245950606 ], [ -54.832876941, -10.245920864 ], [ -54.83283416, -10.245903913 ], [ -54.832760867, -10.245886147 ], [ -54.832693994, -10.245876121 ], [ -54.832661247, -10.245871212 ], [ -54.832511047, -10.245861592 ], [ -54.83241208, -10.245855253 ], [ -54.832335712, -10.245856673 ], [ -54.832328101, -10.245857535 ], [ -54.832197934, -10.245872265 ], [ -54.832145154, -10.245882983 ], [ -54.831962207, -10.245920133 ], [ -54.83177926, -10.245957283 ], [ -54.831769534, -10.245959258 ], [ -54.831708782, -10.245966578 ], [ -54.831596313, -10.245972396 ], [ -54.831413366, -10.245981862 ], [ -54.831230419, -10.245991327 ], [ -54.831195619, -10.245993127 ], [ -54.831047472, -10.245989724 ], [ -54.831014823, -10.245988974 ], [ -54.830919954, -10.245976803 ], [ -54.830864525, -10.245959718 ], [ -54.830806297, -10.245941771 ], [ -54.830681578, -10.245886629 ], [ -54.83056547, -10.245835294 ], [ -54.830498631, -10.245805742 ], [ -54.830425194, -10.245773274 ], [ -54.830315685, -10.245742614 ], [ -54.830263467, -10.245727994 ], [ -54.830132738, -10.245707893 ], [ -54.830098822, -10.245702678 ], [ -54.830018514, -10.245698416 ], [ -54.829949791, -10.245700963 ], [ -54.829892181, -10.245703098 ], [ -54.829784651, -10.2457169 ], [ -54.829766844, -10.245713767 ], [ -54.82973625, -10.245708386 ], [ -54.829609622, -10.245655252 ], [ -54.829583897, -10.245644458 ], [ -54.829536794, -10.245624693 ], [ -54.82940095, -10.245561697 ], [ -54.829219725, -10.245477657 ], [ -54.829218003, -10.245476775 ], [ -54.829214948, -10.245475211 ], [ -54.829035056, -10.245383109 ], [ -54.828919679, -10.245324037 ], [ -54.828852497, -10.245295169 ], [ -54.828852109, -10.245295002 ], [ -54.828669162, -10.24521639 ], [ -54.828486215, -10.245137778 ], [ -54.828433504, -10.245115128 ], [ -54.828303268, -10.245115128 ], [ -54.828120322, -10.245115128 ], [ -54.828120322, -10.245295169 ], [ -54.827937375, -10.245295169 ], [ -54.827754428, -10.245295169 ], [ -54.827571481, -10.245295169 ], [ -54.827571481, -10.245475211 ], [ -54.827388534, -10.245475211 ], [ -54.827205587, -10.245475211 ], [ -54.827205587, -10.245655252 ], [ -54.82702264, -10.245655252 ], [ -54.826839693, -10.245655252 ], [ -54.826656746, -10.245655252 ], [ -54.826656746, -10.245835294 ], [ -54.826473799, -10.245835294 ], [ -54.826290852, -10.245835294 ], [ -54.826290852, -10.246015335 ], [ -54.826107905, -10.246015335 ], [ -54.826107905, -10.246195377 ], [ -54.825924959, -10.246195377 ], [ -54.825924959, -10.246375418 ], [ -54.825924959, -10.24655546 ], [ -54.825742012, -10.24655546 ], [ -54.825742012, -10.246735502 ], [ -54.825742012, -10.246915543 ], [ -54.825559065, -10.246915543 ], [ -54.825559065, -10.247095585 ], [ -54.825559065, -10.247275626 ], [ -54.825559065, -10.247455668 ], [ -54.825376118, -10.247455668 ], [ -54.825376118, -10.247635709 ], [ -54.825193171, -10.247635709 ], [ -54.825193171, -10.247815751 ], [ -54.825193171, -10.247945532 ], [ -54.82523074, -10.247995792 ], [ -54.825278335, -10.248059464 ], [ -54.825366181, -10.248175834 ], [ -54.825376118, -10.248188997 ], [ -54.825502092, -10.248355875 ], [ -54.825559065, -10.248431347 ], [ -54.825638004, -10.248535917 ], [ -54.825742012, -10.248673697 ], [ -54.825773915, -10.248715959 ], [ -54.825909826, -10.248896 ], [ -54.825924959, -10.248916046 ], [ -54.826045737, -10.249076042 ], [ -54.826107905, -10.249158396 ], [ -54.826181648, -10.249256083 ], [ -54.826290852, -10.249400746 ], [ -54.826317559, -10.249436125 ], [ -54.826453471, -10.249616166 ], [ -54.826473799, -10.249643096 ], [ -54.826589382, -10.249796208 ], [ -54.826656746, -10.249885446 ], [ -54.826725293, -10.249976249 ], [ -54.826839693, -10.250127795 ], [ -54.826839693, -10.249976249 ], [ -54.82702264, -10.249976249 ], [ -54.82702264, -10.249796208 ], [ -54.827205587, -10.249796208 ], [ -54.827388534, -10.249796208 ], [ -54.827388534, -10.249616166 ], [ -54.827571481, -10.249616166 ], [ -54.827571481, -10.249436125 ], [ -54.827754428, -10.249436125 ], [ -54.827754428, -10.249256083 ], [ -54.827754428, -10.249076042 ], [ -54.827937375, -10.249076042 ], [ -54.827937375, -10.248896 ], [ -54.827937375, -10.248715959 ], [ -54.827937375, -10.248535917 ], [ -54.828120322, -10.248535917 ], [ -54.828120322, -10.248355875 ], [ -54.828120322, -10.248175834 ], [ -54.828303268, -10.248175834 ], [ -54.828303268, -10.247995792 ], [ -54.828486215, -10.247995792 ], [ -54.828486215, -10.247815751 ], [ -54.828669162, -10.247815751 ], [ -54.828852109, -10.247815751 ], [ -54.828852109, -10.247635709 ], [ -54.829035056, -10.247635709 ], [ -54.829218003, -10.247635709 ], [ -54.82940095, -10.247635709 ], [ -54.829583897, -10.247635709 ], [ -54.829766844, -10.247635709 ], [ -54.829949791, -10.247635709 ], [ -54.830132738, -10.247635709 ], [ -54.830315685, -10.247635709 ], [ -54.830315685, -10.247815751 ], [ -54.830498631, -10.247815751 ], [ -54.830681578, -10.247815751 ], [ -54.830864525, -10.247815751 ], [ -54.831047472, -10.247815751 ], [ -54.831047472, -10.247995792 ], [ -54.831230419, -10.247995792 ], [ -54.831413366, -10.247995792 ], [ -54.831596313, -10.247995792 ], [ -54.83177926, -10.247995792 ], [ -54.83177926, -10.248175834 ], [ -54.831962207, -10.248175834 ], [ -54.832145154, -10.248175834 ], [ -54.832328101, -10.248175834 ], [ -54.832511047, -10.248175834 ], [ -54.832693994, -10.248175834 ], [ -54.832876941, -10.248175834 ], [ -54.833059888, -10.248175834 ], [ -54.833242835, -10.248175834 ], [ -54.833425782, -10.248175834 ], [ -54.833425782, -10.247995792 ], [ -54.833608729, -10.247995792 ], [ -54.833608729, -10.247815751 ], [ -54.833608729, -10.247635709 ], [ -54.833608729, -10.247455668 ], [ -54.833608729, -10.247275626 ], [ -54.833791676, -10.247275626 ] ] ], [ [ [ -54.832145154, -10.25123654 ], [ -54.832145154, -10.251056499 ], [ -54.831962207, -10.251056499 ], [ -54.83177926, -10.251056499 ], [ -54.831596313, -10.251056499 ], [ -54.831596313, -10.250876457 ], [ -54.831413366, -10.250876457 ], [ -54.831230419, -10.250876457 ], [ -54.831230419, -10.250696416 ], [ -54.831047472, -10.250696416 ], [ -54.830864525, -10.250696416 ], [ -54.830681578, -10.250696416 ], [ -54.830681578, -10.250516374 ], [ -54.830498631, -10.250516374 ], [ -54.830498631, -10.250696416 ], [ -54.830315685, -10.250696416 ], [ -54.830315685, -10.250876457 ], [ -54.830132738, -10.250876457 ], [ -54.830132738, -10.251056499 ], [ -54.830132738, -10.25123654 ], [ -54.830132738, -10.251416582 ], [ -54.830132738, -10.251596623 ], [ -54.830132738, -10.251776665 ], [ -54.830132738, -10.251956706 ], [ -54.830132738, -10.252136748 ], [ -54.829949791, -10.252136748 ], [ -54.829949791, -10.252316789 ], [ -54.829949791, -10.252496831 ], [ -54.829949791, -10.252676873 ], [ -54.829949791, -10.252764145 ], [ -54.830096014, -10.252676873 ], [ -54.830132738, -10.252654954 ], [ -54.83025296, -10.2525832 ], [ -54.830315685, -10.252547825 ], [ -54.830406103, -10.252496831 ], [ -54.830498631, -10.252444647 ], [ -54.830681578, -10.252341469 ], [ -54.830725338, -10.252316789 ], [ -54.830864525, -10.252238291 ], [ -54.831044573, -10.252136748 ], [ -54.831047472, -10.252135113 ], [ -54.831230419, -10.252031935 ], [ -54.831363808, -10.251956706 ], [ -54.831413366, -10.251928756 ], [ -54.831596313, -10.251825578 ], [ -54.831683042, -10.251776665 ], [ -54.83177926, -10.2517224 ], [ -54.831962207, -10.251619222 ], [ -54.832002277, -10.251596623 ], [ -54.832145154, -10.251516044 ], [ -54.832321512, -10.251416582 ], [ -54.832328101, -10.251412866 ], [ -54.832511047, -10.251309688 ], [ -54.832511047, -10.25123654 ], [ -54.832328101, -10.25123654 ], [ -54.832145154, -10.25123654 ] ] ] ] } },
{ "type": "Feature", "properties": { "RX": 323.245, "DOSE": 323.245, "zone": 5.0, "fert_kg_ha": 323.245, "area ha": 10.37 }, "geometry": { "type": "MultiPolygon", "coordinates": [ [ [ [ -54.827637776, -10.242917188 ], [ -54.827588168, -10.242863257 ], [ -54.827571481, -10.242849049 ], [ -54.827515484, -10.242801371 ], [ -54.827475431, -10.242774588 ], [ -54.827465658, -10.242768052 ], [ -54.827388534, -10.242723434 ], [ -54.827250342, -10.242643486 ], [ -54.827208392, -10.242621251 ], [ -54.827205587, -10.242620007 ], [ -54.827148151, -10.242594546 ], [ -54.82702264, -10.242538908 ], [ -54.826960941, -10.242511557 ], [ -54.826839693, -10.242470688 ], [ -54.826738487, -10.242436575 ], [ -54.826656746, -10.242418052 ], [ -54.826641092, -10.242414505 ], [ -54.826634271, -10.242412959 ], [ -54.826473799, -10.242364752 ], [ -54.826395877, -10.242341344 ], [ -54.826290852, -10.242324915 ], [ -54.826163014, -10.242304917 ], [ -54.826107905, -10.242298529 ], [ -54.82599894, -10.2422859 ], [ -54.825924959, -10.242268386 ], [ -54.825861881, -10.242253454 ], [ -54.825824823, -10.242234463 ], [ -54.825819513, -10.242231742 ], [ -54.825752513, -10.242179126 ], [ -54.825742012, -10.242161335 ], [ -54.825717949, -10.242120568 ], [ -54.82566213, -10.242054421 ], [ -54.825646649, -10.242036076 ], [ -54.825584911, -10.241974322 ], [ -54.825559065, -10.241953332 ], [ -54.825461845, -10.24187438 ], [ -54.825459495, -10.241872472 ], [ -54.825376118, -10.241812713 ], [ -54.825348691, -10.241793055 ], [ -54.825280402, -10.241759475 ], [ -54.825193171, -10.241728646 ], [ -54.825174478, -10.24172204 ], [ -54.825113956, -10.241707883 ], [ -54.825026442, -10.241695443 ], [ -54.825010224, -10.241695205 ], [ -54.824951101, -10.241694338 ], [ -54.82488937, -10.241705429 ], [ -54.824827277, -10.241727458 ], [ -54.824817016, -10.241731098 ], [ -54.82464433, -10.241812425 ], [ -54.824600863, -10.241832896 ], [ -54.824528929, -10.24187438 ], [ -54.824470387, -10.24190814 ], [ -54.824461383, -10.241913953 ], [ -54.824386123, -10.241962543 ], [ -54.824324705, -10.242004818 ], [ -54.824278436, -10.24204108 ], [ -54.824261413, -10.242054421 ], [ -54.824166685, -10.242128662 ], [ -54.824095489, -10.242193788 ], [ -54.824056752, -10.242229223 ], [ -54.824052008, -10.242234463 ], [ -54.823956662, -10.242339775 ], [ -54.823912543, -10.242393536 ], [ -54.823895334, -10.242414505 ], [ -54.823878132, -10.242435466 ], [ -54.823765536, -10.242594546 ], [ -54.823751777, -10.242613986 ], [ -54.823729596, -10.242641144 ], [ -54.823620606, -10.242774588 ], [ -54.823576022, -10.242829176 ], [ -54.823546649, -10.242871986 ], [ -54.823541213, -10.242879908 ], [ -54.823505681, -10.242942485 ], [ -54.823500306, -10.242954629 ], [ -54.823432862, -10.243107002 ], [ -54.823424851, -10.243134671 ], [ -54.823372725, -10.243314712 ], [ -54.823363702, -10.243345878 ], [ -54.823338265, -10.243433735 ], [ -54.823322491, -10.243473607 ], [ -54.823310442, -10.243494754 ], [ -54.823260816, -10.243581851 ], [ -54.823193798, -10.243674795 ], [ -54.823180755, -10.243692885 ], [ -54.823171972, -10.243705066 ], [ -54.823134239, -10.243746633 ], [ -54.82307635, -10.243854837 ], [ -54.822997808, -10.244001646 ], [ -54.822980029, -10.244034878 ], [ -54.822898285, -10.244187671 ], [ -54.82288221, -10.24421492 ], [ -54.822816432, -10.244326424 ], [ -54.822814861, -10.244329372 ], [ -54.822814861, -10.244394961 ], [ -54.822997808, -10.244394961 ], [ -54.823180755, -10.244394961 ], [ -54.823363702, -10.244394961 ], [ -54.823546649, -10.244394961 ], [ -54.823729596, -10.244394961 ], [ -54.823912543, -10.244394961 ], [ -54.824095489, -10.244394961 ], [ -54.824095489, -10.244575003 ], [ -54.824278436, -10.244575003 ], [ -54.824461383, -10.244575003 ], [ -54.82464433, -10.244575003 ], [ -54.824827277, -10.244575003 ], [ -54.825010224, -10.244575003 ], [ -54.825193171, -10.244575003 ], [ -54.825193171, -10.244394961 ], [ -54.825376118, -10.244394961 ], [ -54.825559065, -10.244394961 ], [ -54.825742012, -10.244394961 ], [ -54.825924959, -10.244394961 ], [ -54.825924959, -10.24421492 ], [ -54.826107905, -10.24421492 ], [ -54.826290852, -10.24421492 ], [ -54.826290852, -10.244034878 ], [ -54.826473799, -10.244034878 ], [ -54.826656746, -10.244034878 ], [ -54.826656746, -10.243854837 ], [ -54.826839693, -10.243854837 ], [ -54.826839693, -10.243674795 ], [ -54.82702264, -10.243674795 ], [ -54.827205587, -10.243674795 ], [ -54.827205587, -10.243494754 ], [ -54.827388534, -10.243494754 ], [ -54.827388534, -10.243314712 ], [ -54.827571481, -10.243314712 ], [ -54.827571481, -10.243134671 ], [ -54.827571481, -10.242954629 ], [ -54.827661318, -10.242954629 ], [ -54.827637776, -10.242917188 ] ] ] ] } },
{ "type": "Feature", "properties": { "RX": 300.0, "DOSE": 300.0, "zone": 6.0, "fert_kg_ha": 300.0, "area ha": 76.1 }, "geometry": { "type": "MultiPolygon", "coordinates": [ [ [ [ -54.822789846880809, -10.244849641650873 ], [ -54.822744893256264, -10.244824072922313 ], [ -54.822681119657176, -10.244815319683223 ], [ -54.822608592819002, -10.24483407662413 ], [ -54.82256107523537, -10.244872840968672 ], [ -54.822487297934472, -10.244965375210478 ], [ -54.822217197985402, -10.245328009401346 ], [ -54.821962103589065, -10.245715652846759 ], [ -54.82168538695926, -10.246249431903301 ], [ -54.821440026842794, -10.246579398956481 ], [ -54.821245430888354, -10.24686283219447 ], [ -54.821152363257966, -10.247078579883087 ], [ -54.821141069201616, -10.247279975907947 ], [ -54.821156593604812, -10.248110784510983 ], [ -54.821071774127347, -10.248986863340953 ], [ -54.820994245438264, -10.249424525295449 ], [ -54.82097423803463, -10.249779656709958 ], [ -54.821006750065536, -10.250427396402614 ], [ -54.821021755618261, -10.250649978768044 ], [ -54.820971737109176, -10.251060130542545 ], [ -54.82097173710919, -10.251277711057066 ], [ -54.82100675006555, -10.251412761031597 ], [ -54.821074275052815, -10.251662853577026 ], [ -54.821144300965528, -10.251850422986093 ], [ -54.821236835207337, -10.252032990544256 ], [ -54.82130686112005, -10.252130526636973 ], [ -54.821504434230945, -10.252350608076949 ], [ -54.821678248550015, -10.25270448902873 ], [ -54.821723265208192, -10.252852043630531 ], [ -54.821713261506375, -10.252884555661437 ], [ -54.821541948112753, -10.253015854247787 ], [ -54.820977989422822, -10.253454141433645 ], [ -54.820791670476474, -10.253562306459544 ], [ -54.820154559716997, -10.25391556217996 ], [ -54.819934478277013, -10.254116886679029 ], [ -54.819791925526118, -10.254271944057194 ], [ -54.819689387582493, -10.254442006988086 ], [ -54.819606857042501, -10.254644581949881 ], [ -54.819474307993431, -10.255075991590743 ], [ -54.819419287633437, -10.255366098943441 ], [ -54.81940928393162, -10.25557117483069 ], [ -54.819416863468639, -10.255649262572101 ], [ -54.819436794111624, -10.255811263674303 ], [ -54.819478059381638, -10.255936309947018 ], [ -54.8197856732125, -10.256586550565128 ], [ -54.820130800925178, -10.257304316170504 ], [ -54.820270852750618, -10.2575944235232 ], [ -54.8204859323397, -10.257918293369528 ], [ -54.820570963805146, -10.258025833164062 ], [ -54.820669125129228, -10.258013953768154 ], [ -54.82077903514972, -10.257988644372215 ], [ -54.829015520438709, -10.253305650425158 ], [ -54.829075360812418, -10.253270948644122 ], [ -54.829103808839456, -10.25324062492299 ], [ -54.829108185458999, -10.253217491362538 ], [ -54.829102870992415, -10.253186229794359 ], [ -54.829088493921653, -10.253159703459326 ], [ -54.822789846880809, -10.244849641650873 ] ] ] ] } },
{ "type": "Feature", "properties": { "RX": 300.0, "DOSE": 300.0, "zone": 6.0, "fert_kg_ha": 300.0, "area ha": 8.12 }, "geometry": { "type": "MultiPolygon", "coordinates": [ [ [ [ -54.819773793816609, -10.258493193608334 ], [ -54.819777545204794, -10.258482877290835 ], [ -54.819775669510705, -10.258452553569702 ], [ -54.819770355044113, -10.258433484013112 ], [ -54.819740031323015, -10.258373774417894 ], [ -54.819721274382104, -10.258337198383124 ], [ -54.819705956213703, -10.258307812509036 ], [ -54.819689387582564, -10.258281240176085 ], [ -54.819675632492569, -10.258258106615633 ], [ -54.819665628790752, -10.258242788447225 ], [ -54.819645777694952, -10.258209025953592 ], [ -54.81962874014031, -10.258181984697117 ], [ -54.81960091734463, -10.258143220352578 ], [ -54.819589663180089, -10.258128527415533 ], [ -54.819496503706922, -10.25802505162487 ], [ -54.819451487048745, -10.25798128542942 ], [ -54.819400218076936, -10.257936268771244 ], [ -54.819328941701507, -10.257877497023069 ], [ -54.819181387099725, -10.257732443346725 ], [ -54.818856266790675, -10.257421078127674 ], [ -54.818736222368869, -10.257308536482233 ], [ -54.818528645556192, -10.25718349020952 ], [ -54.818407350671656, -10.257092206430441 ], [ -54.818322319206217, -10.257039686995903 ], [ -54.818231035427132, -10.256998421725907 ], [ -54.818088482676245, -10.256977163859545 ], [ -54.81787652924401, -10.25698841802409 ], [ -54.817770865143565, -10.256992794643635 ], [ -54.817657698266778, -10.256982790941816 ], [ -54.817341956428173, -10.256987792792728 ], [ -54.817260676350905, -10.257001547882727 ], [ -54.817181897199099, -10.257032809450903 ], [ -54.81712437591365, -10.257070323332718 ], [ -54.817063103240031, -10.257127844618164 ], [ -54.816979322237337, -10.257214126546335 ], [ -54.816885537532798, -10.257329794348593 ], [ -54.816834893792347, -10.257390441790857 ], [ -54.816772995887355, -10.257467345248575 ], [ -54.816701094280546, -10.257579886894016 ], [ -54.816586051709649, -10.257739946123086 ], [ -54.816506022095112, -10.257887500724888 ], [ -54.816388478598768, -10.25811258401577 ], [ -54.816328456387865, -10.258230127512119 ], [ -54.81630844898423, -10.258292650648475 ], [ -54.816288441580603, -10.258392687666644 ], [ -54.816283439729702, -10.258540242268444 ], [ -54.816318452686062, -10.258665288541154 ], [ -54.816541035051479, -10.259243002321085 ], [ -54.816698593355085, -10.259680664275573 ], [ -54.816798630373256, -10.259995780882807 ], [ -54.816813635925982, -10.26006830772098 ], [ -54.816833643329616, -10.260100819751884 ], [ -54.816866155360522, -10.260113324379155 ], [ -54.816903669242336, -10.260120827155518 ], [ -54.817013709962325, -10.260070808646434 ], [ -54.819769417197193, -10.258498586228846 ], [ -54.819773793816609, -10.258493193608334 ] ] ] ] } }
]
}
